<?xml version="1.0" encoding="UTF-8"?>
<kml xmlns="http://www.opengis.net/kml/2.2"><Document>
<name>2026-07-17 Jamwon Hangang Ride</name><Placemark><name>Ride route</name>
<Style><LineStyle><color>ff23cfa7</color><width>4</width></LineStyle></Style>
<LineString><tessellate>1</tessellate><coordinates>127.01561400,37.52450303,22.42 127.01561400,37.52450303,22.42 127.01561400,37.52450303,22.42 127.01567490,37.52453023,38.59 127.01569480,37.52458446,37.57 127.01577820,37.52458446,39.35 127.01578450,37.52458446,39.64 127.01580010,37.52459061,38.63 127.01581160,37.52459061,38.57 127.01581160,37.52459187,40.20 127.01581160,37.52459786,41.98 127.01581130,37.52460442,42.28 127.01579420,37.52461077,37.90 127.01579220,37.52461133,37.87 127.01577920,37.52461238,35.31 127.01577240,37.52462285,35.32 127.01575130,37.52463139,33.19 127.01572630,37.52463336,31.90 127.01572130,37.52463385,28.54 127.01572130,37.52465321,9.52 127.01571990,37.52465351,12.91 127.01571540,37.52465351,15.98 127.01571260,37.52465321,14.85 127.01570670,37.52465303,16.38 127.01570030,37.52465303,14.89 127.01569610,37.52465250,15.04 127.01569070,37.52465207,14.74 127.01568970,37.52465250,14.79 127.01568970,37.52465443,14.98 127.01569070,37.52465152,16.41 127.01570940,37.52465152,16.82 127.01571110,37.52465152,17.05 127.01571280,37.52464943,17.06 127.01571280,37.52464655,17.12 127.01571280,37.52463674,14.58 127.01571300,37.52462795,3.70 127.01571300,37.52462468,3.44 127.01571980,37.52461170,4.24 127.01571980,37.52461090,5.54 127.01571980,37.52461090,7.07 127.01571550,37.52461090,7.40 127.01571550,37.52461126,6.65 127.01571550,37.52461315,5.62 127.01571550,37.52461403,7.15 127.01572210,37.52461617,7.80 127.01572370,37.52461617,7.85 127.01572530,37.52461617,8.93 127.01572740,37.52460602,10.01 127.01572900,37.52460335,10.61 127.01573300,37.52459990,11.23 127.01573300,37.52459420,12.06 127.01574270,37.52458723,12.65 127.01574930,37.52457972,12.92 127.01575070,37.52457108,13.13 127.01575170,37.52456902,13.03 127.01575170,37.52456902,12.96 127.01575070,37.52456902,13.24 127.01574920,37.52456707,14.11 127.01573900,37.52456521,14.77 127.01572520,37.52456278,15.23 127.01570620,37.52455837,15.86 127.01569020,37.52455326,16.64 127.01567480,37.52455326,17.05 127.01566210,37.52455326,17.28 127.01565110,37.52455312,17.52 127.01564610,37.52455312,17.91 127.01564440,37.52455312,18.10 127.01564410,37.52454655,17.95 127.01564130,37.52454090,18.07 127.01563560,37.52453731,17.87 127.01561880,37.52453294,18.32 127.01557560,37.52452342,17.95 127.01555410,37.52450675,18.20 127.01553610,37.52447676,18.33 127.01553080,37.52445152,17.36 127.01550530,37.52441266,17.52 127.01548070,37.52438744,15.38 127.01543550,37.52436552,16.32 127.01540220,37.52435229,17.90 127.01533040,37.52431993,10.92 127.01527310,37.52431866,9.22 127.01523940,37.52428219,9.13 127.01518820,37.52424039,8.27 127.01516090,37.52421417,9.55 127.01512610,37.52418221,11.42 127.01507230,37.52413691,13.24 127.01503360,37.52409957,14.43 127.01500260,37.52407075,14.65 127.01496820,37.52404231,14.43 127.01494180,37.52400635,14.80 127.01490970,37.52396703,14.69 127.01487910,37.52392672,14.74 127.01485390,37.52389000,15.12 127.01482760,37.52384791,15.63 127.01480020,37.52381340,15.65 127.01477500,37.52378121,15.54 127.01474490,37.52372906,14.98 127.01470460,37.52368188,16.02 127.01467830,37.52365099,15.89 127.01465440,37.52361491,15.89 127.01462010,37.52358293,16.59 127.01458890,37.52354798,15.56 127.01456210,37.52351265,15.31 127.01452960,37.52348177,15.36 127.01450180,37.52344209,15.85 127.01447730,37.52340599,15.48 127.01444380,37.52337037,15.69 127.01440940,37.52333967,15.39 127.01437730,37.52330507,15.24 127.01435020,37.52326761,15.67 127.01432000,37.52323348,15.95 127.01429050,37.52319878,15.84 127.01426460,37.52316305,15.98 127.01423850,37.52312435,15.85 127.01421040,37.52308687,16.39 127.01417970,37.52305949,16.53 127.01414910,37.52302699,16.40 127.01412550,37.52299396,15.82 127.01409210,37.52296083,15.92 127.01406810,37.52292892,16.02 127.01403630,37.52289428,15.91 127.01401150,37.52286089,15.89 127.01398770,37.52282576,16.16 127.01396370,37.52279239,16.17 127.01393180,37.52275873,16.21 127.01390620,37.52272078,16.24 127.01387710,37.52269320,16.24 127.01384860,37.52265347,16.63 127.01382950,37.52261757,16.72 127.01379390,37.52258170,16.68 127.01374490,37.52254818,16.46 127.01373170,37.52252060,16.68 127.01369610,37.52249485,16.82 127.01368930,37.52245511,16.53 127.01367820,37.52241342,16.49 127.01363810,37.52237174,15.91 127.01360270,37.52235900,15.90 127.01358020,37.52233383,16.16 127.01353840,37.52229899,16.08 127.01350010,37.52226913,15.97 127.01346720,37.52224024,15.67 127.01343940,37.52220801,15.48 127.01341450,37.52218149,15.06 127.01339410,37.52214846,15.80 127.01338940,37.52213469,15.84 127.01337020,37.52211782,15.50 127.01335600,37.52208600,16.03 127.01332440,37.52203584,15.80 127.01327150,37.52198101,15.97 127.01323250,37.52195180,15.93 127.01320870,37.52194134,14.02 127.01318210,37.52192447,14.03 127.01313420,37.52188836,14.35 127.01307860,37.52184402,13.91 127.01305260,37.52181247,14.32 127.01302820,37.52178735,13.53 127.01299360,37.52175931,13.47 127.01295730,37.52174009,13.81 127.01293350,37.52171889,13.57 127.01290890,37.52168803,13.33 127.01287820,37.52165152,12.94 127.01285140,37.52162290,12.91 127.01282030,37.52159698,13.09 127.01279190,37.52156828,13.61 127.01276890,37.52155533,13.99 127.01273590,37.52153852,12.94 127.01272500,37.52151219,13.60 127.01270270,37.52148787,13.32 127.01267140,37.52145894,13.39 127.01264040,37.52143175,13.85 127.01260460,37.52142132,14.58 127.01259520,37.52139001,15.45 127.01256350,37.52136038,15.68 127.01255860,37.52133398,14.33 127.01253890,37.52130678,13.17 127.01250780,37.52128135,15.27 127.01247790,37.52125025,16.02 127.01244600,37.52122189,16.77 127.01242800,37.52119404,16.12 127.01240070,37.52116943,15.72 127.01237050,37.52113712,15.98 127.01233270,37.52111594,16.42 127.01231400,37.52108451,16.24 127.01228680,37.52105295,15.36 127.01226760,37.52102644,16.14 127.01224310,37.52098908,15.71 127.01221240,37.52095858,15.53 127.01218000,37.52093149,15.66 127.01215600,37.52089906,15.55 127.01213140,37.52087049,15.66 127.01210250,37.52083599,15.82 127.01207950,37.52080048,15.41 127.01205280,37.52077595,15.62 127.01203030,37.52074295,15.53 127.01200200,37.52071740,14.64 127.01196090,37.52068464,14.72 127.01194060,37.52064925,14.53 127.01191420,37.52062495,15.03 127.01187700,37.52059993,15.32 127.01184950,37.52056727,15.23 127.01182520,37.52053962,15.57 127.01178480,37.52051726,15.53 127.01176590,37.52049350,15.40 127.01173510,37.52045815,15.63 127.01170950,37.52043255,15.79 127.01168750,37.52040036,15.17 127.01166390,37.52037258,15.18 127.01163650,37.52035062,15.01 127.01159780,37.52033411,14.95 127.01156470,37.52031496,14.96 127.01153280,37.52028961,15.22 127.01150720,37.52026316,15.53 127.01150720,37.52022921,15.32 127.01150720,37.52019730,15.60 127.01151250,37.52017689,15.56 127.01154590,37.52017689,15.81 127.01157950,37.52017689,16.00 127.01160400,37.52020396,16.12 127.01162050,37.52023507,16.25 127.01162210,37.52026913,16.12 127.01162540,37.52030891,15.90 127.01164870,37.52032292,17.75 127.01166370,37.52035473,17.42 127.01168600,37.52038275,18.08 127.01171220,37.52041037,17.70 127.01173750,37.52043741,17.56 127.01176680,37.52046447,17.62 127.01179240,37.52049288,17.53 127.01181980,37.52052026,17.43 127.01184670,37.52054863,17.58 127.01187240,37.52057713,17.59 127.01189580,37.52060765,17.50 127.01191960,37.52063812,17.56 127.01194150,37.52066724,17.59 127.01196530,37.52069674,17.51 127.01199260,37.52072610,17.52 127.01201830,37.52075743,17.32 127.01203990,37.52078648,17.45 127.01206250,37.52081746,17.46 127.01208760,37.52084675,17.42 127.01211520,37.52087535,17.45 127.01214240,37.52090310,17.40 127.01217150,37.52092976,17.37 127.01220240,37.52095583,17.37 127.01223200,37.52098294,17.35 127.01226090,37.52100946,17.26 127.01228830,37.52103948,17.26 127.01231800,37.52106461,17.24 127.01234560,37.52109774,17.10 127.01236890,37.52112544,17.24 127.01239460,37.52115678,17.26 127.01241890,37.52118806,17.13 127.01244150,37.52121921,17.10 127.01246570,37.52124922,17.09 127.01249100,37.52127861,17.20 127.01251490,37.52130554,17.08 127.01253950,37.52133471,17.15 127.01256750,37.52136207,17.04 127.01259520,37.52138897,16.74 127.01262650,37.52141421,16.74 127.01265200,37.52144052,16.77 127.01268220,37.52146595,16.65 127.01270960,37.52148918,16.54 127.01274190,37.52151267,16.61 127.01277080,37.52153319,16.70 127.01280340,37.52155669,16.62 127.01283230,37.52158229,16.59 127.01285960,37.52160680,16.40 127.01288510,37.52163112,16.51 127.01291580,37.52165771,16.30 127.01294340,37.52168279,16.35 127.01297300,37.52171065,16.34 127.01300670,37.52173574,16.21 127.01303430,37.52176322,16.33 127.01306250,37.52178839,16.40 127.01309360,37.52181541,16.40 127.01312500,37.52184386,16.39 127.01315550,37.52187110,16.40 127.01318780,37.52189965,16.36 127.01322070,37.52192482,16.52 127.01325510,37.52195172,16.47 127.01329120,37.52198149,16.40 127.01332130,37.52200380,16.43 127.01335250,37.52203405,16.16 127.01337760,37.52206853,16.08 127.01340430,37.52209877,16.03 127.01343380,37.52213063,15.87 127.01346060,37.52216176,15.79 127.01348690,37.52219003,15.68 127.01351620,37.52221874,15.56 127.01354820,37.52224956,15.21 127.01357780,37.52227758,14.84 127.01360320,37.52230291,14.86 127.01363350,37.52233435,14.74 127.01366040,37.52236149,14.80 127.01368360,37.52238921,14.49 127.01370500,37.52242070,14.40 127.01373280,37.52245731,14.53 127.01375520,37.52248657,14.71 127.01379250,37.52253557,14.42 127.01382780,37.52257305,14.27 127.01386310,37.52261522,14.33 127.01390050,37.52266709,14.09 127.01392980,37.52270883,14.31 127.01396210,37.52273862,14.63 127.01399020,37.52276144,15.10 127.01400820,37.52282428,14.44 127.01403440,37.52284676,14.68 127.01407450,37.52289930,14.35 127.01410360,37.52291823,14.11 127.01414420,37.52295518,14.52 127.01418220,37.52299612,14.65 127.01421020,37.52302752,14.72 127.01423960,37.52306582,14.60 127.01426850,37.52310215,14.69 127.01429710,37.52314212,14.79 127.01431810,37.52317716,14.73 127.01435530,37.52321797,14.66 127.01438860,37.52326225,14.76 127.01441700,37.52330256,14.50 127.01443960,37.52332228,14.47 127.01449040,37.52333253,14.84 127.01454590,37.52335096,15.49 127.01457230,37.52338305,15.41 127.01460510,37.52341190,15.25 127.01463300,37.52345491,14.89 127.01466250,37.52349652,15.06 127.01471850,37.52354043,14.02 127.01474480,37.52356249,13.69 127.01476840,37.52358435,13.95 127.01479150,37.52361311,13.78 127.01485240,37.52364395,14.89 127.01488480,37.52366459,15.10 127.01491410,37.52368426,15.08 127.01492690,37.52369389,15.27 127.01494630,37.52371896,14.94 127.01497580,37.52375303,15.32 127.01500080,37.52377186,15.53 127.01501970,37.52379437,15.66 127.01503570,37.52382348,15.17 127.01505500,37.52385626,14.59 127.01506040,37.52387842,14.26 127.01506300,37.52389506,14.02 127.01506720,37.52389952,14.02 127.01509440,37.52391640,13.54 127.01513150,37.52395519,13.35 127.01515320,37.52399912,14.12 127.01518920,37.52399924,14.56 127.01519820,37.52403241,13.78 127.01520840,37.52407930,13.82 127.01521200,37.52412466,15.03 127.01522700,37.52416786,16.14 127.01524910,37.52420124,17.56 127.01526690,37.52423646,17.79 127.01529020,37.52425967,18.22 127.01531250,37.52428555,18.82 127.01533030,37.52430863,19.24 127.01535060,37.52433513,18.91 127.01536390,37.52435973,18.71 127.01536770,37.52438028,18.67 127.01537740,37.52440635,18.06 127.01539010,37.52443163,17.78 127.01540070,37.52445622,17.47 127.01540630,37.52447582,17.04 127.01540630,37.52449986,16.40 127.01540630,37.52451576,16.08 127.01539920,37.52453031,15.96 127.01537770,37.52456488,16.12 127.01535300,37.52459333,16.04 127.01532550,37.52460821,15.76 127.01530760,37.52462580,15.68 127.01528990,37.52463810,15.45 127.01527790,37.52465199,15.17 127.01527240,37.52466299,15.21 127.01525680,37.52468237,15.36 127.01524510,37.52469539,14.90 127.01523680,37.52471440,14.85 127.01523520,37.52472766,14.74 127.01523470,37.52473956,14.53 127.01523470,37.52475229,14.26 127.01523470,37.52479137,14.11 127.01523830,37.52481906,13.90 127.01524050,37.52485115,13.92 127.01525040,37.52487471,13.62 127.01527040,37.52490112,13.60 127.01529540,37.52492581,13.27 127.01532290,37.52495252,12.91 127.01534470,37.52498335,12.87 127.01537160,37.52502937,13.73 127.01540330,37.52507272,14.01 127.01543350,37.52509831,13.96 127.01545690,37.52513213,13.52 127.01548740,37.52518208,13.81 127.01552090,37.52522044,14.07 127.01556170,37.52525314,14.02 127.01559280,37.52528676,14.18 127.01562630,37.52531998,14.14 127.01566010,37.52534995,14.11 127.01569380,37.52538496,14.42 127.01572680,37.52541432,14.79 127.01576020,37.52544466,14.70 127.01579210,37.52547800,14.44 127.01582830,37.52551022,14.53 127.01586520,37.52554156,14.69 127.01590510,37.52557028,14.96 127.01594140,37.52560142,15.53 127.01597770,37.52562981,15.66 127.01601270,37.52565961,15.88 127.01604630,37.52568939,16.07 127.01607770,37.52571569,16.42 127.01611370,37.52574329,16.08 127.01614880,37.52577183,16.44 127.01618250,37.52580010,16.74 127.01621570,37.52582742,16.95 127.01624950,37.52585378,17.05 127.01628050,37.52588101,16.88 127.01631490,37.52590729,17.33 127.01634270,37.52593218,16.47 127.01637470,37.52595711,16.11 127.01640870,37.52598678,15.83 127.01643380,37.52601845,15.82 127.01647360,37.52604428,16.39 127.01650450,37.52607499,16.24 127.01654030,37.52610297,16.09 127.01657740,37.52612814,16.62 127.01661070,37.52615631,16.63 127.01664680,37.52618412,16.57 127.01668120,37.52621115,16.39 127.01671610,37.52624073,16.77 127.01675420,37.52625560,18.61 127.01678150,37.52629305,18.06 127.01681480,37.52632320,17.89 127.01685020,37.52634911,17.82 127.01688390,37.52637835,17.82 127.01691600,37.52640513,17.80 127.01694810,37.52643234,17.61 127.01697890,37.52645703,17.42 127.01701010,37.52648728,17.52 127.01704090,37.52651934,18.00 127.01707050,37.52653764,17.66 127.01710160,37.52656110,17.44 127.01713030,37.52658681,17.45 127.01716290,37.52660766,17.36 127.01719440,37.52662808,17.40 127.01722740,37.52664831,17.36 127.01726360,37.52665667,17.05 127.01729780,37.52665667,17.96 127.01732630,37.52665667,17.76 127.01734680,37.52665506,18.66 127.01737330,37.52663340,18.42 127.01739530,37.52663340,17.44 127.01741650,37.52663340,17.81 127.01743550,37.52664389,17.97 127.01743550,37.52666244,17.95 127.01743550,37.52668325,18.30 127.01742470,37.52669426,18.34 127.01739070,37.52669426,16.96 127.01737380,37.52669426,16.65 127.01735880,37.52668933,16.27 127.01733570,37.52667705,17.09 127.01731040,37.52666364,17.05 127.01728770,37.52665044,17.12 127.01726970,37.52664834,16.99 127.01725880,37.52664834,17.08 127.01724860,37.52664186,16.90 127.01724210,37.52664003,16.90 127.01720860,37.52664003,17.16 127.01715620,37.52661613,17.36 127.01712250,37.52659824,17.93 127.01708590,37.52656264,17.47 127.01705930,37.52653612,17.94 127.01701600,37.52649837,18.12 127.01698000,37.52647097,17.83 127.01693970,37.52644004,17.60 127.01689970,37.52640581,17.46 127.01686020,37.52637113,17.22 127.01682150,37.52634040,17.17 127.01677970,37.52630609,17.16 127.01674050,37.52627515,17.47 127.01669740,37.52623908,17.48 127.01665570,37.52620549,17.42 127.01661350,37.52617292,17.36 127.01656770,37.52613893,17.47 127.01652940,37.52610405,17.27 127.01648750,37.52606482,17.30 127.01644300,37.52603106,17.45 127.01639930,37.52599773,17.17 127.01635880,37.52596270,17.03 127.01631680,37.52592602,16.98 127.01627540,37.52589233,16.32 127.01623210,37.52585579,16.14 127.01619280,37.52581985,15.82 127.01614930,37.52578420,15.74 127.01610940,37.52575070,15.91 127.01606320,37.52571715,16.12 127.01602530,37.52568215,15.75 127.01598460,37.52564801,15.83 127.01594270,37.52561520,15.98 127.01590210,37.52558143,16.00 127.01587060,37.52554160,15.91 127.01582720,37.52551418,16.03 127.01578820,37.52548128,15.93 127.01574830,37.52544916,16.07 127.01570890,37.52541774,16.13 127.01567070,37.52538639,16.23 127.01563230,37.52535438,16.12 127.01559690,37.52532269,16.25 127.01555390,37.52529148,16.19 127.01551550,37.52525919,16.43 127.01547790,37.52522811,16.41 127.01543710,37.52519536,16.39 127.01539760,37.52516434,16.38 127.01535960,37.52513485,16.53 127.01532330,37.52510427,16.59 127.01528560,37.52507331,16.81 127.01525060,37.52504344,16.91 127.01521490,37.52501803,17.01 127.01518350,37.52499010,17.12 127.01515420,37.52496187,17.17 127.01512830,37.52493919,17.38 127.01509730,37.52491042,17.41 127.01506920,37.52488444,17.63 127.01504430,37.52486073,17.81 127.01502180,37.52483892,17.93 127.01500340,37.52483268,18.15 127.01498000,37.52481504,18.04 127.01496450,37.52479515,18.17 127.01493790,37.52476841,18.21 127.01490320,37.52474806,18.20 127.01485790,37.52471902,17.68 127.01481130,37.52465739,17.54 127.01476740,37.52462441,17.20 127.01471590,37.52458424,16.64 127.01465650,37.52454124,15.75 127.01460650,37.52450552,15.53 127.01456910,37.52447333,15.75 127.01453480,37.52444456,15.58 127.01449850,37.52441639,15.58 127.01446750,37.52439071,15.46 127.01443360,37.52436726,15.08 127.01439060,37.52433500,14.52 127.01436000,37.52428564,14.76 127.01432710,37.52425025,14.62 127.01428990,37.52421426,14.45 127.01424850,37.52418932,14.53 127.01420790,37.52416314,15.17 127.01417140,37.52413196,15.42 127.01413890,37.52410501,15.38 127.01410420,37.52407611,15.31 127.01407050,37.52404646,15.70 127.01403810,37.52401588,15.89 127.01400690,37.52398757,16.08 127.01396950,37.52395751,16.04 127.01393690,37.52393055,15.93 127.01390190,37.52390099,15.89 127.01387060,37.52387133,15.96 127.01383910,37.52384120,15.86 127.01380550,37.52381344,15.79 127.01377350,37.52378446,15.73 127.01373980,37.52375812,15.67 127.01370910,37.52373104,15.67 127.01367590,37.52370428,15.74 127.01364470,37.52367699,15.72 127.01361270,37.52364684,15.46 127.01358070,37.52362041,15.39 127.01355140,37.52359522,15.26 127.01352380,37.52356569,15.23 127.01349510,37.52353786,15.20 127.01346840,37.52350949,14.90 127.01343830,37.52348499,14.77 127.01340770,37.52346088,14.79 127.01337550,37.52343532,14.91 127.01334580,37.52340785,14.92 127.01331700,37.52338116,14.90 127.01329000,37.52335375,14.98 127.01326070,37.52332790,15.04 127.01322970,37.52330215,15.26 127.01320120,37.52327633,15.13 127.01317190,37.52325115,15.10 127.01314130,37.52322519,15.01 127.01310640,37.52319967,15.00 127.01307540,37.52317472,15.00 127.01304600,37.52314700,14.95 127.01301490,37.52311781,14.85 127.01298320,37.52308878,14.63 127.01294820,37.52305944,14.46 127.01291510,37.52303033,14.53 127.01288320,37.52300008,14.47 127.01284900,37.52297047,14.50 127.01281630,37.52294222,14.63 127.01278430,37.52291690,14.62 127.01275420,37.52288694,14.58 127.01271690,37.52286422,14.60 127.01269160,37.52282745,14.54 127.01266320,37.52280022,14.69 127.01263210,37.52277393,14.83 127.01259830,37.52274893,14.95 127.01256380,37.52272285,14.95 127.01253160,37.52269578,15.01 127.01250490,37.52266785,15.13 127.01247380,37.52264191,15.08 127.01244460,37.52261745,15.04 127.01241380,37.52259078,15.05 127.01238250,37.52256328,15.04 127.01235250,37.52253524,15.13 127.01232190,37.52250546,14.97 127.01229110,37.52247816,15.03 127.01225800,37.52244962,14.93 127.01222540,37.52242120,14.95 127.01219610,37.52239476,14.98 127.01216200,37.52236633,14.76 127.01212330,37.52234263,14.69 127.01209370,37.52231428,14.41 127.01206260,37.52228332,14.77 127.01202800,37.52225455,14.60 127.01199570,37.52222639,14.66 127.01197460,37.52220008,14.64 127.01194030,37.52217544,14.76 127.01190980,37.52215368,14.86 127.01188250,37.52212470,14.88 127.01185320,37.52209707,14.90 127.01182750,37.52206916,14.67 127.01179410,37.52204252,14.78 127.01176390,37.52201721,14.87 127.01172820,37.52199224,15.27 127.01169660,37.52196510,15.46 127.01166630,37.52193958,15.48 127.01163390,37.52191215,15.49 127.01160870,37.52188340,15.45 127.01158140,37.52185725,15.28 127.01155000,37.52183154,15.43 127.01151600,37.52180560,15.63 127.01148320,37.52178145,15.49 127.01145100,37.52175729,15.54 127.01142160,37.52173031,15.55 127.01138950,37.52170481,15.61 127.01136170,37.52167736,15.60 127.01133380,37.52165659,15.75 127.01130180,37.52162599,15.50 127.01127030,37.52160015,15.58 127.01124150,37.52157405,15.58 127.01121050,37.52154767,15.58 127.01118410,37.52152240,15.71 127.01115370,37.52149576,15.76 127.01112480,37.52146948,15.90 127.01109510,37.52144430,15.87 127.01106800,37.52141659,16.01 127.01103730,37.52139009,16.08 127.01100670,37.52136370,16.22 127.01097440,37.52134014,16.33 127.01094730,37.52131593,16.41 127.01091710,37.52128951,16.11 127.01089270,37.52126253,15.79 127.01086000,37.52123642,15.93 127.01082680,37.52121093,16.03 127.01079810,37.52118351,16.07 127.01076660,37.52115677,15.92 127.01073700,37.52112890,15.82 127.01070730,37.52110221,15.88 127.01067910,37.52107624,15.92 127.01064920,37.52105132,16.05 127.01062010,37.52102722,16.04 127.01059040,37.52100208,16.01 127.01056580,37.52097608,16.08 127.01053780,37.52095198,16.13 127.01050720,37.52092804,16.15 127.01047830,37.52090537,16.24 127.01044830,37.52087844,16.20 127.01042260,37.52085131,16.18 127.01039420,37.52082589,16.23 127.01036520,37.52080225,16.29 127.01033510,37.52077638,16.26 127.01030790,37.52075145,16.31 127.01028080,37.52072538,16.42 127.01025320,37.52070160,16.24 127.01022600,37.52067751,16.03 127.01019840,37.52065155,16.13 127.01016810,37.52062880,16.07 127.01014240,37.52060655,15.97 127.01011440,37.52058015,16.09 127.01008810,37.52055438,16.28 127.01006330,37.52052723,16.15 127.01003790,37.52050328,16.13 127.01001030,37.52047964,16.12 127.00998160,37.52045904,16.14 127.00995120,37.52043352,16.26 127.00992570,37.52040778,16.04 127.00989810,37.52038425,16.27 127.00987410,37.52036182,16.42 127.00984740,37.52033975,16.34 127.00981720,37.52031721,16.43 127.00979050,37.52029515,16.36 127.00976540,37.52027071,16.38 127.00973930,37.52024804,16.39 127.00971230,37.52022412,16.41 127.00968450,37.52020098,16.35 127.00965850,37.52017783,16.31 127.00963240,37.52015514,16.24 127.00960600,37.52013129,16.32 127.00957810,37.52010969,16.24 127.00955340,37.52008619,16.25 127.00952770,37.52006298,16.26 127.00950430,37.52003981,16.25 127.00947960,37.52001706,16.18 127.00945240,37.51999488,16.16 127.00942710,37.51997144,16.15 127.00939960,37.51994735,16.10 127.00936980,37.51992293,16.14 127.00934150,37.51989929,16.15 127.00931170,37.51987389,16.10 127.00928270,37.51984777,16.07 127.00925280,37.51982157,16.04 127.00922400,37.51979308,16.01 127.00919300,37.51976726,16.00 127.00916390,37.51973993,15.92 127.00913400,37.51971265,15.95 127.00910510,37.51968583,16.00 127.00907590,37.51965993,15.99 127.00904400,37.51963437,16.07 127.00901520,37.51960801,16.06 127.00898600,37.51958224,16.06 127.00895640,37.51955559,16.06 127.00892570,37.51953068,16.10 127.00889620,37.51950534,16.08 127.00886830,37.51948188,16.00 127.00883600,37.51945852,16.07 127.00880350,37.51943432,16.08 127.00877660,37.51940626,16.02 127.00875150,37.51938018,16.13 127.00872330,37.51935279,16.04 127.00869210,37.51932613,15.99 127.00866200,37.51929905,15.93 127.00863770,37.51926709,16.11 127.00862290,37.51923377,16.17 127.00862140,37.51919692,16.12 127.00861990,37.51915916,16.22 127.00861990,37.51912024,16.36 127.00862140,37.51908285,16.48 127.00862140,37.51904698,16.60 127.00862010,37.51901037,16.78 127.00862010,37.51897000,16.54 127.00861800,37.51893162,16.67 127.00861430,37.51889865,16.72 127.00858660,37.51886300,17.05 127.00854170,37.51883033,15.97 127.00851860,37.51880726,16.63 127.00848890,37.51878024,16.82 127.00845350,37.51875279,16.70 127.00842380,37.51872735,16.71 127.00839530,37.51870090,16.66 127.00836450,37.51867432,16.39 127.00833440,37.51864661,16.60 127.00830430,37.51862099,16.56 127.00827280,37.51859283,16.52 127.00823970,37.51856472,16.38 127.00820900,37.51853503,16.28 127.00817560,37.51850724,16.32 127.00814340,37.51847930,16.25 127.00811180,37.51844984,15.70 127.00807950,37.51842183,15.78 127.00804640,37.51839347,15.88 127.00801530,37.51836622,15.89 127.00798250,37.51833985,15.69 127.00795450,37.51831281,15.61 127.00792390,37.51828449,15.84 127.00789140,37.51825903,16.13 127.00786810,37.51823168,16.44 127.00784810,37.51820765,16.65 127.00781860,37.51818115,16.45 127.00779760,37.51815843,16.34 127.00777380,37.51813158,16.56 127.00774620,37.51810836,16.55 127.00771980,37.51808696,16.60 127.00769150,37.51806405,16.65 127.00766530,37.51803987,16.72 127.00764380,37.51801215,16.82 127.00762230,37.51798392,16.98 127.00760420,37.51795030,16.72 127.00758530,37.51791438,16.68 127.00756800,37.51787144,15.52 127.00755830,37.51783678,16.28 127.00754670,37.51779527,16.44 127.00754030,37.51775467,16.09 127.00753110,37.51771304,16.06 127.00751550,37.51766924,15.57 127.00748620,37.51762769,15.35 127.00744290,37.51758651,15.56 127.00738740,37.51755836,15.35 127.00732230,37.51754371,15.19 127.00725930,37.51753337,15.06 127.00719370,37.51751928,14.79 127.00713170,37.51750242,14.59 127.00706530,37.51748077,14.45 127.00700660,37.51745452,14.43 127.00694280,37.51742887,14.60 127.00688130,37.51740283,14.47 127.00682270,37.51737163,14.51 127.00676150,37.51734108,14.46 127.00670650,37.51730727,14.55 127.00665070,37.51727144,14.33 127.00659910,37.51723811,14.24 127.00654660,37.51720576,14.42 127.00649410,37.51717146,14.24 127.00644990,37.51713486,14.20 127.00640460,37.51709832,14.34 127.00636350,37.51705983,14.09 127.00632580,37.51702237,14.06 127.00628860,37.51698523,13.98 127.00625170,37.51694802,13.86 127.00621610,37.51691053,13.77 127.00619330,37.51687593,14.86 127.00616760,37.51683358,14.22 127.00613520,37.51679798,14.42 127.00610820,37.51676020,14.49 127.00608330,37.51672448,14.25 127.00606440,37.51668668,14.27 127.00604540,37.51664831,14.46 127.00602730,37.51661109,14.31 127.00600820,37.51657718,14.18 127.00599260,37.51653971,14.32 127.00597720,37.51650673,14.31 127.00596100,37.51646914,13.85 127.00595430,37.51643424,14.34 127.00594110,37.51639536,14.19 127.00592890,37.51635610,14.11 127.00591400,37.51631265,13.93 127.00591020,37.51627749,13.93 127.00590640,37.51624137,14.20 127.00589450,37.51620200,14.05 127.00588750,37.51616556,14.16 127.00587850,37.51612696,14.05 127.00587590,37.51607861,14.36 127.00585480,37.51604970,14.64 127.00583800,37.51601203,14.56 127.00582340,37.51597495,14.26 127.00580760,37.51593648,13.97 127.00578870,37.51589867,13.82 127.00577250,37.51586103,13.72 127.00575240,37.51582444,13.53 127.00573030,37.51578987,13.54 127.00570390,37.51575507,13.29 127.00567680,37.51571997,13.22 127.00564990,37.51568835,12.97 127.00562070,37.51565538,13.05 127.00559490,37.51562176,13.29 127.00556680,37.51558833,13.44 127.00553800,37.51555824,13.29 127.00550640,37.51552671,12.10 127.00547730,37.51549975,12.52 127.00544620,37.51547205,12.61 127.00541140,37.51544617,13.44 127.00537680,37.51541804,13.25 127.00534130,37.51539289,13.19 127.00530580,37.51536482,13.11 127.00527420,37.51534250,12.91 127.00523160,37.51531578,13.50 127.00519350,37.51528716,13.90 127.00515360,37.51526850,13.93 127.00511340,37.51524709,14.24 127.00507510,37.51522773,13.93 127.00503610,37.51520571,14.05 127.00499370,37.51518964,13.79 127.00495030,37.51517157,14.04 127.00491070,37.51515247,13.96 127.00487010,37.51512851,13.83 127.00483430,37.51510755,14.07 127.00479580,37.51508665,14.03 127.00475770,37.51506262,13.96 127.00472100,37.51504015,14.01 127.00468510,37.51501468,14.13 127.00464970,37.51498982,14.20 127.00461550,37.51496455,14.01 127.00458240,37.51494023,14.09 127.00454640,37.51491372,14.34 127.00451860,37.51487844,16.50 127.00448590,37.51485307,16.21 127.00444360,37.51482963,15.37 127.00442080,37.51480490,15.29 127.00439770,37.51477429,14.16 127.00437200,37.51474673,13.70 127.00434400,37.51471704,13.84 127.00431950,37.51468368,13.79 127.00429160,37.51465539,14.42 127.00426690,37.51462441,14.27 127.00424160,37.51459196,14.18 127.00421220,37.51456200,13.96 127.00418280,37.51453484,13.66 127.00415720,37.51450480,13.94 127.00412560,37.51447584,13.73 127.00409920,37.51445010,13.32 127.00406900,37.51442416,13.14 127.00403610,37.51439704,12.70 127.00400030,37.51437253,12.46 127.00396390,37.51435015,12.63 127.00392700,37.51432505,12.51 127.00389280,37.51430268,12.51 127.00385870,37.51428118,12.56 127.00382370,37.51425855,12.60 127.00379040,37.51423684,12.67 127.00375870,37.51421429,12.57 127.00372660,37.51419504,12.73 127.00368810,37.51417815,12.65 127.00364950,37.51416055,12.67 127.00361320,37.51414447,12.86 127.00357550,37.51412740,12.83 127.00353900,37.51411204,12.90 127.00350350,37.51409537,12.76 127.00346810,37.51408213,12.64 127.00342770,37.51406947,12.46 127.00338860,37.51405904,12.47 127.00335340,37.51404443,12.50 127.00331870,37.51403098,12.50 127.00328440,37.51401859,12.55 127.00324780,37.51400495,12.25 127.00321480,37.51398952,12.15 127.00318450,37.51397626,12.01 127.00315080,37.51396004,11.95 127.00311540,37.51394697,11.95 127.00308250,37.51393104,12.00 127.00304820,37.51391324,11.98 127.00301650,37.51389662,11.97 127.00298490,37.51387796,11.86 127.00295300,37.51386013,11.82 127.00292150,37.51384265,11.78 127.00288680,37.51382642,11.62 127.00285100,37.51380797,11.57 127.00281520,37.51378906,11.38 127.00278090,37.51377026,11.38 127.00275540,37.51375007,11.29 127.00272240,37.51372708,11.17 127.00269920,37.51370385,11.20 127.00266960,37.51368020,10.98 127.00263430,37.51365085,10.94 127.00259600,37.51361203,11.98 127.00255240,37.51358006,13.42 127.00251760,37.51354637,13.74 127.00247870,37.51351141,14.03 127.00244420,37.51347567,14.10 127.00240590,37.51344012,14.35 127.00237260,37.51340883,14.03 127.00234340,37.51337097,13.66 127.00231550,37.51333058,13.47 127.00229870,37.51329339,14.03 127.00228160,37.51325741,14.30 127.00225970,37.51322310,14.33 127.00223020,37.51318214,14.23 127.00220620,37.51313617,14.59 127.00217950,37.51309615,14.60 127.00215620,37.51306362,14.90 127.00213350,37.51301880,14.64 127.00211100,37.51297446,14.39 127.00209500,37.51293064,14.22 127.00207210,37.51288677,14.26 127.00204930,37.51283982,14.16 127.00203240,37.51279950,13.79 127.00201340,37.51276641,13.82 127.00201320,37.51274573,13.76 127.00201320,37.51273242,13.73 127.00201320,37.51272601,13.76 127.00203360,37.51272601,13.88 127.00205250,37.51272601,13.72 127.00206070,37.51273451,13.63 127.00206210,37.51274170,13.88 127.00206570,37.51274902,14.12 127.00207610,37.51275207,13.87 127.00207780,37.51275562,14.01 127.00207820,37.51275668,13.97 127.00207820,37.51275728,13.83 127.00207820,37.51275728,13.77 127.00207820,37.51275728,13.71 127.00207820,37.51275747,13.65 127.00207920,37.51275728,13.76 127.00207930,37.51275660,13.74 127.00207940,37.51275660,13.73 127.00207930,37.51275608,13.66 127.00207930,37.51275608,13.67 127.00207940,37.51275608,13.57 127.00207940,37.51275550,13.60 127.00207870,37.51275530,13.56 127.00207880,37.51275303,13.60 127.00207880,37.51275005,13.59 127.00207870,37.51274998,13.54 127.00207790,37.51274800,13.65 127.00207630,37.51274349,13.59 127.00207480,37.51274179,13.47 127.00207480,37.51274179,13.47 127.00207480,37.51274135,13.48 127.00207560,37.51274098,13.43 127.00207600,37.51274075,13.37 127.00207600,37.51274069,13.26 127.00207610,37.51274061,13.16 127.00207610,37.51274061,13.15 127.00207610,37.51274061,13.15 127.00207610,37.51274061,13.15 127.00207610,37.51274061,13.15 127.00207610,37.51274061,13.15 127.00207610,37.51274061,13.15 127.00207510,37.51274023,12.69 127.00207500,37.51273989,12.67 127.00207490,37.51273977,12.63 127.00207490,37.51273977,12.63 127.00207490,37.51273977,12.63 127.00207490,37.51273977,12.63 127.00207520,37.51273977,12.49 127.00207530,37.51274049,12.43 127.00207530,37.51274049,12.58 127.00207530,37.51274049,12.72 127.00207530,37.51274049,12.82 127.00207530,37.51274071,12.96 127.00207520,37.51274071,13.07 127.00207520,37.51274073,13.12 127.00207520,37.51274075,13.14 127.00207520,37.51274079,13.14 127.00207520,37.51274079,13.14 127.00207520,37.51274079,13.14 127.00207470,37.51274079,13.28 127.00207470,37.51274079,13.21 127.00207470,37.51274089,13.28 127.00207460,37.51274074,13.40 127.00207460,37.51274074,13.39 127.00207440,37.51274048,13.42 127.00207430,37.51274042,13.46 127.00207430,37.51274034,13.54 127.00207440,37.51274034,13.57 127.00207440,37.51274033,13.60 127.00207450,37.51274033,13.59 127.00207450,37.51274036,13.60 127.00207450,37.51274036,13.62 127.00207440,37.51274036,13.63 127.00207420,37.51274036,13.60 127.00207410,37.51274044,13.59 127.00207400,37.51274044,13.56 127.00207390,37.51274044,13.53 127.00207390,37.51274035,13.54 127.00207390,37.51274035,13.48 127.00207380,37.51274035,13.40 127.00207380,37.51274035,13.40 127.00207390,37.51274035,13.37 127.00207390,37.51274041,13.37 127.00207380,37.51274011,13.36 127.00207380,37.51274009,13.31 127.00207370,37.51274009,13.24 127.00207360,37.51274010,13.15 127.00207340,37.51274009,13.10 127.00207340,37.51274009,13.03 127.00207340,37.51273985,13.03 127.00207340,37.51273978,13.02 127.00207340,37.51273978,13.02 127.00207340,37.51273930,13.00 127.00207310,37.51273917,12.96 127.00207310,37.51273917,12.97 127.00207290,37.51273917,12.91 127.00207280,37.51273921,12.90 127.00207280,37.51273931,12.88 127.00207230,37.51273931,12.89 127.00207170,37.51273934,12.93 127.00207160,37.51273934,12.94 127.00207130,37.51273937,13.02 127.00207130,37.51273937,13.08 127.00207130,37.51273969,13.17 127.00207130,37.51274047,13.25 127.00207130,37.51274069,13.32 127.00207260,37.51274069,13.35 127.00207260,37.51274047,13.25 127.00207260,37.51274044,13.29 127.00207230,37.51274044,13.28 127.00207220,37.51274044,13.21 127.00207200,37.51274057,13.20 127.00207200,37.51274071,13.19 127.00207150,37.51274071,13.18 127.00207150,37.51274100,13.15 127.00207230,37.51274100,13.06 127.00207250,37.51274094,13.00 127.00207260,37.51274094,13.14 127.00207260,37.51274102,13.15 127.00207300,37.51274102,13.18 127.00207300,37.51274117,13.12 127.00207280,37.51274154,13.11 127.00207250,37.51274182,13.15 127.00207280,37.51274196,13.10 127.00207270,37.51274239,13.05 127.00207270,37.51274267,12.98 127.00207280,37.51274267,12.99 127.00207280,37.51274267,13.04 127.00207290,37.51274271,13.11 127.00207290,37.51274287,13.16 127.00207290,37.51274295,13.17 127.00207280,37.51274336,13.14 127.00207280,37.51274318,13.15 127.00207280,37.51274326,13.16 127.00207310,37.51274336,13.13 127.00207570,37.51274326,13.15 127.00208420,37.51274318,13.21 127.00209110,37.51273774,13.13 127.00209850,37.51272457,12.94 127.00209870,37.51272340,12.89 127.00209870,37.51271527,13.04 127.00209850,37.51270099,12.99 127.00209690,37.51268405,13.14 127.00208980,37.51266485,13.17 127.00208190,37.51264600,13.09 127.00207250,37.51262745,13.04 127.00206400,37.51260819,13.05 127.00205280,37.51258845,13.09 127.00204140,37.51256812,13.12 127.00202770,37.51254730,13.14 127.00201160,37.51252818,13.15 127.00199820,37.51250762,13.19 127.00198400,37.51248769,13.25 127.00196870,37.51246726,13.14 127.00195050,37.51244799,12.97 127.00193160,37.51242702,13.12 127.00191260,37.51240719,13.11 127.00189100,37.51238950,13.09 127.00186420,37.51237724,13.10 127.00183470,37.51236687,13.01 127.00180740,37.51235679,12.96 127.00177850,37.51234461,12.91 127.00175250,37.51232996,12.97 127.00173150,37.51231710,12.98 127.00170510,37.51230151,12.89 127.00168150,37.51228903,12.81 127.00165630,37.51227579,12.74 127.00163150,37.51226413,12.65 127.00160090,37.51225893,12.49 127.00156930,37.51225893,12.43 127.00153970,37.51225893,12.15 127.00151130,37.51225769,12.36 127.00147790,37.51225769,12.53 127.00144940,37.51225769,12.45 127.00141990,37.51224459,12.66 127.00137200,37.51222761,12.00 127.00132270,37.51220017,12.03 127.00128470,37.51218052,12.23 127.00124840,37.51216464,12.17 127.00121070,37.51215157,12.27 127.00117220,37.51213789,12.46 127.00113340,37.51212349,12.36 127.00109500,37.51211073,12.49 127.00105820,37.51209726,12.38 127.00101860,37.51208585,12.39 127.00097460,37.51207881,12.72 127.00093840,37.51207008,12.74 127.00089930,37.51206072,12.49 127.00085820,37.51205204,11.80 127.00081690,37.51204192,11.92 127.00077830,37.51203530,12.11 127.00074030,37.51202615,11.83 127.00070240,37.51201816,11.39 127.00066300,37.51200861,11.54 127.00062390,37.51199942,11.49 127.00058510,37.51198862,11.72 127.00054690,37.51197790,11.65 127.00050820,37.51196668,11.50 127.00047170,37.51195581,11.67 127.00043320,37.51194153,11.70 127.00039600,37.51192706,11.66 127.00036120,37.51191204,11.77 127.00032620,37.51189651,11.77 127.00028770,37.51188295,11.92 127.00024700,37.51186572,11.95 127.00021450,37.51184684,11.91 127.00017790,37.51183335,12.05 127.00013940,37.51181931,12.09 127.00009600,37.51180353,12.03 127.00005800,37.51178633,12.08 127.00002140,37.51176878,12.09 126.99998880,37.51174888,12.03 126.99995310,37.51172563,12.08 126.99992110,37.51170808,12.12 126.99988680,37.51168930,12.07 126.99985010,37.51167041,12.00 126.99981330,37.51165267,12.13 126.99977800,37.51163426,12.15 126.99974380,37.51161469,12.14 126.99971180,37.51159177,12.11 126.99967930,37.51157055,12.03 126.99964790,37.51154901,12.02 126.99961470,37.51152829,11.93 126.99958340,37.51150498,12.03 126.99955570,37.51148237,12.14 126.99952750,37.51145924,12.26 126.99949860,37.51143430,12.22 126.99946530,37.51140964,12.30 126.99943210,37.51138368,12.33 126.99939860,37.51135522,12.31 126.99936420,37.51132396,12.28 126.99932900,37.51129665,12.45 126.99929020,37.51126552,12.66 126.99925300,37.51123751,12.61 126.99921540,37.51121055,12.42 126.99917450,37.51118832,12.36 126.99913360,37.51116521,12.47 126.99909220,37.51114392,12.15 126.99904810,37.51112301,12.52 126.99900530,37.51110131,12.42 126.99895900,37.51108386,12.50 126.99892010,37.51106202,12.34 126.99887890,37.51104254,12.43 126.99883270,37.51102395,12.49 126.99879440,37.51101201,12.30 126.99874810,37.51099772,12.33 126.99870720,37.51098840,12.46 126.99866970,37.51097697,12.48 126.99861830,37.51097353,12.44 126.99857080,37.51096699,12.30 126.99853980,37.51095313,12.33 126.99850320,37.51094780,12.28 126.99846300,37.51094722,12.30 126.99842820,37.51094423,12.48 126.99838590,37.51094295,11.80 126.99834270,37.51094257,11.74 126.99830250,37.51093069,11.67 126.99826300,37.51091277,11.45 126.99822550,37.51089712,11.86 126.99819080,37.51088346,11.64 126.99815770,37.51086095,11.50 126.99812000,37.51085832,11.37 126.99810840,37.51083394,11.83 126.99808220,37.51080836,11.59 126.99805130,37.51077398,11.35 126.99802260,37.51074250,11.25 126.99800050,37.51071418,11.27 126.99796420,37.51069359,11.50 126.99793450,37.51067264,11.64 126.99790280,37.51065181,11.79 126.99786720,37.51063075,11.82 126.99783370,37.51061048,11.77 126.99780020,37.51059148,11.93 126.99776330,37.51057393,11.90 126.99772530,37.51055557,11.87 126.99768750,37.51053701,12.01 126.99765460,37.51051934,11.86 126.99761160,37.51050430,11.93 126.99757260,37.51048864,12.48 126.99753070,37.51047395,12.24 126.99749330,37.51046064,12.47 126.99745000,37.51045214,12.53 126.99740760,37.51044467,12.68 126.99736510,37.51043886,12.80 126.99732260,37.51043226,12.68 126.99727840,37.51042938,12.65 126.99723820,37.51042878,12.83 126.99719430,37.51042707,12.76 126.99715300,37.51042707,12.87 126.99711230,37.51042707,13.09 126.99707030,37.51042876,13.41 126.99703220,37.51043551,12.24 126.99698960,37.51043562,12.82 126.99694830,37.51044231,13.00 126.99690700,37.51044820,12.62 126.99687010,37.51045405,12.87 126.99682710,37.51046122,12.71 126.99679370,37.51046629,13.27 126.99674190,37.51047496,13.31 126.99670250,37.51047804,13.55 126.99666240,37.51048062,13.36 126.99662050,37.51048240,13.10 126.99657840,37.51048348,13.05 126.99654000,37.51048444,13.03 126.99649970,37.51048528,13.08 126.99645910,37.51048528,13.06 126.99641880,37.51048528,13.01 126.99638030,37.51048292,12.80 126.99634010,37.51048048,12.67 126.99629940,37.51047582,12.63 126.99626040,37.51046759,12.52 126.99622340,37.51046086,12.49 126.99618250,37.51045802,12.65 126.99614350,37.51044654,12.64 126.99611150,37.51044002,12.48 126.99606800,37.51043167,12.29 126.99603120,37.51042010,12.42 126.99599440,37.51040809,12.38 126.99595770,37.51039723,12.59 126.99592330,37.51038584,12.62 126.99588910,37.51037187,12.54 126.99585390,37.51035772,12.51 126.99581840,37.51034314,12.63 126.99578690,37.51032651,12.74 126.99575390,37.51030813,12.48 126.99572240,37.51029060,12.52 126.99569170,37.51027327,12.57 126.99566210,37.51025739,12.59 126.99563190,37.51023903,11.99 126.99560120,37.51021599,12.11 126.99556180,37.51019220,12.05 126.99553780,37.51017041,11.85 126.99550700,37.51015058,11.86 126.99548110,37.51013049,11.58 126.99545530,37.51010787,11.56 126.99543790,37.51009387,12.08 126.99541460,37.51007151,12.17 126.99539610,37.51005100,11.59 126.99537850,37.51003969,12.01 126.99536390,37.51001668,11.89 126.99533960,37.50998646,11.23 126.99532340,37.50996302,11.60 126.99530360,37.50993775,11.32 126.99528700,37.50991168,11.24 126.99527080,37.50988436,11.96 126.99525230,37.50985817,12.05 126.99523720,37.50982780,11.94 126.99522020,37.50980286,11.88 126.99521830,37.50978342,11.10 126.99520630,37.50975948,11.09 126.99518740,37.50973080,12.59 126.99517100,37.50969700,11.66 126.99514620,37.50967521,12.44 126.99514190,37.50965639,12.42 126.99513260,37.50962885,12.61 126.99513180,37.50959604,12.53 126.99512790,37.50957259,12.92 126.99512550,37.50954946,12.52 126.99511230,37.50951649,13.55 126.99511070,37.50949109,12.60 126.99510140,37.50945914,12.33 126.99509730,37.50943273,12.17 126.99508720,37.50941049,12.24 126.99506960,37.50937910,12.25 126.99505510,37.50935546,12.29 126.99504210,37.50932943,12.36 126.99502790,37.50930416,12.92 126.99501010,37.50927812,13.09 126.99500730,37.50927086,12.36 126.99500560,37.50925451,11.79 126.99498110,37.50923074,12.05 126.99495690,37.50920375,12.16 126.99492860,37.50918249,12.40 126.99490350,37.50916395,12.65 126.99487740,37.50914111,12.48 126.99485210,37.50911899,12.36 126.99482510,37.50909885,12.35 126.99479520,37.50907911,12.56 126.99477010,37.50905954,12.74 126.99474120,37.50903948,12.70 126.99471210,37.50901854,12.60 126.99469110,37.50900729,11.68 126.99465890,37.50899418,12.59 126.99462560,37.50897877,12.75 126.99459220,37.50896357,12.83 126.99455880,37.50895047,12.83 126.99452600,37.50893808,12.86 126.99449300,37.50892681,13.33 126.99445840,37.50891402,13.27 126.99442450,37.50890278,13.41 126.99439040,37.50889402,13.22 126.99435310,37.50888590,13.27 126.99431770,37.50887895,13.22 126.99427970,37.50887277,13.27 126.99424440,37.50886660,13.37 126.99420480,37.50886102,13.52 126.99416660,37.50885892,13.23 126.99413210,37.50885567,13.48 126.99408970,37.50885565,13.71 126.99405240,37.50885565,13.63 126.99401500,37.50885565,13.71 126.99397660,37.50885656,13.59 126.99393810,37.50885883,13.43 126.99389860,37.50886114,13.27 126.99386490,37.50886654,13.06 126.99382400,37.50887373,11.09 126.99379610,37.50888108,11.94 126.99375220,37.50888774,12.56 126.99370980,37.50889481,12.47 126.99366160,37.50889687,12.42 126.99362190,37.50889837,12.32 126.99358170,37.50889895,12.15 126.99354030,37.50889895,12.24 126.99349330,37.50889895,11.96 126.99344800,37.50889486,11.95 126.99340480,37.50889090,12.18 126.99335900,37.50888705,12.32 126.99331420,37.50888204,12.49 126.99327180,37.50887480,12.30 126.99322810,37.50886223,12.16 126.99318570,37.50884896,12.17 126.99314460,37.50883650,12.22 126.99310890,37.50881839,11.94 126.99307130,37.50880406,11.93 126.99303560,37.50878546,12.04 126.99300080,37.50876418,12.21 126.99297390,37.50873916,12.20 126.99293900,37.50871591,12.68 126.99290000,37.50869955,12.53 126.99286070,37.50868169,11.57 126.99283430,37.50865853,11.74 126.99280380,37.50862834,12.12 126.99277940,37.50860067,12.40 126.99275180,37.50857500,12.41 126.99272110,37.50854928,12.59 126.99269420,37.50852108,12.64 126.99267070,37.50849482,12.54 126.99264810,37.50846930,12.24 126.99261580,37.50843732,12.29 126.99258700,37.50841058,12.02 126.99256250,37.50838660,11.94 126.99253620,37.50835575,12.01 126.99250990,37.50832796,12.05 126.99248450,37.50829837,12.11 126.99245680,37.50826678,11.76 126.99243690,37.50823883,11.70 126.99241700,37.50820862,11.83 126.99239510,37.50817749,11.67 126.99237410,37.50814949,11.97 126.99235480,37.50811745,11.91 126.99233470,37.50808787,12.07 126.99231360,37.50805832,11.76 126.99229190,37.50803038,12.02 126.99227140,37.50800037,12.17 126.99225230,37.50796850,12.43 126.99223350,37.50793782,12.22 126.99221060,37.50790666,10.89 126.99218680,37.50787222,11.29 126.99217310,37.50784304,11.59 126.99214990,37.50781083,11.88 126.99212520,37.50778398,11.72 126.99210300,37.50775372,11.35 126.99207740,37.50772427,11.82 126.99204730,37.50769651,11.76 126.99202340,37.50766538,12.12 126.99199020,37.50763971,11.90 126.98255270,37.50546681,22.95 126.98255270,37.50546666,17.40 126.98255270,37.50546431,17.46 126.98257680,37.50546431,15.83 126.98260550,37.50545712,15.69 126.98262790,37.50544195,14.98 126.98265730,37.50543684,15.02 126.98269300,37.50543647,14.51 126.98272860,37.50543502,14.09 126.98275480,37.50543502,13.66 126.98278280,37.50543340,13.09 126.98281420,37.50543335,13.21 126.98284480,37.50543274,13.29 126.98287170,37.50542938,13.29 126.98289770,37.50542938,13.53 126.98291910,37.50542695,13.65 126.98294860,37.50542661,13.75 126.98298880,37.50542661,13.54 126.98303150,37.50542540,14.24 126.98306930,37.50542540,13.70 126.98309480,37.50542540,13.37 126.98312240,37.50542361,13.21 126.98314460,37.50542162,13.72 126.98317630,37.50542162,14.00 126.98321290,37.50542162,14.03 126.98326750,37.50542245,13.58 126.98330980,37.50542891,13.62 126.98334930,37.50543055,13.51 126.98339400,37.50543200,13.13 126.98344410,37.50543350,13.01 126.98350360,37.50543883,12.94 126.98356330,37.50544698,12.73 126.98362360,37.50544861,12.65 126.98369030,37.50546238,13.43 126.98375800,37.50546699,13.31 126.98382380,37.50547856,13.12 126.98389010,37.50548818,12.95 126.98396330,37.50549474,12.94 126.98403630,37.50550134,13.05 126.98410280,37.50551169,12.94 126.98417650,37.50552149,13.02 126.98424350,37.50553023,13.14 126.98431600,37.50553710,13.21 126.98437830,37.50554379,13.20 126.98444660,37.50554739,13.31 126.98451080,37.50555874,13.56 126.98456950,37.50556955,12.64 126.98463580,37.50558123,13.03 126.98469670,37.50558996,13.03 126.98475760,37.50559532,13.05 126.98481500,37.50559704,12.60 126.98487110,37.50560505,13.15 126.98492730,37.50560927,13.15 126.98498210,37.50561732,13.07 126.98503070,37.50563015,12.97 126.98508330,37.50563803,13.00 126.98513300,37.50564828,12.98 126.98518190,37.50565787,12.93 126.98522840,37.50567147,13.08 126.98527530,37.50568202,13.15 126.98531880,37.50569639,13.04 126.98536110,37.50571090,13.06 126.98540440,37.50572605,12.82 126.98544700,37.50573878,12.70 126.98548850,37.50575542,12.73 126.98553010,37.50577138,12.82 126.98556770,37.50578089,12.86 126.98560950,37.50579578,14.29 126.98564620,37.50580950,13.50 126.98568970,37.50582150,14.05 126.98572390,37.50583699,13.90 126.98576420,37.50585218,13.98 126.98580540,37.50586454,14.09 126.98584290,37.50587514,14.03 126.98588250,37.50588304,14.29 126.98592740,37.50589041,14.17 126.98596600,37.50589378,14.15 126.98600700,37.50590222,13.98 126.98604210,37.50591160,14.38 126.98608500,37.50592316,14.15 126.98612360,37.50592547,14.29 126.98616640,37.50593049,14.15 126.98620630,37.50593735,14.27 126.98624460,37.50594316,14.14 126.98628210,37.50595220,14.52 126.98632110,37.50596171,14.44 126.98636020,37.50597010,14.27 126.98638970,37.50597226,14.73 126.98643770,37.50597957,14.36 126.98647530,37.50598767,14.57 126.98650820,37.50599480,14.44 126.98654970,37.50599958,14.44 126.98659100,37.50600736,14.36 126.98662850,37.50601741,14.37 126.98666470,37.50602101,14.45 126.98670370,37.50603042,14.62 126.98674350,37.50603784,14.48 126.98678140,37.50604335,14.39 126.98681810,37.50605234,14.49 126.98686030,37.50606185,14.59 126.98690210,37.50606764,14.45 126.98694440,37.50607484,14.51 126.98698370,37.50608305,14.23 126.98703180,37.50609375,14.32 126.98707620,37.50609402,14.03 126.98711840,37.50610456,14.26 126.98716450,37.50611094,13.93 126.98721240,37.50611792,13.91 126.98726020,37.50612852,13.91 126.98730420,37.50613713,13.90 126.98735590,37.50614690,13.71 126.98739840,37.50615661,13.72 126.98745030,37.50616473,13.80 126.98749540,37.50617427,13.49 126.98754670,37.50618189,13.22 126.98759910,37.50619095,13.20 126.98764560,37.50620277,13.00 126.98770540,37.50621175,12.99 126.98775520,37.50621856,12.68 126.98781260,37.50622720,12.65 126.98786660,37.50623637,12.77 126.98791990,37.50624643,12.56 126.98797640,37.50625732,12.46 126.98803210,37.50626726,12.51 126.98808760,37.50627462,12.66 126.98814450,37.50627465,11.77 126.98818980,37.50627642,11.80 126.98824440,37.50628437,12.68 126.98829890,37.50629330,11.88 126.98834790,37.50630147,12.57 126.98839630,37.50631190,12.44 126.98844580,37.50632566,12.53 126.98849700,37.50633062,12.29 126.98854340,37.50633677,12.29 126.98858970,37.50634621,12.04 126.98863290,37.50636182,12.20 126.98867990,37.50637711,12.25 126.98873050,37.50638536,12.22 126.98877860,37.50638644,12.20 126.98882720,37.50639397,12.39 126.98887260,37.50640277,12.04 126.98892080,37.50641238,12.09 126.98896850,37.50641975,12.21 126.98901280,37.50643032,12.13 126.98905850,37.50643699,12.15 126.98910360,37.50644614,12.26 126.98914810,37.50645457,12.32 126.98919130,37.50646143,12.36 126.98923090,37.50647901,12.42 126.98926430,37.50650404,12.15 126.98929150,37.50653573,12.10 126.98931420,37.50656702,12.25 126.98935060,37.50659699,11.92 126.98938720,37.50660546,11.42 126.98943600,37.50660546,11.32 126.98948450,37.50660546,11.39 126.98953170,37.50660646,11.48 126.98957270,37.50660646,11.10 126.98962450,37.50660646,11.25 126.98966730,37.50661321,11.33 126.98970930,37.50662572,11.34 126.98975020,37.50663405,11.14 126.98978920,37.50664396,10.78 126.98983260,37.50664871,10.48 126.98986920,37.50665187,10.40 126.98990960,37.50666817,10.63 126.98994640,37.50668561,10.86 126.98998460,37.50669764,10.78 126.99002490,37.50671999,10.60 126.99005720,37.50673097,11.10 126.99009510,37.50673550,10.82 126.99013620,37.50675235,10.81 126.99017560,37.50677091,10.78 126.99020480,37.50678422,10.92 126.99025030,37.50680179,10.70 126.99028730,37.50681559,10.88 126.99032490,37.50683144,10.96 126.99036290,37.50685129,11.06 126.99040150,37.50686359,11.08 126.99044060,37.50688047,11.34 126.99047750,37.50689751,11.31 126.99051750,37.50691160,11.34 126.99055690,37.50692480,11.28 126.99059670,37.50694090,11.53 126.99063150,37.50695501,11.56 126.99066430,37.50696921,11.55 126.99070160,37.50698323,11.51 126.99073570,37.50699601,11.66 126.99076870,37.50700856,11.91 126.99081680,37.50701893,11.86 126.99085190,37.50703437,11.70 126.99088670,37.50704928,11.54 126.99091950,37.50706188,11.37 126.99095330,37.50707770,11.28 126.99098670,37.50709267,11.25 126.99102090,37.50710767,11.21 126.99105700,37.50711809,11.14 126.99109550,37.50713368,11.15 126.99113450,37.50714630,11.01 126.99116840,37.50715778,11.22 126.99120380,37.50716748,11.18 126.99124410,37.50718242,11.05 126.99127790,37.50719836,11.11 126.99131530,37.50721330,11.36 126.99134920,37.50722670,11.51 126.99138650,37.50724219,11.57 126.99142160,37.50725426,11.56 126.99146050,37.50726865,11.47 126.99149690,37.50728280,11.42 126.99153360,37.50729638,11.41 126.99157090,37.50731303,11.53 126.99160420,37.50733079,11.51 126.99163790,37.50734745,11.26 126.99167380,37.50736545,11.30 126.99169840,37.50738097,11.48 126.99173660,37.50740425,11.27 126.99176370,37.50742484,11.26 126.99180120,37.50743708,11.18 126.99183510,37.50745186,11.33 126.99187620,37.50748230,10.82 126.99190740,37.50750523,10.51 126.99193070,37.50752390,9.97 126.99195460,37.50754617,9.76 126.99198240,37.50756671,10.00 126.99199970,37.50758086,10.33 126.99202530,37.50760719,10.20 126.99205640,37.50763520,10.54 126.99208140,37.50765874,10.38 126.99210300,37.50768269,10.33 126.99213280,37.50770889,10.04 126.99215350,37.50773186,9.91 126.99217640,37.50776005,10.10 126.99219950,37.50778732,10.38 126.99221640,37.50781736,10.32 126.99223500,37.50784637,10.50 126.99225090,37.50787622,10.55 126.99226610,37.50790501,10.74 126.99228290,37.50793380,10.87 126.99229810,37.50796242,11.35 126.99231640,37.50799343,11.32 126.99233130,37.50802085,11.57 126.99235130,37.50804710,11.44 126.99237230,37.50807283,11.90 126.99239660,37.50811052,11.43 126.99241520,37.50813316,11.41 126.99243270,37.50815891,11.22 126.99244810,37.50818496,11.76 126.99246110,37.50820849,12.52 126.99248340,37.50823941,12.09 126.99250630,37.50826828,11.89 126.99252810,37.50829342,12.23 126.99255080,37.50831964,12.42 126.99257340,37.50834415,12.16 126.99259590,37.50837146,12.29 126.99261880,37.50839908,12.45 126.99264530,37.50842637,12.20 126.99266770,37.50844844,12.00 126.99268940,37.50847803,12.05 126.99271530,37.50850394,12.00 126.99273970,37.50852715,11.58 126.99275780,37.50855024,11.82 126.99279210,37.50857474,12.54 126.99282190,37.50860197,12.64 126.99284320,37.50862414,12.66 126.99287340,37.50864801,12.63 126.99290370,37.50867054,12.89 126.99293180,37.50869101,13.21 126.99296590,37.50870460,13.05 126.99299330,37.50871707,12.88 126.99302640,37.50873622,12.69 126.99306580,37.50876978,13.41 126.99308910,37.50878432,13.14 126.99312660,37.50879770,13.52 126.99316390,37.50880758,14.24 126.99319980,37.50881862,13.81 126.99323670,37.50882813,13.99 126.99326850,37.50883460,14.07 126.99330170,37.50883995,13.48 126.99332930,37.50884795,11.96 126.99337360,37.50885301,12.74 126.99340860,37.50885444,13.07 126.99343830,37.50885583,12.67 126.99347640,37.50885659,12.71 126.99351280,37.50885914,12.91 126.99354550,37.50886277,12.97 126.99357670,37.50886277,13.15 126.99361880,37.50886277,14.63 126.99364560,37.50885592,13.81 126.99367990,37.50885057,13.60 126.99371310,37.50884759,13.71 126.99374640,37.50884300,13.72 126.99377780,37.50883673,13.65 126.99380950,37.50882995,13.66 126.99384020,37.50882548,13.48 126.99387380,37.50882171,13.31 126.99390800,37.50882033,13.47 126.99393850,37.50881304,13.69 126.99397330,37.50881244,13.37 126.99400790,37.50881005,13.46 126.99403750,37.50880962,13.19 126.99407180,37.50880699,13.21 126.99410390,37.50880536,13.22 126.99413890,37.50880535,13.21 126.99417140,37.50880535,12.58 126.99420480,37.50880535,12.81 126.99424580,37.50881249,12.79 126.99427340,37.50881669,12.84 126.99429950,37.50882168,12.80 126.99433090,37.50883062,12.68 126.99436500,37.50883833,12.54 126.99439300,37.50884573,11.84 126.99442470,37.50884625,11.83 126.99446040,37.50885769,11.55 126.99449560,37.50886813,11.67 126.99452490,37.50887579,11.48 126.99455180,37.50888813,11.12 126.99458700,37.50889985,11.52 126.99461910,37.50890952,11.79 126.99465290,37.50892272,11.73 126.99468110,37.50893499,14.74 126.99470950,37.50895059,15.15 126.99473050,37.50896610,14.22 126.99476430,37.50899069,13.50 126.99478500,37.50900370,13.19 126.99481320,37.50902567,12.72 126.99484700,37.50904368,12.68 126.99487580,37.50907006,12.60 126.99489340,37.50909703,12.20 126.99491960,37.50910355,12.73 126.99494660,37.50912272,12.83 126.99497110,37.50914345,12.79 126.99498790,37.50916812,13.02 126.99500210,37.50919419,13.04 126.99502760,37.50921901,12.98 126.99505380,37.50924413,12.93 126.99507270,37.50926852,12.96 126.99509240,37.50929462,13.50 126.99510440,37.50932821,12.84 126.99511670,37.50935932,13.42 126.99513320,37.50938860,13.99 126.99515380,37.50941340,13.76 126.99516900,37.50944172,14.06 126.99517800,37.50947237,13.10 126.99517950,37.50950626,13.38 126.99518430,37.50953669,13.86 126.99518950,37.50956716,13.88 126.99519780,37.50959675,13.89 126.99520330,37.50962439,12.72 126.99521940,37.50965459,12.80 126.99522740,37.50968435,12.57 126.99524070,37.50971361,12.45 126.99525590,37.50974089,12.26 126.99526960,37.50977043,12.14 126.99528760,37.50980054,12.24 126.99530370,37.50983006,12.18 126.99532440,37.50985810,11.89 126.99534260,37.50988668,11.93 126.99536490,37.50991460,11.81 126.99538730,37.50994279,11.90 126.99540950,37.50996890,11.84 126.99543400,37.50999668,11.81 126.99545940,37.51002372,11.80 126.99548370,37.51004736,11.77 126.99550790,37.51007262,11.81 126.99553050,37.51009707,11.94 126.99555570,37.51012052,11.71 126.99558380,37.51014244,11.92 126.99561930,37.51016656,12.19 126.99566040,37.51018904,11.88 126.99568480,37.51020839,11.31 126.99570170,37.51021980,11.59 126.99572090,37.51023300,12.45 126.99575430,37.51025174,12.29 126.99578230,37.51026848,11.97 126.99581380,37.51028321,12.05 126.99584320,37.51029648,12.45 126.99587160,37.51030890,12.42 126.99590050,37.51032335,12.14 126.99593190,37.51033710,12.04 126.99596040,37.51035064,11.89 126.99599070,37.51035921,11.97 126.99602060,37.51036949,12.01 126.99605470,37.51037966,11.85 126.99608790,37.51038532,11.68 126.99612160,37.51039301,11.66 126.99615420,37.51040066,11.62 126.99618010,37.51040747,12.32 126.99620830,37.51041339,12.01 126.99624970,37.51041942,11.81 126.99628460,37.51042289,11.67 126.99632720,37.51042909,11.25 126.99634820,37.51043038,11.54 126.99638330,37.51043347,11.41 126.99642020,37.51043653,10.59 126.99645200,37.51044140,11.07 126.99647800,37.51044222,11.59 126.99651780,37.51044222,11.90 126.99654710,37.51044222,11.66 126.99657870,37.51043172,12.85 126.99660210,37.51043169,12.01 126.99663550,37.51043169,11.83 126.99666400,37.51043172,11.93 126.99669200,37.51043125,12.17 126.99672520,37.51043125,11.91 126.99675500,37.51042720,11.93 126.99678730,37.51042489,11.73 126.99681950,37.51041921,11.72 126.99685180,37.51041565,11.52 126.99687550,37.51041074,11.19 126.99689940,37.51040637,11.26 126.99692780,37.51040615,11.15 126.99696390,37.51039903,11.13 126.99699200,37.51039643,11.93 126.99702240,37.51039384,11.78 126.99705010,37.51039226,11.73 126.99708200,37.51039037,12.13 126.99711330,37.51038364,12.07 126.99713800,37.51038364,12.45 126.99716670,37.51038364,12.40 126.99720340,37.51038220,12.58 126.99724080,37.51038197,12.74 126.99727510,37.51038197,13.07 126.99729480,37.51037913,13.27 126.99732610,37.51037913,13.30 126.99735080,37.51037913,13.40 126.99737480,37.51039172,13.52 126.99740370,37.51039681,13.72 126.99742690,37.51040699,13.55 126.99745330,37.51041602,12.87 126.99748470,37.51042298,12.52 126.99751060,37.51043044,12.64 126.99753630,37.51043768,12.84 126.99756470,37.51044559,12.66 126.99759160,37.51045337,12.70 126.99761660,37.51046516,12.80 126.99764070,37.51047681,12.84 126.99766360,37.51048920,12.89 126.99769020,37.51050069,12.85 126.99771840,37.51050952,12.85 126.99774450,37.51051844,12.87 126.99777020,37.51052903,12.73 126.99779730,37.51054305,12.81 126.99782210,37.51055718,12.79 126.99784630,37.51057316,12.62 126.99787240,37.51058770,12.50 126.99789880,37.51060416,12.63 126.99792290,37.51061951,12.65 126.99794920,37.51063360,12.49 126.99797220,37.51064635,12.37 126.99799880,37.51066186,12.31 126.99802350,37.51067965,12.39 126.99804630,37.51069631,12.72 126.99806490,37.51071266,12.76 126.99808140,37.51073204,12.86 126.99809740,37.51074801,12.86 126.99811550,37.51076533,12.97 126.99812820,37.51078156,13.08 126.99813360,37.51079416,13.23 126.99813950,37.51080667,13.19 126.99813950,37.51081455,13.27 126.99813960,37.51081578,13.22 126.99814000,37.51081623,13.06 126.99814000,37.51081706,12.97 126.99814370,37.51081934,13.11 126.99815110,37.51082772,13.23 126.99815730,37.51083424,13.30 126.99816650,37.51083969,13.40 126.99817890,37.51084695,13.46 126.99819880,37.51085384,13.63 126.99822300,37.51086624,13.51 126.99824550,37.51087259,13.62 126.99826670,37.51087750,13.59 126.99829030,37.51088311,13.73 126.99831560,37.51088944,13.82 126.99834050,37.51089691,13.89 126.99836970,37.51090534,13.98 126.99840220,37.51091135,14.02 126.99843180,37.51091517,14.28 126.99846800,37.51091864,14.11 126.99849650,37.51092204,14.11 126.99852980,37.51092220,14.28 126.99856000,37.51092579,14.04 126.99859090,37.51092856,13.98 126.99862350,37.51093351,14.08 126.99865120,37.51094063,14.14 126.99868030,37.51095120,14.21 126.99870850,37.51096187,14.28 126.99873670,37.51096936,14.26 126.99876740,37.51097406,14.34 126.99879910,37.51097948,14.62 126.99882800,37.51098954,14.47 126.99885590,37.51100194,14.49 126.99888300,37.51101363,14.48 126.99891120,37.51102475,14.35 126.99893790,37.51103693,14.33 126.99896570,37.51105320,14.30 126.99899150,37.51106557,14.39 126.99902010,37.51107648,14.41 126.99905020,37.51108785,14.40 126.99907780,37.51110152,14.48 126.99909490,37.51111389,14.31 126.99911730,37.51113043,14.24 126.99913810,37.51114814,14.04 126.99916020,37.51115618,14.07 126.99918630,37.51116763,13.87 126.99921170,37.51117792,13.71 126.99923640,37.51118730,13.88 126.99925760,37.51120291,13.81 126.99927830,37.51121850,13.73 126.99930060,37.51123332,13.72 126.99932280,37.51124747,13.74 126.99934750,37.51125999,13.69 126.99936240,37.51127728,13.05 126.99937920,37.51129697,13.00 126.99939250,37.51131915,13.11 126.99941520,37.51133509,13.29 126.99943040,37.51135235,13.28 126.99946310,37.51137229,13.72 126.99949000,37.51139045,13.76 126.99951330,37.51140738,13.89 126.99953740,37.51142110,14.69 126.99956240,37.51143997,14.90 126.99958600,37.51145670,14.90 126.99961200,37.51147388,15.16 126.99963670,37.51149021,15.05 126.99966110,37.51150781,15.31 126.99968660,37.51152387,15.44 126.99971130,37.51154181,15.06 126.99973510,37.51155941,14.79 126.99976200,37.51157519,14.76 126.99978790,37.51158976,14.75 126.99981390,37.51160557,14.91 126.99983590,37.51162354,14.89 126.99985990,37.51164069,14.94 126.99989210,37.51165630,15.45 126.99992300,37.51166626,16.05 126.99995150,37.51167959,16.01 126.99998180,37.51169413,15.87 127.00000910,37.51170976,15.82 127.00003440,37.51172642,15.80 127.00006340,37.51174086,15.76 127.00008580,37.51175039,15.65 127.00011510,37.51175885,14.92 127.00014550,37.51176895,14.92 127.00017360,37.51178016,14.73 127.00020140,37.51179519,14.77 127.00022900,37.51180864,14.88 127.00025670,37.51182250,14.77 127.00028390,37.51183639,14.78 127.00031220,37.51184928,14.71 127.00034190,37.51185896,14.91 127.00037030,37.51186916,14.83 127.00040450,37.51187811,14.79 127.00043150,37.51188634,14.69 127.00046280,37.51189683,14.83 127.00049010,37.51190571,14.58 127.00052510,37.51190910,14.59 127.00056030,37.51191560,14.62 127.00059510,37.51192132,14.44 127.00062560,37.51193262,14.66 127.00066150,37.51194404,14.70 127.00069590,37.51195401,14.62 127.00072970,37.51196142,14.53 127.00076390,37.51197304,14.56 127.00080140,37.51198140,14.44 127.00083840,37.51198529,14.58 127.00087450,37.51199150,14.55 127.00090920,37.51199978,14.56 127.00094470,37.51200798,14.56 127.00098060,37.51201858,14.69 127.00101560,37.51202721,14.47 127.00105110,37.51203378,14.50 127.00108700,37.51204305,14.37 127.00112170,37.51205116,14.28 127.00115390,37.51206178,14.17 127.00118590,37.51207182,14.09 127.00121870,37.51208740,14.07 127.00125420,37.51210164,14.04 127.00128730,37.51211557,13.93 127.00132110,37.51213064,13.90 127.00135220,37.51214361,13.80 127.00138410,37.51215703,13.75 127.00141790,37.51216970,13.74 127.00145140,37.51218078,13.64 127.00148080,37.51219408,13.67 127.00151320,37.51220925,13.65 127.00154890,37.51222682,13.55 127.00158590,37.51224509,13.49 127.00160510,37.51226310,13.10 127.00162550,37.51227940,13.12 127.00164940,37.51229781,13.29 127.00167020,37.51231726,13.39 127.00169380,37.51233762,13.21 127.00171390,37.51236013,13.57 127.00173550,37.51238262,13.39 127.00175800,37.51240363,13.39 127.00178130,37.51242590,13.32 127.00180480,37.51244891,13.35 127.00182460,37.51247229,13.30 127.00185010,37.51249580,13.30 127.00187570,37.51252032,13.28 127.00189540,37.51254534,13.30 127.00191510,37.51256843,13.27 127.00193590,37.51259145,13.06 127.00195790,37.51261501,13.18 127.00197770,37.51263637,13.26 127.00199420,37.51266087,13.32 127.00200630,37.51267555,13.29 127.00202150,37.51269992,13.26 127.00203660,37.51272660,13.37 127.00205170,37.51274729,13.43 127.00206200,37.51276878,13.57 127.00207360,37.51279128,13.53 127.00208410,37.51281592,13.31 127.00209360,37.51283765,13.26 127.00210720,37.51285963,13.29 127.00211650,37.51288099,13.34 127.00212750,37.51290233,13.10 127.00213270,37.51292543,13.42 127.00213580,37.51294830,13.48 127.00214390,37.51297200,13.23 127.00215770,37.51299348,13.41 127.00217260,37.51301701,13.48 127.00218700,37.51303845,13.55 127.00220050,37.51305892,13.23 127.00221170,37.51308173,13.13 127.00222120,37.51310413,13.28 127.00223340,37.51312839,13.43 127.00224530,37.51315025,13.41 127.00226100,37.51317261,13.47 127.00227810,37.51319333,13.49 127.00229500,37.51321548,13.48 127.00231060,37.51323721,13.43 127.00232360,37.51325891,13.45 127.00233770,37.51328046,13.66 127.00235490,37.51329923,13.68 127.00237130,37.51331681,13.74 127.00238590,37.51333620,14.00 127.00240460,37.51335883,14.08 127.00242110,37.51337950,14.19 127.00243990,37.51339867,14.31 127.00245570,37.51341857,14.29 127.00247330,37.51343877,13.99 127.00249170,37.51345927,13.95 127.00251110,37.51347801,13.71 127.00253060,37.51349549,13.70 127.00255240,37.51351384,13.86 127.00257160,37.51353431,13.91 127.00259500,37.51355208,13.95 127.00261560,37.51357101,13.99 127.00263800,37.51358935,13.95 127.00266140,37.51361239,14.02 127.00268240,37.51362960,13.84 127.00270270,37.51364712,13.69 127.00272110,37.51366324,13.51 127.00275130,37.51367727,13.01 127.00277930,37.51369018,13.08 127.00280040,37.51370106,12.88 127.00281840,37.51372261,12.86 127.00284470,37.51373968,12.81 127.00287040,37.51375631,13.39 127.00289470,37.51377344,13.51 127.00292030,37.51378870,13.32 127.00295110,37.51380224,13.55 127.00297810,37.51381274,13.46 127.00300590,37.51382684,13.69 127.00303050,37.51384033,13.70 127.00305840,37.51385542,13.70 127.00308070,37.51386915,13.64 127.00310750,37.51388310,13.58 127.00313550,37.51389418,13.56 127.00316820,37.51390735,13.62 127.00319540,37.51392158,13.65 127.00322250,37.51393469,13.59 127.00325270,37.51394833,13.55 127.00328220,37.51396154,13.51 127.00331200,37.51397079,13.51 127.00334510,37.51398277,13.63 127.00337200,37.51399485,13.63 127.00340380,37.51400708,13.76 127.00342650,37.51401771,13.73 127.00344400,37.51402970,13.69 127.00345980,37.51403409,13.63 127.00349860,37.51404320,13.97 127.00355230,37.51406175,13.76 127.00358590,37.51407918,13.80 127.00361870,37.51409377,13.92 127.00365040,37.51410845,13.79 127.00368340,37.51412312,13.76 127.00371410,37.51413686,13.59 127.00374350,37.51415421,13.75 127.00377180,37.51416993,13.75 127.00380090,37.51418805,13.85 127.00382460,37.51420507,13.91 127.00385470,37.51422203,13.87 127.00388450,37.51423707,13.85 127.00391400,37.51425427,13.63 127.00394070,37.51427422,13.57 127.00396210,37.51429525,13.46 127.00398280,37.51431222,13.34 127.00400910,37.51433133,13.44 127.00403810,37.51434939,13.38 127.00406840,37.51436678,13.26 127.00409160,37.51438831,13.29 127.00411270,37.51440802,13.39 127.00413670,37.51442928,13.50 127.00416200,37.51444931,13.44 127.00418780,37.51447254,13.46 127.00421000,37.51449252,13.60 127.00423220,37.51451299,13.65 127.00425310,37.51453539,13.56 127.00426610,37.51455849,13.85 127.00428390,37.51458070,13.88 127.00430510,37.51460142,13.51 127.00432490,37.51462581,13.24 127.00434390,37.51464929,13.31 127.00436200,37.51466941,13.33 127.00438510,37.51469573,13.30 127.00440110,37.51471384,13.53 127.00441820,37.51473546,13.56 127.00443730,37.51475417,13.65 127.00446300,37.51477382,13.73 127.00448160,37.51479449,13.79 127.00450090,37.51481261,13.82 127.00452390,37.51483449,13.47 127.00454240,37.51484920,13.62 127.00456620,37.51486631,13.54 127.00458820,37.51488514,13.55 127.00460920,37.51490276,13.57 127.00463110,37.51492261,13.52 127.00465210,37.51493919,13.52 127.00467590,37.51495335,13.48 127.00470450,37.51496726,13.57 127.00472900,37.51498158,13.42 127.00475190,37.51499739,13.51 127.00477510,37.51501514,13.60 127.00479730,37.51503169,13.55 127.00482410,37.51504601,13.52 127.00485010,37.51506019,13.70 127.00487710,37.51507085,13.90 127.00490420,37.51508667,13.87 127.00493180,37.51509951,13.77 127.00495440,37.51511271,13.83 127.00498080,37.51512774,13.85 127.00500830,37.51513699,13.72 127.00503360,37.51514941,13.72 127.00506200,37.51516326,13.74 127.00508880,37.51517944,13.72 127.00511400,37.51519419,13.59 127.00513870,37.51520531,13.69 127.00516340,37.51521904,13.74 127.00518810,37.51523265,13.89 127.00521350,37.51524723,13.91 127.00523700,37.51526204,13.83 127.00526300,37.51527935,13.77 127.00528570,37.51529722,13.94 127.00530810,37.51531370,13.99 127.00533220,37.51533015,14.04 127.00535640,37.51534744,14.09 127.00537930,37.51536439,14.11 127.00540000,37.51538045,14.14 127.00542190,37.51539772,14.12 127.00544560,37.51541504,14.13 127.00546630,37.51543357,13.97 127.00548530,37.51545407,13.98 127.00550480,37.51547451,13.88 127.00552380,37.51549545,13.76 127.00554410,37.51551621,13.70 127.00556730,37.51553568,13.73 127.00559210,37.51555542,13.75 127.00561350,37.51557184,13.77 127.00562850,37.51558768,13.80 127.00564540,37.51559912,13.77 127.00565990,37.51562020,13.71 127.00567720,37.51563707,13.69 127.00569290,37.51565528,13.82 127.00570370,37.51567495,14.03 127.00571240,37.51568699,14.47 127.00572670,37.51570743,14.67 127.00574130,37.51572946,14.64 127.00575170,37.51575475,14.49 127.00575970,37.51577746,14.48 127.00577060,37.51580081,14.39 127.00578350,37.51581485,14.25 127.00579440,37.51583541,14.12 127.00580590,37.51585528,13.67 127.00582620,37.51587484,13.35 127.00583770,37.51589822,13.36 127.00584800,37.51592141,13.69 127.00585050,37.51593793,13.32 127.00585590,37.51595751,13.09 127.00586570,37.51597472,12.99 127.00587170,37.51598963,12.99 127.00587940,37.51600825,12.57 127.00588270,37.51602643,12.29 127.00590140,37.51607526,12.18 127.00591480,37.51610576,12.46 127.00593130,37.51613467,12.73 127.00593240,37.51616427,12.64 127.00593370,37.51619008,12.48 127.00593490,37.51621637,12.42 127.00594200,37.51624250,12.17 127.00594980,37.51626845,12.10 127.00595840,37.51629289,11.96 127.00596520,37.51631912,11.89 127.00596850,37.51634828,11.93 127.00597640,37.51637631,11.88 127.00598150,37.51640344,12.03 127.00598890,37.51642975,12.03 127.00600150,37.51646202,12.09 127.00601380,37.51649621,12.14 127.00602970,37.51653140,12.22 127.00605260,37.51656664,12.25 127.00607400,37.51660044,12.36 127.00609510,37.51663221,12.48 127.00610390,37.51666588,12.82 127.00612250,37.51669663,12.81 127.00614000,37.51672685,12.81 127.00616220,37.51675298,12.79 127.00618350,37.51677938,12.76 127.00621520,37.51680951,12.76 127.00623570,37.51683837,12.63 127.00626050,37.51686605,12.36 127.00628130,37.51688256,12.40 127.00630000,37.51690793,12.38 127.00632770,37.51692617,12.36 127.00634910,37.51694866,12.32 127.00636520,37.51698305,12.49 127.00639730,37.51701416,11.90 127.00642600,37.51703526,12.03 127.00644680,37.51705357,12.21 127.00646880,37.51707389,12.37 127.00648970,37.51709484,12.53 127.00651690,37.51711349,12.71 127.00654000,37.51713609,12.58 127.00656090,37.51715152,12.50 127.00658670,37.51717004,12.52 127.00661320,37.51718667,12.57 127.00664240,37.51719908,12.72 127.00666720,37.51721600,12.79 127.00669860,37.51722734,12.33 127.00672760,37.51723376,11.81 127.00675540,37.51725003,12.22 127.00677810,37.51726367,12.65 127.00679720,37.51727647,12.53 127.00682110,37.51729824,12.03 127.00683940,37.51731250,12.02 127.00686020,37.51732669,12.26 127.00688390,37.51734113,12.44 127.00690440,37.51735365,12.31 127.00692550,37.51736312,12.44 127.00694980,37.51737260,12.44 127.00697690,37.51738396,12.52 127.00699490,37.51740040,11.92 127.00701830,37.51741118,11.86 127.00703840,37.51742454,11.55 127.00706390,37.51743300,11.30 127.00709010,37.51744224,11.22 127.00710570,37.51745754,11.35 127.00713040,37.51746691,11.26 127.00716160,37.51746989,10.92 127.00719000,37.51747253,10.66 127.00722130,37.51747768,10.78 127.00724180,37.51747768,10.68 127.00727150,37.51747962,10.83 127.00728590,37.51747993,10.95 127.00730500,37.51748332,10.88 127.00733670,37.51749537,10.84 127.00736420,37.51750468,10.89 127.00739240,37.51751710,11.27 127.00742170,37.51753202,10.85 127.00745090,37.51754129,10.68 127.00747930,37.51754942,10.98 127.00750770,37.51755249,10.99 127.00752390,37.51755977,11.69 127.00755630,37.51756775,11.99 127.00759120,37.51757774,12.45 127.00759120,37.51760392,12.74 127.00759120,37.51764828,13.20 127.00759120,37.51768955,13.75 127.00755370,37.51772870,13.86 127.00755370,37.51777356,13.96 127.00755370,37.51780922,14.09 127.00755400,37.51784312,14.28 127.00756330,37.51789628,15.03 127.00757810,37.51792732,14.85 127.00761350,37.51796888,15.02 127.00764420,37.51802068,14.89 127.00768550,37.51805504,15.08 127.00772130,37.51808278,15.44 127.00776320,37.51812191,15.49 127.00780840,37.51815820,15.35 127.00784970,37.51820047,15.72 127.00789720,37.51824461,15.09 127.00794330,37.51828711,14.42 127.00799290,37.51832382,14.61 127.00805080,37.51837681,14.65 127.00810170,37.51842043,14.34 127.00815340,37.51846189,14.60 127.00820200,37.51850351,14.16 127.00824380,37.51854505,13.95 127.00829150,37.51858391,14.09 127.00833350,37.51862254,14.26 127.00837590,37.51865772,14.45 127.00841750,37.51869437,14.42 127.00845710,37.51873032,14.67 127.00849680,37.51876659,14.81 127.00853400,37.51880016,14.85 127.00857940,37.51883016,13.86 127.00861460,37.51885269,13.71 127.00863880,37.51887189,13.27 127.00864400,37.51893306,13.46 127.00864450,37.51898277,13.66 127.00864450,37.51903193,13.66 127.00864450,37.51906542,13.98 127.00864450,37.51910239,14.82 127.00864450,37.51914398,14.79 127.00864590,37.51918115,14.45 127.00864910,37.51921926,14.44 127.00867560,37.51925269,15.04 127.00869620,37.51928417,15.32 127.00872330,37.51931112,15.48 127.00875180,37.51934222,15.44 127.00878580,37.51936663,15.69 127.00882110,37.51939117,15.49 127.00885110,37.51941707,15.60 127.00887910,37.51944460,15.49 127.00890480,37.51947062,15.68 127.00893020,37.51949787,15.29 127.00895850,37.51952475,15.45 127.00898900,37.51954886,15.31 127.00901970,37.51957493,15.31 127.00904570,37.51959930,15.47 127.00907570,37.51962523,15.41 127.00910440,37.51964996,15.40 127.00913260,37.51967429,15.41 127.00916010,37.51969967,15.41 127.00918870,37.51972500,15.53 127.00921150,37.51975281,15.54 127.00924330,37.51977572,15.53 127.00927080,37.51979860,15.42 127.00929580,37.51982346,15.32 127.00932410,37.51984687,15.30 127.00935240,37.51986872,15.36 127.00938050,37.51988966,15.34 127.00940410,37.51991335,15.39 127.00942730,37.51993472,15.37 127.00945210,37.51995673,15.39 127.00947550,37.51997833,15.51 127.00949770,37.52000229,15.47 127.00952020,37.52002203,15.47 127.00954720,37.52003785,15.51 127.00957050,37.52005595,15.49 127.00959090,37.52007622,15.47 127.00960860,37.52009731,15.49 127.00962620,37.52011585,15.50 127.00965970,37.52014107,15.34 127.00968690,37.52016668,15.42 127.00971580,37.52018774,15.26 127.00974020,37.52021017,15.07 127.00976380,37.52023527,15.11 127.00978730,37.52026023,15.08 127.00981140,37.52028440,14.97 127.00983560,37.52030647,14.89 127.00985990,37.52032505,14.59 127.00987990,37.52034154,14.44 127.00991500,37.52035201,14.51 127.00993330,37.52037335,14.27 127.00995150,37.52039527,14.18 127.00996800,37.52041626,14.00 127.00998630,37.52043603,13.97 127.01000070,37.52045666,14.01 127.01001500,37.52047780,13.95 127.01003210,37.52049991,13.98 127.01004740,37.52052042,13.89 127.01007170,37.52053953,13.89 127.01009980,37.52055962,13.97 127.01012350,37.52057311,13.82 127.01015190,37.52058854,13.63 127.01018380,37.52060265,13.43 127.01019630,37.52061343,13.52 127.01021470,37.52062988,13.89 127.01024280,37.52064682,13.92 127.01027210,37.52067012,13.89 127.01028780,37.52069691,13.33 127.01030760,37.52071295,13.11 127.01032820,37.52072941,12.86 127.01033890,37.52074612,12.40 127.01035300,37.52076893,11.98 127.01036730,37.52078854,11.79 127.01038790,37.52080892,11.85 127.01042500,37.52082695,12.08 127.01043510,37.52084611,11.81 127.01045320,37.52086011,11.80 127.01047610,37.52088404,11.16 127.01048970,37.52090322,11.14 127.01051600,37.52093116,11.15 127.01055150,37.52094945,11.41 127.01058660,37.52097351,11.17 127.01061510,37.52099578,10.92 127.01063740,37.52101693,10.85 127.01066040,37.52103521,10.86 127.01068300,37.52104918,11.01 127.01070440,37.52106951,11.17 127.01072660,37.52108667,11.10 127.01075060,37.52110723,11.31 127.01076760,37.52112758,11.37 127.01079000,37.52114293,11.50 127.01081750,37.52116678,11.59 127.01083340,37.52118816,11.76 127.01086380,37.52122023,12.48 127.01088910,37.52124144,13.48 127.01091370,37.52126264,13.50 127.01093610,37.52128119,13.78 127.01095810,37.52129677,13.97 127.01098600,37.52131661,14.05 127.01100760,37.52133597,14.26 127.01102830,37.52135261,13.95 127.01104890,37.52136860,15.04 127.01107310,37.52138714,15.11 127.01109490,37.52140176,15.10 127.01111240,37.52142180,14.98 127.01114110,37.52144543,15.33 127.01115380,37.52145966,16.22 127.01116680,37.52147402,15.95 127.01118480,37.52149383,16.07 127.01120260,37.52150934,16.29 127.01122270,37.52152889,16.44 127.01124360,37.52154795,16.54 127.01127120,37.52156258,16.13 127.01130070,37.52157766,15.99 127.01133240,37.52158917,16.00 127.01136140,37.52160112,15.68 127.01139390,37.52161388,15.51 127.01142520,37.52162926,15.76 127.01145630,37.52164202,15.57 127.01148770,37.52165853,15.88 127.01150130,37.52167435,15.77 127.01151010,37.52169439,15.61 127.01153110,37.52171708,15.30 127.01154410,37.52174455,14.95 127.01156740,37.52177170,14.80 127.01158700,37.52179255,14.69 127.01160990,37.52181406,14.77 127.01163070,37.52183934,14.39 127.01165010,37.52186250,13.97 127.01166920,37.52188530,14.00 127.01169190,37.52190798,14.11 127.01170910,37.52192605,14.30 127.01172780,37.52194815,14.26 127.01174770,37.52196802,14.37 127.01177320,37.52198663,14.11 127.01179750,37.52200729,14.54 127.01181830,37.52202097,14.61 127.01183340,37.52204238,14.48 127.01184810,37.52205824,14.28 127.01186930,37.52207970,14.23 127.01188520,37.52209949,13.81 127.01189890,37.52211612,13.28 127.01191690,37.52213874,13.15 127.01192960,37.52215442,13.66 127.01194710,37.52217327,13.85 127.01197200,37.52218995,13.97 127.01200690,37.52222188,14.39 127.01203620,37.52224272,14.33 127.01206140,37.52226483,13.93 127.01208940,37.52228537,13.75 127.01211970,37.52230279,13.85 127.01215040,37.52232546,13.75 127.01217660,37.52234876,13.93 127.01219590,37.52236627,14.17 127.01219680,37.52238743,14.23 127.01222570,37.52240493,14.38 127.01224830,37.52241940,15.02 127.01227400,37.52243681,14.83 127.01229930,37.52245501,14.66 127.01232590,37.52247699,14.51 127.01234990,37.52249552,15.01 127.01237800,37.52251571,15.08 127.01240120,37.52253627,15.02 127.01242700,37.52255893,15.34 127.01244560,37.52258503,15.68 127.01246630,37.52260627,15.89 127.01248810,37.52262860,15.97 127.01250830,37.52264710,15.88 127.01253110,37.52266781,15.93 127.01255460,37.52268702,15.95 127.01257960,37.52270486,16.16 127.01260490,37.52272430,16.33 127.01263290,37.52274362,15.95 127.01265410,37.52276202,16.08 127.01267800,37.52278324,16.13 127.01269800,37.52280785,15.97 127.01271830,37.52283199,15.97 127.01273210,37.52285323,16.12 127.01275000,37.52287746,16.09 127.01276670,37.52290296,16.27 127.01278760,37.52292037,16.20 127.01280440,37.52294410,15.93 127.01282590,37.52296866,15.95 127.01284450,37.52299000,16.01 127.01286530,37.52300464,15.76 127.01290550,37.52302277,15.56 127.01293690,37.52303610,15.52 127.01296140,37.52305777,15.23 127.01298440,37.52307700,15.01 127.01300590,37.52309989,14.81 127.01302660,37.52312223,15.05 127.01304880,37.52313749,15.30 127.01307130,37.52315745,15.70 127.01309060,37.52317526,15.75 127.01311210,37.52319397,15.73 127.01313490,37.52321241,15.87 127.01315620,37.52323213,16.09 127.01317600,37.52324689,16.05 127.01320430,37.52326308,16.13 127.01322580,37.52327903,16.23 127.01324830,37.52329551,16.20 127.01327400,37.52331330,16.15 127.01330000,37.52333020,16.25 127.01332630,37.52334654,16.24 127.01334870,37.52336487,16.29 127.01338150,37.52338410,16.36 127.01339960,37.52340248,16.18 127.01341810,37.52342053,16.13 127.01344130,37.52344205,16.06 127.01346470,37.52345940,16.10 127.01348600,37.52347071,16.07 127.01351750,37.52349334,15.59 127.01353730,37.52351092,15.64 127.01355960,37.52352633,15.30 127.01357250,37.52353959,15.09 127.01358990,37.52355873,15.28 127.01361030,37.52357834,15.32 127.01362920,37.52359110,15.85 127.01365420,37.52361282,15.92 127.01368150,37.52363395,16.03 127.01370190,37.52365516,15.84 127.01373020,37.52368414,15.93 127.01374670,37.52369090,15.85 127.01376950,37.52371197,15.50 127.01378560,37.52373117,15.32 127.01380280,37.52374786,15.28 127.01381880,37.52376238,15.07 127.01383670,37.52378435,15.44 127.01385880,37.52380454,15.15 127.01387050,37.52382522,15.32 127.01388540,37.52384458,15.66 127.01390340,37.52386282,16.00 127.01392290,37.52387544,16.23 127.01395640,37.52389836,16.35 127.01398040,37.52392188,16.67 127.01399870,37.52394336,16.54 127.01401310,37.52395768,16.33 127.01403930,37.52397912,16.51 127.01406930,37.52399654,16.59 127.01409530,37.52400959,16.56 127.01411340,37.52403607,16.70 127.01412950,37.52405698,17.17 127.01415240,37.52407973,17.27 127.01417330,37.52409393,17.15 127.01419540,37.52410632,16.78 127.01421430,37.52412252,16.95 127.01423370,37.52414115,17.00 127.01424630,37.52415796,16.99 127.01426630,37.52417738,16.56 127.01428980,37.52419520,16.60 127.01431180,37.52421377,16.55 127.01433160,37.52423089,16.76 127.01435250,37.52424887,16.79 127.01437250,37.52426698,16.49 127.01439430,37.52428596,16.55 127.01441260,37.52430272,16.45 127.01443160,37.52431924,16.46 127.01445300,37.52433912,16.24 127.01447410,37.52435830,16.26 127.01449180,37.52437742,16.46 127.01450940,37.52439652,16.37 127.01452800,37.52441595,16.45 127.01454810,37.52443376,16.54 127.01456670,37.52444964,16.76 127.01458850,37.52446612,16.72 127.01461170,37.52448669,16.73 127.01463030,37.52450574,16.83 127.01465210,37.52452065,16.63 127.01467370,37.52453858,16.77 127.01469690,37.52455537,16.71 127.01472030,37.52457246,16.56 127.01474160,37.52459211,16.52 127.01476130,37.52461515,16.46 127.01477890,37.52463404,16.45 127.01480210,37.52464911,16.43 127.01482090,37.52466969,16.59 127.01483970,37.52468682,16.64 127.01486300,37.52470463,16.66 127.01488470,37.52472038,16.60 127.01490490,37.52473496,16.68 127.01492940,37.52475283,16.83 127.01495310,37.52477221,16.82 127.01497300,37.52479270,16.71 127.01499540,37.52481214,16.62 127.01501850,37.52483140,16.45 127.01504320,37.52484905,16.36 127.01506860,37.52486866,16.19 127.01509810,37.52488395,16.13 127.01512350,37.52489948,16.03 127.01515070,37.52492294,15.98 127.01517860,37.52494512,15.87 127.01520830,37.52496582,15.67 127.01523690,37.52498555,15.59 127.01526720,37.52501577,15.82 127.01528600,37.52504383,15.73 127.01532250,37.52505228,15.52 127.01535230,37.52508611,14.15 127.01538560,37.52510563,14.13 127.01540950,37.52513692,13.86 127.01545190,37.52515928,13.48 127.01548040,37.52519040,14.29 127.01550750,37.52522177,16.00 127.01553570,37.52524673,15.90 127.01556500,37.52527157,16.22 127.01559760,37.52529385,16.26 127.01562370,37.52531383,16.80 127.01564800,37.52533328,16.90 127.01567110,37.52535581,17.00 127.01569510,37.52537950,16.89 127.01572060,37.52540344,16.73 127.01574820,37.52542613,16.52 127.01577400,37.52544610,16.39 127.01579520,37.52546635,16.24 127.01582140,37.52548566,16.09 127.01584810,37.52550797,15.95 127.01587510,37.52552734,15.90 127.01590320,37.52554834,15.76 127.01592640,37.52557043,15.73 127.01595160,37.52559177,15.77 127.01597790,37.52561064,15.86 127.01600230,37.52562884,15.94 127.01602470,37.52565034,16.11 127.01605050,37.52566722,15.87 127.01607830,37.52568672,16.16 127.01609690,37.52570587,16.33 127.01612280,37.52573018,16.41 127.01614220,37.52574991,16.40 127.01616400,37.52576937,16.34 127.01618690,37.52578457,16.08 127.01621120,37.52580220,15.96 127.01623690,37.52582172,15.85 127.01625790,37.52583990,15.83 127.01628110,37.52585860,15.95 127.01630300,37.52587631,15.89 127.01632340,37.52589708,15.87 127.01634280,37.52591607,16.04 127.01636800,37.52593541,15.99 127.01639340,37.52596017,15.93 127.01642300,37.52598626,15.82 127.01645840,37.52601634,15.93 127.01649770,37.52605397,16.08 127.01654280,37.52608751,15.82 127.01658790,37.52612442,15.65 127.01662220,37.52615145,15.58 127.01666680,37.52618038,15.66 127.01671050,37.52620973,15.40 127.01675530,37.52625029,15.81 127.01679750,37.52629106,15.34 127.01684390,37.52633013,14.93 127.01689760,37.52637024,15.28 127.01694890,37.52641298,15.14 127.01700120,37.52645913,15.74 127.01705600,37.52649853,17.16 127.01710300,37.52654622,16.65 127.01715390,37.52658832,16.55 127.01720490,37.52662982,16.42 127.01725360,37.52666992,16.61 127.01729890,37.52670877,16.31 127.01734160,37.52670877,16.75 127.01738660,37.52672049,16.60 127.01759790,37.52674617,16.37 127.01763930,37.52674769,16.44 127.01767400,37.52674769,20.14 127.01771790,37.52678212,20.67 127.01776220,37.52681688,19.59 127.01779630,37.52684301,17.78 127.01783860,37.52687437,18.57 127.01787830,37.52690388,18.98 127.01791650,37.52693225,18.69 127.01795700,37.52696360,18.78 127.01799170,37.52699015,18.33 127.01802620,37.52701655,18.34 127.01805930,37.52704190,17.84 127.01808990,37.52706431,17.89 127.01812310,37.52708924,17.65 127.01815770,37.52711557,17.95 127.01818530,37.52713662,17.77 127.01821800,37.52716105,17.60 127.01825140,37.52718690,17.50 127.01828000,37.52720903,17.58 127.01830860,37.52723126,18.12 127.01833970,37.52725531,17.82 127.01836870,37.52727776,17.55 127.01839810,37.52730059,17.38 127.01842640,37.52732252,17.38 127.01842640,37.52734494,17.20 127.01842640,37.52736746,17.34 127.01837030,37.52755289,17.07 127.01837030,37.52757579,16.97 127.01837030,37.52759549,16.82 127.01839860,37.52761797,16.94 127.01842420,37.52764036,16.70 127.01844970,37.52766292,16.13 127.01847240,37.52768589,16.38 127.01849930,37.52770730,16.31 127.01851890,37.52773555,15.68 127.01855000,37.52774873,16.68 127.01856910,37.52777317,16.88 127.01859830,37.52779244,16.06 127.01862460,37.52781326,15.92 127.01864810,37.52783445,15.90 127.01867330,37.52785375,15.69 127.01869810,37.52787282,15.82 127.01872330,37.52789833,16.21 127.01874930,37.52791163,15.52 127.01877160,37.52793669,15.88 127.01879270,37.52795340,15.81 127.01881960,37.52797369,16.01 127.01884250,37.52799087,16.02 127.01886450,37.52801144,16.12 127.01888770,37.52802932,16.12 127.01891000,37.52805016,16.22 127.01892960,37.52807057,16.16 127.01895650,37.52808769,16.01 127.01898200,37.52810353,16.04 127.01900790,37.52812551,16.14 127.01902890,37.52814276,15.94 127.01905070,37.52816461,16.03 127.01907130,37.52818453,15.99 127.01909460,37.52820253,16.01 127.01911950,37.52822010,16.00 127.01914290,37.52823907,16.16 127.01916350,37.52825556,16.00 127.01918490,37.52827354,15.99 127.01920500,37.52829104,15.92 127.01922460,37.52830902,15.96 127.01924640,37.52832603,15.79 127.01926670,37.52834455,15.71 127.01928140,37.52836453,15.60 127.01930890,37.52837954,15.67 127.01933090,37.52840171,16.26 127.01935270,37.52842305,16.45 127.01936610,37.52843540,16.53 127.01938790,37.52845555,16.70 127.01940890,37.52847070,16.66 127.01942930,37.52848823,16.49 127.01945070,37.52850529,16.38 127.01947440,37.52852383,16.21 127.01949390,37.52854279,16.14 127.01951640,37.52855561,16.12 127.01954350,37.52856998,16.19 127.01957280,37.52858486,16.18 127.01959850,37.52859916,16.30 127.01962900,37.52861206,16.33 127.01965580,37.52861206,16.37 127.01968380,37.52861206,16.16 127.01976130,37.52855586,16.21 127.01978910,37.52855586,16.19 127.01981690,37.52855586,16.28 127.01984010,37.52856283,16.29 127.01986510,37.52857034,16.34 127.01988520,37.52857639,16.54 127.01990980,37.52858378,16.49 127.01993170,37.52859037,16.42 127.01995240,37.52859660,16.31 127.01997300,37.52860279,16.24 127.01999310,37.52860885,16.26 127.02001310,37.52861486,16.23 127.02003130,37.52862033,16.22 127.02004800,37.52862535,16.29 127.02006480,37.52863042,16.30 127.02008120,37.52863534,16.26 127.02009810,37.52864044,16.38 127.02011930,37.52864680,16.40 127.02011930,37.52864680,16.34 127.02011930,37.52864680,16.21 127.02011830,37.52864650,15.91 127.02008770,37.52863729,15.75 127.02005930,37.52862875,15.68 127.02003340,37.52862097,15.67 127.02000590,37.52861271,15.66 127.01997570,37.52860363,15.68 127.01994220,37.52859355,15.61 127.01990570,37.52858257,15.51 127.01986430,37.52857010,15.33 127.01982250,37.52855753,15.12 127.01976870,37.52854135,15.25 127.01971150,37.52852417,15.30 127.01965570,37.52850737,15.29 127.01959880,37.52849025,15.47 127.01951000,37.52846357,15.04 127.01942150,37.52843692,15.16 127.01934740,37.52841466,15.32 127.01928840,37.52839010,15.40 127.01921740,37.52837556,15.53 127.01915230,37.52835270,15.48 127.01908950,37.52832766,15.60 127.01902890,37.52830344,15.64 127.01902070,37.52816577,15.58 127.01897010,37.52812662,15.53 127.01891550,37.52808680,15.51 127.01886940,37.52804576,15.70 127.01882360,37.52800692,15.80 127.01878080,37.52796996,15.74 127.01874240,37.52793362,15.54 127.01870150,37.52790242,15.51 127.01865890,37.52787028,15.42 127.01861930,37.52783770,15.50 127.01858130,37.52780605,15.49 127.01854570,37.52777345,15.57 127.01850790,37.52774460,15.52 127.01846800,37.52771527,15.16 127.01843670,37.52768681,15.63 127.01840370,37.52765721,15.75 127.01836700,37.52762895,15.69 127.01832730,37.52761212,17.37 127.01829820,37.52758115,16.52 127.01826690,37.52755483,16.51 127.01823710,37.52752910,16.45 127.01820840,37.52750218,16.60 127.01817860,37.52748035,16.54 127.01815070,37.52745190,16.50 127.01812120,37.52742937,16.31 127.01809390,37.52740511,16.32 127.01806240,37.52738643,16.40 127.01803440,37.52736173,16.31 127.01800990,37.52733366,15.77 127.01798250,37.52730896,15.81 127.01795890,37.52728662,15.73 127.01793050,37.52726354,15.77 127.01790150,37.52724564,15.68 127.01787720,37.52721891,15.65 127.01784900,37.52719572,15.66 127.01782090,37.52717522,15.63 127.01779710,37.52715500,15.55 127.01777130,37.52713502,15.58 127.01774690,37.52711405,15.46 127.01771910,37.52709317,15.42 127.01769410,37.52707501,15.32 127.01766980,37.52705299,15.26 127.01764520,37.52703191,15.29 127.01761850,37.52701040,14.99 127.01759080,37.52699159,15.12 127.01759080,37.52696913,15.02 127.01759080,37.52694674,14.93 127.01763000,37.52679861,15.06 127.01763000,37.52677948,14.97 127.01763000,37.52675997,14.99 127.01760610,37.52674121,14.81 127.01758260,37.52672277,14.76 127.01755310,37.52669929,14.75 127.01753190,37.52668239,14.50 127.01750190,37.52665857,14.73 127.01747690,37.52663863,14.69 127.01746970,37.52663292,14.78 127.01742830,37.52659999,14.84 127.01740370,37.52658042,14.89 127.01737150,37.52655479,14.82 127.01736320,37.52654816,14.76 127.01733540,37.52654816,14.24 127.01730860,37.52654816,14.74 127.01714600,37.52656549,14.69 127.01711230,37.52656549,14.73 127.01709260,37.52656549,15.35 127.01707440,37.52654125,14.55 127.01706080,37.52652278,14.55 127.01701100,37.52651028,15.16 127.01699300,37.52649456,15.01 127.01695500,37.52646946,14.98 127.01694590,37.52645079,15.20 127.01693450,37.52643345,15.63 127.01690940,37.52641251,15.39 127.01688770,37.52638883,15.84 127.01686040,37.52635869,15.06 127.01683320,37.52633279,15.38 127.01679290,37.52630022,14.96 127.01673800,37.52625505,15.28 127.01668690,37.52621547,14.99 127.01663370,37.52616921,14.47 127.01657420,37.52613156,14.04 127.01650570,37.52608222,14.64 127.01644690,37.52604714,14.65 127.01638630,37.52600259,14.41 127.01632290,37.52594491,14.50 127.01625970,37.52588907,13.99 127.01619630,37.52583273,14.18 127.01613810,37.52578345,14.97 127.01607070,37.52573672,14.50 127.01600200,37.52568973,14.75 127.01594940,37.52564514,14.61 127.01589200,37.52559438,13.96 127.01583710,37.52554026,13.84 127.01578230,37.52549171,14.23 127.01572610,37.52545835,14.32 127.01566790,37.52541833,13.69 127.01561690,37.52538666,13.51 127.01557650,37.52533098,12.99 127.01551850,37.52528355,13.08 127.01546350,37.52524602,12.99 127.01541000,37.52519941,12.52 127.01536350,37.52515769,12.50 127.01532860,37.52512448,12.94 127.01530090,37.52509346,13.14 127.01527650,37.52504662,13.74 127.01527000,37.52500653,13.51 127.01525640,37.52497420,13.36 127.01525430,37.52492926,13.83 127.01525220,37.52488761,13.97 127.01525220,37.52486178,13.84 127.01525430,37.52484605,13.65 127.01528660,37.52480410,13.58 127.01529300,37.52478842,13.46 127.01532980,37.52478228,13.44 127.01537560,37.52477927,12.94 127.01540020,37.52477026,13.07 127.01541350,37.52476315,12.96 127.01543690,37.52475922,12.67 127.01544370,37.52475541,12.85 127.01544890,37.52475493,12.77 127.01545540,37.52474720,12.72 127.01546620,37.52474102,12.59 127.01546650,37.52473534,12.37 127.01546650,37.52470562,13.16 127.01546650,37.52469149,13.21 127.01545440,37.52465961,13.70 127.01545440,37.52463498,13.60 127.01545440,37.52460166,13.12 127.01546770,37.52459632,12.66 127.01546830,37.52458647,12.52 127.01547130,37.52458574,12.37 127.01550460,37.52458574,12.19 127.01553390,37.52457897,12.11 127.01558040,37.52457897,11.98 127.01558040,37.52457897,12.48 127.01558040,37.52461831,13.57 127.01558270,37.52463407,14.15 127.01558270,37.52463866,14.61 127.01558270,37.52463919,15.19 127.01559560,37.52464146,15.38 127.01560970,37.52464274,15.13 127.01561880,37.52464356,14.77 127.01562400,37.52464393,15.23 127.01562500,37.52464393,15.49 127.01562660,37.52464692,15.52 127.01563100,37.52465833,15.63 127.01563850,37.52465833,16.12 127.01564180,37.52465833,16.20 127.01565030,37.52465723,15.59 127.01565560,37.52465205,15.48 127.01566670,37.52463827,15.37 127.01566870,37.52463210,15.27 127.01567350,37.52463165,15.05 127.01567350,37.52463112,14.39 127.01567500,37.52463049,13.76 127.01567380,37.52462942,12.50 127.01567350,37.52462542,12.52 127.01567070,37.52462484,12.50 127.01567380,37.52462484,13.30 127.01567380,37.52462047,12.28 127.01567555,37.52462047,12.14 127.01568040,37.52462047,12.14</coordinates></LineString>
</Placemark></Document></kml>
