{"type": "FeatureCollection", "features": [{"type": "Feature", "properties": {"name": "R2D Dongtan first dataset 2026-08-09", "distance_km": 2.446, "gps_accuracy_median_m": 14.15}, "geometry": {"type": "LineString", "coordinates": [[127.1043303, 37.1848896], [127.1043371, 37.184883], [127.1043678, 37.1848867], [127.1043777, 37.1848889], [127.1043886, 37.1848963], [127.1043995, 37.1849092], [127.1044047, 37.1849046], [127.1044049, 37.1849035], [127.1044038, 37.1849059], [127.1044032, 37.1849064], [127.1044032, 37.1849064], [127.1044029, 37.184908], [127.1044029, 37.184908], [127.1044029, 37.184908], [127.1044029, 37.184908], [127.1044029, 37.184908], [127.1044029, 37.184908], [127.1044029, 37.184908], [127.1044029, 37.184908], [127.1044029, 37.184908], [127.1044029, 37.184908], [127.1044029, 37.184908], [127.1043998, 37.1849054], [127.1043998, 37.1849054], [127.1043998, 37.1849054], [127.1044048, 37.1849001], [127.1044, 37.1849018], [127.1043946, 37.184905], [127.1043921, 37.1849072], [127.1043929, 37.1849058], [127.1043887, 37.1848907], [127.1043884, 37.1848978], [127.104389, 37.1848981], [127.1043799, 37.1848927], [127.104377, 37.1848877], [127.1043745, 37.1848842], [127.1043761, 37.1848871], [127.1043792, 37.1848842], [127.1043804, 37.1848864], [127.1043788, 37.1848842], [127.1043792, 37.184883], [127.1043721, 37.1848833], [127.1043661, 37.1848828], [127.1043608, 37.1848833], [127.1043518, 37.1848769], [127.1043476, 37.1848739], [127.1043391, 37.1848709], [127.1043299, 37.1848655], [127.1043239, 37.1848604], [127.1043178, 37.1848591], [127.1043207, 37.1848677], [127.104325, 37.1848691], [127.1043286, 37.1848684], [127.1043338, 37.1848718], [127.1043377, 37.1848739], [127.1043414, 37.1848742], [127.1043366, 37.1848731], [127.1043333, 37.1848689], [127.1043306, 37.1848703], [127.1043279, 37.1848694], [127.1043205, 37.1848614], [127.1043228, 37.1848681], [127.1043228, 37.184868], [127.1043238, 37.1848702], [127.1043305, 37.1848798], [127.1043307, 37.1848841], [127.1043244, 37.1848757], [127.1043223, 37.1848718], [127.1043206, 37.1848744], [127.1043226, 37.1848741], [127.1043222, 37.1848728], [127.1043212, 37.184869], [127.1042978, 37.184862], [127.1042864, 37.1848585], [127.1042684, 37.1848639], [127.1042438, 37.1848604], [127.10422, 37.1848685], [127.1041981, 37.1848789], [127.1041703, 37.1848912], [127.1041498, 37.1849092], [127.1041239, 37.18492], [127.1041014, 37.1849343], [127.104077, 37.1849483], [127.1040538, 37.1849626], [127.1040344, 37.1849784], [127.1040124, 37.1849943], [127.1039817, 37.1850081], [127.1039561, 37.1850262], [127.1039314, 37.1850463], [127.1039045, 37.1850598], [127.1038702, 37.1850757], [127.1038399, 37.1850939], [127.1038075, 37.1851145], [127.1037712, 37.1851295], [127.1037323, 37.185142], [127.1037035, 37.1851523], [127.1036709, 37.1851644], [127.103643, 37.1851829], [127.1036173, 37.1852036], [127.1035865, 37.1852169], [127.1035548, 37.185232], [127.1035211, 37.1852415], [127.1034906, 37.1852561], [127.1034613, 37.1852758], [127.1034363, 37.1852994], [127.1034146, 37.1853266], [127.1033952, 37.185351], [127.1033802, 37.1853784], [127.1033735, 37.1854028], [127.1033622, 37.1854292], [127.1033898, 37.1854386], [127.103372, 37.1854502], [127.1033385, 37.185456], [127.1033056, 37.1854625], [127.1032726, 37.1854772], [127.1032455, 37.185494], [127.1032341, 37.1855113], [127.1032013, 37.1855296], [127.1031666, 37.1855461], [127.1031317, 37.1855651], [127.1030969, 37.1855837], [127.1030596, 37.185599], [127.1030179, 37.185613], [127.1029803, 37.1856327], [127.1029405, 37.1856495], [127.1029037, 37.1856646], [127.1028606, 37.1856786], [127.1028204, 37.185694], [127.1027749, 37.1857077], [127.1027246, 37.1857227], [127.1026858, 37.1857444], [127.1026422, 37.1857565], [127.1025975, 37.1857656], [127.1025497, 37.1857763], [127.1025045, 37.1857836], [127.1024563, 37.1857928], [127.1024098, 37.1858006], [127.1023668, 37.1858091], [127.102324, 37.1858191], [127.1022733, 37.1858338], [127.102245, 37.185844], [127.1022066, 37.1858554], [127.1021646, 37.185867], [127.1021276, 37.1858775], [127.1020854, 37.1858842], [127.1020461, 37.185888], [127.1020055, 37.1858945], [127.1019633, 37.1859021], [127.101924, 37.1859101], [127.1018862, 37.1859213], [127.1018478, 37.1859306], [127.1018095, 37.1859357], [127.1017694, 37.1859378], [127.1017302, 37.1859398], [127.1016885, 37.1859436], [127.1016504, 37.1859502], [127.1016094, 37.1859546], [127.1015667, 37.1859562], [127.1015253, 37.185958], [127.1014863, 37.185962], [127.1014453, 37.1859706], [127.1014072, 37.1859746], [127.1013704, 37.1859764], [127.1013348, 37.185977], [127.1013025, 37.1859757], [127.1012738, 37.1859737], [127.101247, 37.1859719], [127.1012221, 37.1859661], [127.1011981, 37.1859582], [127.1011709, 37.1859547], [127.1011419, 37.1859588], [127.1011118, 37.1859686], [127.1010834, 37.1859793], [127.1010673, 37.185985], [127.1010485, 37.1859942], [127.1010401, 37.1860073], [127.1010327, 37.1860205], [127.1010393, 37.1860245], [127.1010421, 37.1860212], [127.1010407, 37.1860212], [127.1010404, 37.1860215], [127.1010414, 37.1860213], [127.1010422, 37.1860186], [127.1010427, 37.1860197], [127.1010435, 37.1860182], [127.1010432, 37.1860185], [127.1010439, 37.1860184], [127.1010433, 37.1860188], [127.1010436, 37.1860184], [127.1010441, 37.186018], [127.1010436, 37.1860182], [127.1010444, 37.1860181], [127.1010446, 37.1860175], [127.1010444, 37.1860167], [127.1010443, 37.1860161], [127.1010454, 37.1860148], [127.1010454, 37.1860146], [127.1010453, 37.1860137], [127.1010458, 37.1860128], [127.1010457, 37.1860126], [127.1010457, 37.1860124], [127.1010458, 37.1860129], [127.1010462, 37.1860124], [127.1010461, 37.1860138], [127.1010458, 37.1860154], [127.1010459, 37.1860164], [127.1010461, 37.1860175], [127.1010462, 37.1860178], [127.1010462, 37.1860178], [127.1010462, 37.1860178], [127.1010469, 37.1860174], [127.1010472, 37.1860177], [127.1010472, 37.1860178], [127.1010473, 37.1860181], [127.1010481, 37.1860179], [127.1010477, 37.186018], [127.1010483, 37.1860175], [127.1010486, 37.1860178], [127.101049, 37.1860168], [127.101049, 37.1860167], [127.1010498, 37.1860159], [127.1010499, 37.1860167], [127.1010495, 37.1860176], [127.1010497, 37.1860181], [127.1010496, 37.1860184], [127.1010493, 37.1860193], [127.1010493, 37.1860196], [127.1010489, 37.1860205], [127.1010486, 37.1860208], [127.1010486, 37.1860207], [127.1010486, 37.1860207], [127.1010486, 37.1860207], [127.10105, 37.1860209], [127.1010507, 37.1860221], [127.1010505, 37.1860221], [127.1010499, 37.1860229], [127.101049, 37.1860237], [127.101049, 37.1860237], [127.1010478, 37.1860249], [127.1010477, 37.1860251], [127.1010478, 37.1860253], [127.1010472, 37.1860254], [127.1010474, 37.1860249], [127.1010474, 37.1860246], [127.1010474, 37.1860246], [127.101048, 37.1860233], [127.1010473, 37.1860242], [127.1010473, 37.1860242], [127.1010473, 37.1860242], [127.1010473, 37.1860242], [127.1010473, 37.1860242], [127.1010473, 37.1860242], [127.1010445, 37.1860318], [127.1010401, 37.1860498], [127.1010293, 37.1860752], [127.1010206, 37.1860926], [127.10101, 37.1861096], [127.1009916, 37.1861333], [127.1009698, 37.1861502], [127.100948, 37.18617], [127.100929, 37.1861931], [127.1009151, 37.1862186], [127.1009033, 37.1862475], [127.1008873, 37.186272], [127.1008709, 37.1862933], [127.1008591, 37.1863095], [127.1008489, 37.1863179], [127.100838, 37.1863211], [127.1008235, 37.1863202], [127.1008117, 37.1863189], [127.1008088, 37.1863178], [127.1008112, 37.1863172], [127.1008121, 37.186317], [127.1008109, 37.1863168], [127.1008122, 37.1863165], [127.1008122, 37.1863161], [127.1008124, 37.1863159], [127.1008127, 37.1863155], [127.1008135, 37.186315], [127.1008134, 37.1863144], [127.1008141, 37.1863146], [127.100814, 37.1863148], [127.1008141, 37.1863155], [127.1008133, 37.1863158], [127.1008133, 37.186316], [127.1008138, 37.1863162], [127.1008139, 37.1863164], [127.1008146, 37.1863165], [127.1008152, 37.1863161], [127.1008152, 37.186316], [127.1008143, 37.1863157], [127.1008144, 37.1863154], [127.1008143, 37.1863155], [127.1008143, 37.1863153], [127.1008144, 37.1863151], [127.1008145, 37.186315], [127.1008141, 37.1863148], [127.1008145, 37.1863143], [127.1008144, 37.1863136], [127.1008138, 37.1863138], [127.1008145, 37.1863138], [127.1008138, 37.1863139], [127.1008145, 37.1863139], [127.1008145, 37.1863139], [127.1008134, 37.1863135], [127.1008138, 37.1863132], [127.1008144, 37.1863132], [127.1008144, 37.1863132], [127.1008138, 37.1863125], [127.1008129, 37.1863122], [127.1008123, 37.1863125], [127.1008134, 37.1863126], [127.1008139, 37.1863121], [127.1008135, 37.1863127], [127.1008136, 37.1863126], [127.1008135, 37.1863126], [127.1008142, 37.1863127], [127.1008142, 37.1863127], [127.1008142, 37.1863127], [127.1008149, 37.186313], [127.1008155, 37.1863132], [127.1008151, 37.1863132], [127.1008157, 37.1863131], [127.1008157, 37.1863131], [127.1008156, 37.1863132], [127.1008156, 37.1863127], [127.1008155, 37.186313], [127.1008161, 37.1863129], [127.1008161, 37.1863129], [127.1008157, 37.1863127], [127.1008155, 37.1863125], [127.1008157, 37.1863126], [127.1008154, 37.1863125], [127.1008148, 37.1863122], [127.1008148, 37.1863121], [127.1008153, 37.1863125], [127.1008159, 37.1863126], [127.1008159, 37.1863126], [127.1008159, 37.1863126], [127.1008159, 37.1863126], [127.1008159, 37.1863126], [127.1008159, 37.1863126], [127.1008159, 37.1863126], [127.1008159, 37.1863126], [127.1008159, 37.1863126], [127.1008159, 37.1863126], [127.1008159, 37.1863126], [127.1008159, 37.1863126], [127.1008159, 37.1863126], [127.1008136, 37.1863134], [127.1008136, 37.1863135], [127.1008143, 37.1863134], [127.1008143, 37.1863134], [127.1008143, 37.1863134], [127.1008143, 37.1863134], [127.1008143, 37.1863134], [127.1008143, 37.1863134], [127.1008143, 37.1863134], [127.1008129, 37.1863143], [127.100813, 37.1863144], [127.1008126, 37.1863143], [127.1008026, 37.1863162], [127.1007805, 37.1863207], [127.1007551, 37.1863262], [127.1007292, 37.1863281], [127.1006985, 37.1863298], [127.1006655, 37.1863325], [127.100631, 37.186336], [127.1005977, 37.1863413], [127.100565, 37.1863461], [127.1005289, 37.1863472], [127.1004912, 37.186347], [127.1004522, 37.1863479], [127.1004133, 37.1863505], [127.1003753, 37.1863526], [127.1003361, 37.1863557], [127.1002964, 37.1863602], [127.1002605, 37.1863707], [127.1002286, 37.1863814], [127.1002031, 37.1863989], [127.1001775, 37.1864124], [127.1001527, 37.1864293], [127.1001224, 37.1864448], [127.1000912, 37.1864652], [127.1000789, 37.1864852], [127.1000841, 37.1865071], [127.1000982, 37.1865227], [127.10011, 37.1865458], [127.1001107, 37.1865647], [127.1001032, 37.1865821], [127.1000915, 37.1865998], [127.1000783, 37.1866193], [127.1000663, 37.1866383], [127.1000577, 37.1866533], [127.1000409, 37.186682], [127.1000285, 37.1867068], [127.1000174, 37.1867338], [127.1000077, 37.1867552], [127.0999954, 37.186775], [127.0999845, 37.1867976], [127.0999785, 37.186821], [127.0999694, 37.1868402], [127.0999578, 37.186865], [127.0999466, 37.186886], [127.0999367, 37.1869054], [127.0999235, 37.1869251], [127.0999122, 37.1869439], [127.0998987, 37.1869647], [127.0998883, 37.1869873], [127.0998803, 37.18701], [127.0998692, 37.1870342], [127.0998592, 37.1870557], [127.0998462, 37.1870799], [127.0998334, 37.1871031], [127.0998236, 37.1871251], [127.0998106, 37.1871517], [127.0997978, 37.1871767], [127.0997853, 37.1872006], [127.0997738, 37.1872249], [127.0997629, 37.1872481], [127.099753, 37.1872669], [127.0997417, 37.1872938], [127.0997322, 37.1873177], [127.0997217, 37.1873413], [127.0997116, 37.1873674], [127.0997012, 37.1873925], [127.0996905, 37.1874219], [127.0996758, 37.1874504], [127.0996669, 37.1874711], [127.0996543, 37.1874982], [127.099646, 37.1875279], [127.0996398, 37.1875589], [127.0996383, 37.1875827], [127.0996366, 37.1876111], [127.0996327, 37.1876384], [127.0996263, 37.1876633], [127.0996156, 37.1876873], [127.0996052, 37.1877152], [127.0995915, 37.1877422], [127.0995804, 37.187763], [127.0995675, 37.1877907], [127.0995577, 37.1878172], [127.0995373, 37.1878475], [127.0995285, 37.1878694], [127.0995155, 37.1878957], [127.0995118, 37.1879174], [127.0994939, 37.1879475], [127.0994843, 37.1879683], [127.0994687, 37.1879953], [127.099461, 37.188022], [127.0994566, 37.1880343], [127.0994553, 37.188039], [127.0994517, 37.1880593], [127.0994326, 37.1880753], [127.0994109, 37.1880983], [127.0993971, 37.1881174], [127.0993906, 37.1881439], [127.0993834, 37.1881746], [127.0993722, 37.1882042], [127.0993608, 37.1882294], [127.0993493, 37.1882506], [127.0993353, 37.1882752], [127.0993244, 37.1883027], [127.0993112, 37.1883312], [127.0992971, 37.1883591], [127.0992851, 37.1883846], [127.0992729, 37.188414], [127.0992601, 37.1884434], [127.099244, 37.1884687], [127.0992343, 37.188495], [127.0992221, 37.1885258], [127.0992076, 37.1885525], [127.0991948, 37.1885777], [127.099183, 37.1886047], [127.0991691, 37.1886267], [127.0991589, 37.1886577], [127.0991484, 37.1886834], [127.0991363, 37.1887048], [127.0991243, 37.1887315], [127.0991113, 37.1887549], [127.0990996, 37.1887816], [127.0990878, 37.1888102], [127.099075, 37.1888332], [127.0990598, 37.1888642], [127.0990469, 37.1888903], [127.0990315, 37.1889134], [127.099018, 37.1889357], [127.0990129, 37.1889536], [127.0989973, 37.1889844], [127.0989864, 37.1890138], [127.0989758, 37.1890403], [127.0989651, 37.1890695], [127.0989534, 37.1890939], [127.0989393, 37.1891236], [127.0989282, 37.189147], [127.0989171, 37.1891725], [127.0989048, 37.1891982], [127.0988971, 37.1892293], [127.0988872, 37.1892511], [127.0988759, 37.1892776], [127.0988656, 37.1893047], [127.0988556, 37.1893284], [127.0988473, 37.1893552], [127.0988378, 37.18938], [127.0988239, 37.1894037], [127.0988135, 37.1894299], [127.0988035, 37.1894563], [127.0987959, 37.1894804], [127.0987851, 37.1894987], [127.0987763, 37.1895172], [127.0987703, 37.1895306], [127.0987688, 37.1895388], [127.0987723, 37.1895418], [127.0987707, 37.1895417], [127.0987708, 37.1895435], [127.0987704, 37.1895423], [127.0987704, 37.1895418], [127.0987704, 37.1895438], [127.0987703, 37.1895434], [127.0987693, 37.1895421], [127.0987692, 37.1895418], [127.0987692, 37.1895418], [127.0987718, 37.1895427], [127.0987719, 37.189542], [127.0987718, 37.1895418], [127.0987718, 37.1895418], [127.0987718, 37.1895418], [127.0987718, 37.1895418], [127.0987718, 37.1895418], [127.0987718, 37.1895418], [127.0987718, 37.1895418], [127.0987718, 37.1895418], [127.0987718, 37.1895418], [127.0987718, 37.1895418], [127.0987718, 37.1895418], [127.0987718, 37.1895418], [127.0987718, 37.1895418], [127.0987718, 37.1895418], [127.0987718, 37.1895418], [127.0987718, 37.1895418], [127.0987718, 37.1895418], [127.0987718, 37.1895418], [127.0987718, 37.1895418], [127.0987718, 37.1895418], [127.0987718, 37.1895418], [127.0987718, 37.1895418], [127.0987718, 37.1895418], [127.0987718, 37.1895418], [127.0987718, 37.1895418], [127.0987718, 37.1895418], [127.0987718, 37.1895418], [127.0987718, 37.1895418], [127.0987718, 37.1895418], [127.0987718, 37.1895418], [127.0987718, 37.1895418], [127.0987718, 37.1895418], [127.0987718, 37.1895418], [127.0987718, 37.1895418], [127.0987718, 37.1895418], [127.0987696, 37.189541], [127.0987696, 37.189541], [127.0987696, 37.189541], [127.0987711, 37.1895409], [127.0987698, 37.1895394], [127.0987706, 37.1895394], [127.0987706, 37.1895394], [127.0987706, 37.1895394], [127.0987706, 37.1895394], [127.0987706, 37.1895394], [127.0987706, 37.1895394], [127.0987706, 37.1895394], [127.0987706, 37.1895394], [127.0987706, 37.1895394], [127.0987706, 37.1895394], [127.0987706, 37.1895394], [127.0987706, 37.1895394], [127.0987706, 37.1895394], [127.0987706, 37.1895394], [127.0987706, 37.1895394], [127.0987706, 37.1895394], [127.0987706, 37.1895394], [127.0987706, 37.1895394], [127.0987706, 37.1895394], [127.0987706, 37.1895394], [127.0987706, 37.1895394], [127.0987706, 37.1895394], [127.0987706, 37.1895394], [127.0987706, 37.1895394], [127.0987706, 37.1895394], [127.0987706, 37.1895394], [127.0987706, 37.1895394], [127.0987706, 37.1895394], [127.0987706, 37.1895394], [127.0987706, 37.1895394], [127.0987706, 37.1895394], [127.0987706, 37.1895394], [127.0987706, 37.1895394], [127.0987706, 37.1895394], [127.0987706, 37.1895394], [127.0987706, 37.1895394], [127.0987706, 37.1895394], [127.0987706, 37.1895394], [127.0987706, 37.1895394], [127.0987706, 37.1895394], [127.0987706, 37.1895394], [127.0987706, 37.1895394], [127.0987706, 37.1895394], [127.0987763, 37.1895413], [127.0987763, 37.189542], [127.098777, 37.1895437], [127.098777, 37.1895452], [127.0987775, 37.1895437], [127.0987775, 37.1895437], [127.0987775, 37.1895437], [127.0987779, 37.1895455], [127.0987779, 37.1895453], [127.0987779, 37.1895453], [127.0987779, 37.1895453], [127.0987779, 37.1895453], [127.0987779, 37.1895453], [127.0987779, 37.1895453], [127.0987779, 37.1895453], [127.0987779, 37.1895453], [127.0987752, 37.1895524], [127.098767, 37.1895679], [127.0987601, 37.1895848], [127.098747, 37.1896085], [127.0987369, 37.1896307], [127.0987282, 37.1896529], [127.0987177, 37.1896744], [127.0987075, 37.1896968], [127.0987011, 37.1897184], [127.0986956, 37.1897389], [127.0986832, 37.1897575], [127.0986619, 37.1897685], [127.0986458, 37.1897844], [127.0986473, 37.1898046], [127.0986621, 37.1898255], [127.0986737, 37.1898519], [127.0986775, 37.1898603], [127.0986769, 37.1898881], [127.0986687, 37.1899066], [127.0986573, 37.1899255], [127.0986555, 37.1899443], [127.0986496, 37.1899633], [127.098644, 37.18998], [127.0986381, 37.1899993], [127.098636, 37.1900151], [127.0986441, 37.1900314], [127.0986373, 37.1900526], [127.0986337, 37.1900692], [127.0986253, 37.1900895], [127.0986253, 37.1901055], [127.0986201, 37.1901241], [127.0986123, 37.1901434], [127.0986205, 37.1901599], [127.0986067, 37.1901795], [127.0986014, 37.1901989], [127.0985973, 37.190217], [127.0985829, 37.190234], [127.0985752, 37.1902449], [127.0985671, 37.1902642], [127.0985573, 37.190282], [127.0985533, 37.1903009], [127.098546, 37.1903213], [127.0985455, 37.1903406], [127.0985434, 37.190364], [127.0985431, 37.1903833], [127.0985439, 37.190402], [127.09854, 37.1904212], [127.0985321, 37.1904402], [127.0985245, 37.1904567], [127.0985182, 37.190478], [127.098517, 37.1905014], [127.0985197, 37.190522], [127.0985199, 37.1905439], [127.0985186, 37.1905665], [127.0985158, 37.1905886], [127.0985153, 37.1906063], [127.0985147, 37.1906286], [127.0985181, 37.1906474], [127.0985163, 37.1906726], [127.0985065, 37.1906939], [127.0984975, 37.1907135], [127.0985003, 37.190738], [127.098494, 37.1907587], [127.0984916, 37.1907801], [127.0984885, 37.1908014], [127.0984895, 37.1908232], [127.0984893, 37.1908457], [127.0984896, 37.1908654], [127.0984785, 37.1908809], [127.0984819, 37.1909018], [127.0984847, 37.1909233], [127.0984806, 37.1909442], [127.0984833, 37.1909697], [127.0984916, 37.1909864], [127.0985047, 37.1910087], [127.0985126, 37.1910286], [127.0985269, 37.1910479], [127.0985306, 37.19107], [127.0985333, 37.191094], [127.0985395, 37.1911159], [127.098537, 37.1911389], [127.0985392, 37.1911622], [127.0985375, 37.1911857], [127.098541, 37.1912065], [127.0985475, 37.1912328], [127.0985487, 37.19125], [127.0985466, 37.1912749], [127.098549, 37.1912979], [127.0985479, 37.1913193], [127.098544, 37.1913426], [127.0985308, 37.1913706], [127.0985366, 37.1913943], [127.098545, 37.1914159], [127.0985433, 37.191442], [127.0985453, 37.191469], [127.0985428, 37.1914915], [127.0985416, 37.1915185], [127.0985466, 37.191541], [127.0985429, 37.1915674], [127.0985407, 37.1915922], [127.0985427, 37.1916154], [127.0985434, 37.19164], [127.0985444, 37.1916659], [127.0985478, 37.1916857], [127.0985577, 37.1917105], [127.0985505, 37.1917348], [127.098544, 37.1917566], [127.0985437, 37.1917849], [127.0985418, 37.1918088], [127.0985443, 37.1918335], [127.0985422, 37.1918577], [127.0985414, 37.1918803], [127.0985381, 37.1919077], [127.0985364, 37.191931], [127.0985334, 37.191953], [127.0985267, 37.1919755], [127.0985212, 37.192002], [127.0985227, 37.1920245], [127.0985238, 37.1920502], [127.0985224, 37.192075], [127.0985214, 37.1921006], [127.0985212, 37.1921266], [127.0985174, 37.1921489], [127.0985162, 37.1921769], [127.0985168, 37.1921997], [127.098516, 37.1922237], [127.0985155, 37.1922524], [127.0985151, 37.192276], [127.0985137, 37.1923051], [127.0985121, 37.1923319], [127.0985146, 37.1923579], [127.0985151, 37.1923829], [127.0985124, 37.1924109], [127.0985144, 37.192434], [127.0985159, 37.1924629], [127.0985184, 37.1924869], [127.0985271, 37.1925071], [127.0985177, 37.1925375], [127.0985192, 37.1925638], [127.0985136, 37.192589], [127.0985096, 37.1926169], [127.0985118, 37.1926421], [127.0985114, 37.1926686], [127.0985113, 37.1926945], [127.0985087, 37.1927213], [127.0985102, 37.1927469], [127.0985129, 37.192773], [127.0985108, 37.1927967], [127.0985149, 37.1928227], [127.098516, 37.19285], [127.0985127, 37.1928786], [127.0985102, 37.1929071], [127.0985077, 37.1929329], [127.0985023, 37.1929585], [127.0985025, 37.1929853], [127.0984997, 37.1930158], [127.098501, 37.1930411], [127.0985027, 37.1930683], [127.0985038, 37.1930971], [127.0985059, 37.1931195], [127.0985179, 37.1931427], [127.0985194, 37.1931683], [127.0985164, 37.1931938], [127.0985138, 37.1932195], [127.0985134, 37.1932469], [127.0985123, 37.1932762], [127.0985081, 37.1933038], [127.0985037, 37.1933305], [127.098501, 37.1933532], [127.0984995, 37.1933767], [127.0984981, 37.1933989], [127.0984995, 37.1934234], [127.098501, 37.1934462], [127.0984948, 37.1934708], [127.0984958, 37.1934928], [127.0984993, 37.1935188], [127.0985025, 37.1935444], [127.098501, 37.1935686], [127.0984964, 37.1935938], [127.0984957, 37.1936204], [127.0984966, 37.1936465], [127.0984962, 37.1936725], [127.0984993, 37.1936984], [127.0985017, 37.1937254], [127.0985078, 37.1937507], [127.0985133, 37.1937788], [127.0985133, 37.1938003], [127.0985139, 37.1938314], [127.0985135, 37.1938556], [127.0985117, 37.1938836], [127.0985111, 37.1939095], [127.098511, 37.1939308], [127.0985102, 37.1939568], [127.0985081, 37.1939812], [127.0985011, 37.1940026], [127.0984914, 37.1940256], [127.0984796, 37.1940473], [127.0984775, 37.1940683], [127.0984793, 37.1940922], [127.0984807, 37.1941153], [127.0984784, 37.194134], [127.0984751, 37.1941541], [127.0984832, 37.1941732], [127.0984945, 37.1941992], [127.0984975, 37.1942222], [127.0985002, 37.1942458], [127.0985014, 37.1942722], [127.0985006, 37.1942956], [127.0985007, 37.1943212], [127.0985029, 37.1943452], [127.098504, 37.1943712], [127.0984997, 37.1943936], [127.0985004, 37.1944178], [127.0984953, 37.1944391], [127.0984946, 37.1944638], [127.0984975, 37.1944877], [127.0984998, 37.1945128], [127.0985136, 37.1945294], [127.0985274, 37.1945534], [127.0985312, 37.194573], [127.09853, 37.1945934], [127.0985273, 37.1946087], [127.0985263, 37.1946276], [127.0985269, 37.1946474], [127.0985237, 37.1946661], [127.0985233, 37.1946885], [127.0985254, 37.194714], [127.09852, 37.1947379], [127.0985201, 37.1947618], [127.0985237, 37.1947844], [127.0985272, 37.1948021], [127.0985359, 37.1948192], [127.0985393, 37.1948432], [127.0985362, 37.1948683], [127.0985324, 37.1948937], [127.0985368, 37.1949156], [127.0985436, 37.1949377], [127.0985487, 37.1949581], [127.0985556, 37.1949792], [127.0985585, 37.1949991], [127.0985598, 37.195022], [127.0985623, 37.1950419], [127.098566, 37.1950621], [127.0985673, 37.1950929], [127.0985645, 37.1951148], [127.0985668, 37.1951368], [127.0985675, 37.195161], [127.0985684, 37.1951826], [127.0985689, 37.1952007], [127.0985669, 37.1952227], [127.098565, 37.195248], [127.0985617, 37.1952715], [127.0985592, 37.1952955], [127.0985535, 37.1953164], [127.0985563, 37.1953259], [127.0985569, 37.1953493], [127.0985489, 37.1953662], [127.0985381, 37.1953829], [127.0985308, 37.1953986], [127.0985205, 37.1954178], [127.0985105, 37.1954299], [127.0985055, 37.1954539], [127.0985089, 37.1954748], [127.0985109, 37.1954961], [127.0985113, 37.1955209], [127.0985123, 37.1955467], [127.0985136, 37.1955663], [127.0985179, 37.1955846], [127.0985223, 37.1956073], [127.0985225, 37.1956279], [127.0985229, 37.1956468], [127.0985221, 37.1956697], [127.0985221, 37.1956927], [127.0985239, 37.1957153], [127.098529, 37.1957354], [127.0985269, 37.1957567], [127.0985204, 37.1957811], [127.0985198, 37.1958052], [127.098518, 37.19583], [127.098511, 37.1958592], [127.0985062, 37.1958819], [127.0985014, 37.1959056], [127.0985007, 37.1959277], [127.098498, 37.1959504], [127.0984922, 37.1959756], [127.0984889, 37.1960006], [127.0984873, 37.1960246], [127.0984839, 37.196049], [127.0984818, 37.19607], [127.0984729, 37.1960921], [127.0984663, 37.1961165], [127.0984647, 37.1961392], [127.0984712, 37.1961605], [127.0984762, 37.1961838], [127.098476, 37.1962102], [127.0984745, 37.1962373], [127.0984737, 37.1962623], [127.098474, 37.1962879], [127.0984738, 37.196312], [127.0984759, 37.196337], [127.0984814, 37.1963622], [127.0984813, 37.1963857], [127.0984797, 37.196412], [127.0984742, 37.1964313], [127.0984737, 37.1964567], [127.0984804, 37.1964794], [127.0984839, 37.1965071], [127.0984859, 37.1965321], [127.0984858, 37.1965561], [127.0984867, 37.1965787], [127.0984867, 37.1966037], [127.0984804, 37.196626], [127.0984747, 37.1966466], [127.0984761, 37.1966677], [127.0984761, 37.1966889], [127.0984741, 37.1967105], [127.0984767, 37.1967305], [127.098478, 37.1967507], [127.0984758, 37.1967689], [127.0984763, 37.1967864], [127.0984763, 37.1968043], [127.0984758, 37.1968226], [127.0984782, 37.1968364], [127.0984842, 37.1968447], [127.0984924, 37.1968487], [127.0984935, 37.1968479], [127.0984925, 37.1968462], [127.0984945, 37.1968453], [127.0984942, 37.196845], [127.0984974, 37.1968443], [127.0984963, 37.1968452], [127.0984961, 37.196845], [127.0984961, 37.196845], [127.0984961, 37.196845], [127.0984961, 37.196845], [127.0984961, 37.196845], [127.0984961, 37.196845], [127.0984961, 37.196845], [127.0984961, 37.196845], [127.0984961, 37.196845], [127.0984961, 37.196845], [127.0984961, 37.196845], [127.0984961, 37.196845], [127.0984961, 37.196845], [127.0984961, 37.196845], [127.0984961, 37.196845], [127.0984961, 37.196845], [127.0984961, 37.196845], [127.0984961, 37.196845], [127.0984961, 37.196845], [127.0984961, 37.196845], [127.0984961, 37.196845], [127.0984961, 37.196845], [127.0984961, 37.196845], [127.0984961, 37.196845], [127.0984961, 37.196845], [127.0984961, 37.196845], [127.0984961, 37.196845], [127.0984961, 37.196845], [127.0984961, 37.196845], [127.0984961, 37.196845], [127.0984961, 37.196845], [127.0984961, 37.196845], [127.0984961, 37.196845], [127.0984961, 37.196845], [127.0984961, 37.196845], [127.0984961, 37.196845], [127.0984961, 37.196845], [127.0984961, 37.196845], [127.0984961, 37.196845], [127.0984961, 37.196845], [127.0985196, 37.1968481], [127.0985194, 37.196848], [127.0985194, 37.196848], [127.0985194, 37.196848], [127.0985194, 37.196848], [127.0985194, 37.196848], [127.0985194, 37.196848], [127.0985194, 37.196848], [127.0985194, 37.196848], [127.0985194, 37.196848], [127.0985194, 37.196848], [127.0985194, 37.196848], [127.0985194, 37.196848], [127.0985194, 37.196848], [127.0985194, 37.196848], [127.0985194, 37.196848], [127.0985194, 37.196848], [127.0985194, 37.196848], [127.0985194, 37.196848], [127.0985194, 37.196848], [127.0985194, 37.196848], [127.0985194, 37.196848], [127.0985194, 37.196848], [127.0985194, 37.196848], [127.0985194, 37.196848], [127.0985194, 37.196848], [127.0985194, 37.196848], [127.0985194, 37.196848], [127.0985194, 37.196848], [127.0985194, 37.196848], [127.0985194, 37.196848], [127.0985268, 37.1968395], [127.098534, 37.1968548], [127.0985423, 37.1968744], [127.0985428, 37.1968969], [127.0985426, 37.1969213], [127.0985408, 37.1969478], [127.0985407, 37.1969758], [127.0985375, 37.1969992], [127.098537, 37.1970157], [127.0985388, 37.1970311], [127.0985458, 37.1970493], [127.0985552, 37.197069], [127.098562, 37.197084], [127.0985671, 37.1971054], [127.0985684, 37.1971284], [127.0985677, 37.1971548], [127.0985659, 37.1971756], [127.0985647, 37.1971978], [127.0985689, 37.1972204], [127.0985709, 37.1972493], [127.0985681, 37.1972771], [127.0985685, 37.1973016], [127.0985626, 37.1973316], [127.0985664, 37.1973569], [127.0985735, 37.197381], [127.0985694, 37.1974077], [127.098568, 37.1974336], [127.0985699, 37.1974543], [127.0985706, 37.1974716], [127.0985813, 37.1974884], [127.0985839, 37.1975111], [127.0985873, 37.1975286], [127.0985746, 37.197554], [127.0985782, 37.1975782], [127.0985806, 37.1976065], [127.0985822, 37.1976293], [127.09858, 37.1976544], [127.0985831, 37.1976755], [127.0985832, 37.1977006], [127.0985857, 37.1977231], [127.0985835, 37.1977503], [127.0985926, 37.1977763], [127.0985804, 37.197804], [127.0985819, 37.1978276], [127.0985857, 37.1978529], [127.0985902, 37.1978774], [127.0985919, 37.1979014], [127.0985819, 37.197929], [127.0985838, 37.1979454], [127.0985839, 37.1979768], [127.0985871, 37.1979993], [127.0985848, 37.1980234], [127.098577, 37.1980523], [127.0985728, 37.1980766], [127.0985678, 37.1981011], [127.098564, 37.1981221], [127.0985668, 37.1981455], [127.0985677, 37.1981685], [127.098563, 37.1981953], [127.0985538, 37.1982178], [127.09854, 37.1982382], [127.0985251, 37.1982565], [127.0985178, 37.1982738], [127.0985147, 37.1982882], [127.098514, 37.1982987], [127.0985149, 37.1983053], [127.0985142, 37.1983018], [127.0985145, 37.1982999], [127.0985141, 37.1983009], [127.0985131, 37.1983015], [127.098513, 37.1983013], [127.098513, 37.1983013], [127.0985166, 37.1983007], [127.098516, 37.1983005], [127.0985159, 37.1983011], [127.098515, 37.1983018], [127.0985151, 37.1983017], [127.0985151, 37.1983017], [127.0985151, 37.1983017], [127.098516, 37.1983013], [127.098516, 37.1983013], [127.098516, 37.1983013], [127.098516, 37.1983013], [127.0985174, 37.1983029], [127.0985174, 37.1983028], [127.0985178, 37.1983028], [127.0985178, 37.1983028], [127.0985178, 37.1983028], [127.0985178, 37.1983028], [127.0985178, 37.1983028], [127.0985178, 37.1983028], [127.0985178, 37.1983028], [127.098519, 37.198307], [127.0985194, 37.1983073], [127.0985194, 37.1983073], [127.0985194, 37.1983073], [127.0985194, 37.1983073], [127.0985194, 37.1983073], [127.0985194, 37.1983073], [127.0985194, 37.1983073], [127.0985194, 37.1983073], [127.0985194, 37.1983073], [127.0985194, 37.1983073], [127.0985194, 37.1983073], [127.0985194, 37.1983073], [127.0985194, 37.1983073], [127.0985194, 37.1983073], [127.0985194, 37.1983073], [127.0985194, 37.1983073], [127.0985194, 37.1983073], [127.0985194, 37.1983073], [127.0985194, 37.1983073], [127.0985194, 37.1983073], [127.0985194, 37.1983073], [127.0985194, 37.1983073], [127.0985194, 37.1983073], [127.0985194, 37.1983073], [127.0985194, 37.1983073], [127.0985194, 37.1983073], [127.0985194, 37.1983073], [127.0985194, 37.1983073], [127.0985194, 37.1983073], [127.0985194, 37.1983073], [127.0985194, 37.1983073], [127.0985194, 37.1983073], [127.0985194, 37.1983073], [127.0985243, 37.1983044], [127.098524, 37.1983044], [127.098524, 37.1983044], [127.098524, 37.1983044], [127.0985241, 37.1983057], [127.0985241, 37.1983057], [127.0985241, 37.1983057], [127.0985241, 37.1983057], [127.0985249, 37.1983077], [127.098525, 37.1983076], [127.098525, 37.1983076], [127.098525, 37.1983076], [127.098525, 37.1983076], [127.098525, 37.1983076], [127.098525, 37.1983076], [127.098525, 37.1983076], [127.098525, 37.1983076], [127.098525, 37.1983076], [127.098525, 37.1983076], [127.098525, 37.1983076], [127.098525, 37.1983076], [127.098525, 37.1983076], [127.098525, 37.1983076], [127.098525, 37.198311], [127.0985251, 37.1983108], [127.0985251, 37.1983108], [127.0985251, 37.1983108], [127.0985251, 37.1983108], [127.0985251, 37.1983108], [127.0985251, 37.1983108], [127.0985251, 37.1983108], [127.0985251, 37.1983108], [127.0985251, 37.1983108], [127.0985251, 37.1983108], [127.0985251, 37.1983108], [127.0985251, 37.1983108], [127.0985251, 37.1983108], [127.0985251, 37.1983108], [127.0985251, 37.1983108], [127.0985251, 37.1983108], [127.0985251, 37.1983108], [127.0985251, 37.1983108], [127.0985251, 37.1983108], [127.0985251, 37.1983108], [127.0985251, 37.1983108], [127.0985251, 37.1983108], [127.0985251, 37.1983108], [127.0985251, 37.1983108], [127.0985251, 37.1983108], [127.0985251, 37.1983108], [127.0985251, 37.1983108], [127.0985251, 37.1983108], [127.0985251, 37.1983108], [127.0985251, 37.1983108], [127.0985251, 37.1983108], [127.0985251, 37.1983108], [127.0985251, 37.1983108], [127.0985251, 37.1983108], [127.0985251, 37.1983108], [127.0985251, 37.1983108], [127.0985251, 37.1983108], [127.0985251, 37.1983108], [127.0985251, 37.1983108], [127.0985251, 37.1983108], [127.0985251, 37.1983108], [127.0985251, 37.1983108], [127.0985251, 37.1983108], [127.0985251, 37.1983108], [127.0985251, 37.1983108], [127.0985251, 37.1983108], [127.0985251, 37.1983108], [127.0985251, 37.1983108], [127.0985184, 37.1983064], [127.0985211, 37.1983214], [127.0985241, 37.1983434], [127.0985242, 37.1983672], [127.0985236, 37.1983939], [127.0985237, 37.1984204], [127.0985225, 37.1984475], [127.0985214, 37.1984759], [127.0985212, 37.1985031], [127.098522, 37.1985293], [127.0985231, 37.1985569], [127.0985208, 37.1985844], [127.0985221, 37.198613], [127.0985174, 37.1986402], [127.0985105, 37.1986641], [127.0985047, 37.1986946], [127.0985004, 37.1987132], [127.0985113, 37.1987341], [127.0985069, 37.1987627], [127.098509, 37.1987895], [127.0985125, 37.1988144], [127.0985029, 37.198844], [127.0985095, 37.1988669], [127.0985078, 37.1988969], [127.0985089, 37.1989214], [127.0985138, 37.1989457], [127.0985105, 37.1989734], [127.0985152, 37.1989967], [127.0985152, 37.1990225], [127.0985136, 37.1990497], [127.0985058, 37.1990818], [127.0985011, 37.1991073], [127.0984831, 37.1991353], [127.0984943, 37.1991583], [127.0984969, 37.1991795], [127.0984967, 37.1991975], [127.098493, 37.1992212], [127.0984951, 37.1992495], [127.0984941, 37.1992776], [127.0984894, 37.1993069], [127.0984879, 37.1993347], [127.0984847, 37.1993613], [127.0984875, 37.1993839], [127.0984851, 37.1994095], [127.0984841, 37.1994385], [127.0984717, 37.1994688], [127.0984634, 37.1994915], [127.0984595, 37.1995195], [127.0984566, 37.1995474], [127.0984557, 37.1995757], [127.098457, 37.199603], [127.0984584, 37.1996312], [127.098459, 37.1996572], [127.0984612, 37.1996833], [127.0984626, 37.1997089], [127.0984605, 37.199736], [127.0984612, 37.1997636], [127.0984627, 37.1997889], [127.098461, 37.1998156], [127.0984575, 37.1998451], [127.0984601, 37.1998719], [127.0984605, 37.1998991], [127.09846, 37.1999285], [127.0984614, 37.1999582], [127.0984656, 37.199986], [127.0984748, 37.2000141], [127.0984841, 37.2000406], [127.09849, 37.2000696], [127.0984931, 37.2000975], [127.0984945, 37.2001277], [127.0984946, 37.2001558], [127.0984954, 37.2001843], [127.0984958, 37.2002137], [127.0984925, 37.2002427], [127.0984908, 37.2002697], [127.0984902, 37.200298], [127.0984887, 37.2003254], [127.0984847, 37.2003494], [127.0984884, 37.2003762], [127.0984938, 37.2004015], [127.0984969, 37.2004272], [127.0984976, 37.2004568], [127.0985004, 37.2004849], [127.0984954, 37.200516], [127.0984951, 37.2005434], [127.0984978, 37.2005656], [127.0985004, 37.2005947], [127.0985025, 37.2006191], [127.0985019, 37.2006477], [127.0985017, 37.2006746], [127.0984991, 37.2007021], [127.0984999, 37.2007289], [127.0985082, 37.2007514], [127.0985055, 37.2007805], [127.0985091, 37.2008012], [127.0985105, 37.2008256], [127.0985169, 37.2008436], [127.0985234, 37.2008555], [127.0985255, 37.2008608], [127.0985213, 37.2008565], [127.0985199, 37.2008582], [127.0985188, 37.2008583], [127.0985188, 37.2008582], [127.0985188, 37.2008582], [127.0985188, 37.2008582], [127.0985172, 37.2008602], [127.0985166, 37.2008611], [127.0985157, 37.2008607], [127.0985139, 37.2008592], [127.098513, 37.2008583], [127.0985115, 37.2008607], [127.0985104, 37.2008681], [127.098509, 37.2008752], [127.0984981, 37.2008755], [127.098491, 37.2008769], [127.0984926, 37.2008844], [127.0984855, 37.2008968], [127.0984714, 37.2009125], [127.0984626, 37.2009297], [127.098452, 37.2009442], [127.0984423, 37.2009637], [127.0984328, 37.2009836], [127.098422, 37.2010019], [127.0984131, 37.2010205], [127.0983997, 37.2010321], [127.0983856, 37.2010509], [127.0983736, 37.2010697], [127.0983619, 37.201089], [127.0983491, 37.201109], [127.0983352, 37.2011298], [127.0983183, 37.2011492], [127.0982995, 37.2011652], [127.0982832, 37.201181], [127.0982661, 37.2011933], [127.0982478, 37.2012028], [127.0982289, 37.2012111], [127.0982072, 37.2012156], [127.0981875, 37.2012167], [127.0981787, 37.2012144], [127.0981789, 37.2012136], [127.0981785, 37.2012133], [127.0981788, 37.2012121], [127.0981793, 37.201212], [127.0981793, 37.201212], [127.0981793, 37.201212], [127.0981721, 37.2012166], [127.0981607, 37.2012136], [127.0981512, 37.2012108], [127.0981423, 37.2012114], [127.0981336, 37.2012165], [127.098122, 37.2012202], [127.0981094, 37.201218], [127.098091, 37.2012188], [127.0980746, 37.2012175], [127.0980547, 37.2012202], [127.0980341, 37.2012221], [127.0980149, 37.2012238], [127.0979896, 37.2012249], [127.0979647, 37.2012262], [127.0979396, 37.2012271], [127.0979158, 37.2012306], [127.097892, 37.2012313], [127.0978728, 37.201229], [127.0978534, 37.2012322], [127.097829, 37.201234], [127.0978014, 37.2012359], [127.0977755, 37.2012343], [127.0977496, 37.201236], [127.0977212, 37.2012377], [127.0976933, 37.201238], [127.0976658, 37.2012391], [127.0976398, 37.2012393], [127.0975977, 37.2012429], [127.0975588, 37.2012408], [127.0975257, 37.2012369], [127.0974991, 37.2012359], [127.0974741, 37.2012354], [127.0974477, 37.2012382], [127.0974182, 37.2012389], [127.0973884, 37.2012405], [127.0973595, 37.2012417], [127.0973285, 37.2012412], [127.0973008, 37.2012411], [127.0972726, 37.2012433], [127.0972468, 37.2012455], [127.0972221, 37.201249], [127.0971987, 37.2012541], [127.097176, 37.2012629], [127.0971502, 37.2012749], [127.0971254, 37.2012898], [127.0971014, 37.2013009], [127.0970738, 37.2013049], [127.0970444, 37.201304], [127.0970148, 37.2012966], [127.0969916, 37.2012926], [127.09698, 37.201289], [127.0969751, 37.2012872], [127.0969622, 37.2012866], [127.0969432, 37.2012797], [127.0969193, 37.2012689], [127.0968924, 37.2012528], [127.0968677, 37.2012371], [127.0968403, 37.2012289], [127.0968099, 37.2012305], [127.0967795, 37.201233], [127.096746, 37.2012385], [127.0967166, 37.2012402], [127.0966868, 37.2012395], [127.0966595, 37.2012388], [127.0966244, 37.2012339], [127.0965938, 37.2012321], [127.0965629, 37.2012312], [127.0965361, 37.2012266], [127.0965114, 37.2012218], [127.0964961, 37.2012146], [127.0964892, 37.2011998], [127.0964885, 37.2011774], [127.0964896, 37.2011499], [127.0965002, 37.2011278], [127.0965059, 37.2011089], [127.0965126, 37.2010913], [127.0965169, 37.2010745], [127.0965188, 37.2010591], [127.0965188, 37.201039], [127.0965176, 37.2010185], [127.0965115, 37.2009969], [127.0965071, 37.2009734], [127.0965015, 37.2009483], [127.0964977, 37.2009239], [127.0965012, 37.2008981], [127.09651, 37.2008786], [127.0965077, 37.2008497], [127.096506, 37.2008252], [127.0965029, 37.2008002], [127.0965075, 37.2007988], [127.0965191, 37.2007712], [127.0965208, 37.2007481], [127.0965132, 37.2007237], [127.0964741, 37.2007219], [127.09646, 37.2006963], [127.0964488, 37.2006752], [127.0964512, 37.2006515], [127.0964477, 37.200621], [127.0964509, 37.2005969], [127.0964494, 37.20057], [127.0964508, 37.2005459], [127.0964511, 37.2005346], [127.0964474, 37.2005353], [127.0964247, 37.2005308], [127.0964306, 37.2005346], [127.0964327, 37.2005376], [127.0964288, 37.2005348], [127.0964298, 37.2005368], [127.0964286, 37.2005359], [127.0964289, 37.2005375], [127.0964286, 37.200536], [127.0964268, 37.2005358], [127.096425, 37.2005333]]}}]}