{"type": "FeatureCollection", "features": [{"type": "Feature", "properties": {"name": "R2D Dongtan 2026-08-09", "distance_km": 2.44, "gps_accuracy_median_m": 14.25}, "geometry": {"type": "LineString", "coordinates": [[127.104377, 37.1848735], [127.104377, 37.1848735], [127.104378, 37.1848755], [127.1043776, 37.1848766], [127.1043781, 37.1848784], [127.1043789, 37.1848837], [127.1043792, 37.1848865], [127.1043794, 37.184888], [127.1043786, 37.1848854], [127.1043756, 37.1848791], [127.1043758, 37.1848708], [127.1043834, 37.184857], [127.1043792, 37.1848539], [127.1043716, 37.1848395], [127.1043661, 37.1847993], [127.1043574, 37.1847959], [127.1043522, 37.1847921], [127.104353, 37.1847918], [127.1043497, 37.1847877], [127.1043464, 37.1847836], [127.1043531, 37.1847831], [127.1043526, 37.1847813], [127.1043564, 37.1847791], [127.1043564, 37.1847791], [127.1043564, 37.1847791], [127.1043564, 37.1847791], [127.1043564, 37.1847791], [127.1043564, 37.1847791], [127.104353, 37.184757], [127.1043531, 37.184757], [127.104345, 37.1847565], [127.1043467, 37.184764], [127.1043397, 37.1847719], [127.1043351, 37.1847783], [127.1043245, 37.1847848], [127.1043217, 37.1847893], [127.1043215, 37.1847894], [127.1043177, 37.1847897], [127.1043177, 37.1847897], [127.1043177, 37.1847897], [127.1043177, 37.1847897], [127.1043177, 37.1847897], [127.1043177, 37.1847897], [127.1043177, 37.1847897], [127.1043177, 37.1847897], [127.1043177, 37.1847897], [127.1043177, 37.1847897], [127.1043177, 37.1847897], [127.1043185, 37.1848152], [127.1043163, 37.184814], [127.1043163, 37.1848168], [127.1043145, 37.1848185], [127.1043138, 37.1848156], [127.1043108, 37.1848139], [127.1043108, 37.1848139], [127.1043108, 37.1848139], [127.1043108, 37.1848139], [127.1043084, 37.1848063], [127.1043049, 37.184804], [127.104302, 37.1848069], [127.1043, 37.184811], [127.1042931, 37.1848113], [127.1042814, 37.1848163], [127.1042639, 37.1848193], [127.1042458, 37.1848242], [127.1042257, 37.184825], [127.1042066, 37.1848396], [127.1041807, 37.1848546], [127.1041565, 37.18487], [127.1041354, 37.1848912], [127.1041144, 37.1849082], [127.1040958, 37.1849158], [127.1040791, 37.1849246], [127.1040445, 37.1849311], [127.1040208, 37.1849476], [127.1039985, 37.1849546], [127.1039703, 37.1849649], [127.1039418, 37.1849769], [127.1039163, 37.1849935], [127.1038886, 37.1850094], [127.1038691, 37.1850272], [127.103839, 37.1850425], [127.103816, 37.1850572], [127.1037937, 37.1850717], [127.1037615, 37.1850848], [127.1037295, 37.1850988], [127.1037025, 37.1851139], [127.1036761, 37.1851233], [127.1036516, 37.1851394], [127.1036262, 37.1851539], [127.103597, 37.1851737], [127.103566, 37.1851892], [127.1035346, 37.185206], [127.1035061, 37.1852238], [127.1034789, 37.1852409], [127.1034562, 37.1852591], [127.1034337, 37.1852695], [127.1034129, 37.1852922], [127.1033952, 37.1853119], [127.1033758, 37.1853223], [127.1033633, 37.1853354], [127.1033538, 37.185349], [127.103346, 37.1853613], [127.1033551, 37.1853833], [127.1033559, 37.1854031], [127.1033397, 37.1854192], [127.1033097, 37.1854254], [127.1032736, 37.1854297], [127.1032394, 37.1854397], [127.1032212, 37.1854436], [127.1032144, 37.1854489], [127.1032142, 37.1854524], [127.1032096, 37.1854561], [127.1032058, 37.18546], [127.1032007, 37.1854662], [127.1031947, 37.1854769], [127.1031828, 37.1854918], [127.1031698, 37.1855031], [127.1031501, 37.1855155], [127.1031246, 37.1855234], [127.103103, 37.1855355], [127.1030771, 37.1855471], [127.1030498, 37.1855622], [127.1030232, 37.1855729], [127.1029965, 37.1855836], [127.1029775, 37.1855974], [127.1029479, 37.1856088], [127.102923, 37.1856203], [127.1029008, 37.1856307], [127.1028734, 37.1856417], [127.1028467, 37.1856527], [127.1028144, 37.1856651], [127.1027843, 37.1856689], [127.102748, 37.185682], [127.1027181, 37.1856929], [127.1026849, 37.1857004], [127.1026569, 37.1857101], [127.1026287, 37.1857195], [127.1026022, 37.1857269], [127.1025719, 37.1857322], [127.1025395, 37.1857378], [127.1025017, 37.1857435], [127.1024664, 37.1857543], [127.1024328, 37.1857585], [127.1024026, 37.1857651], [127.1023731, 37.1857691], [127.1023381, 37.1857722], [127.1023129, 37.1857757], [127.1022809, 37.185781], [127.102256, 37.1857886], [127.102219, 37.1857994], [127.1021931, 37.1858092], [127.1021599, 37.1858165], [127.1021271, 37.1858208], [127.1020987, 37.1858247], [127.1020628, 37.1858314], [127.1020235, 37.1858361], [127.101994, 37.1858447], [127.1019625, 37.1858526], [127.1019319, 37.1858593], [127.1019007, 37.1858611], [127.1018719, 37.1858698], [127.1018426, 37.1858748], [127.1018117, 37.1858817], [127.101782, 37.185889], [127.1017494, 37.185891], [127.1017142, 37.1858961], [127.1016777, 37.1859044], [127.1016456, 37.1859098], [127.1016159, 37.1859116], [127.1015892, 37.1859144], [127.101559, 37.1859215], [127.1015227, 37.1859258], [127.1014895, 37.1859279], [127.1014563, 37.1859312], [127.1014245, 37.1859362], [127.1013923, 37.18594], [127.1013599, 37.185942], [127.101331, 37.1859435], [127.1013075, 37.1859442], [127.1012785, 37.1859472], [127.1012509, 37.1859473], [127.1012327, 37.1859443], [127.1012127, 37.1859381], [127.1011872, 37.1859426], [127.1011535, 37.1859536], [127.1011264, 37.1859656], [127.101113, 37.1859748], [127.1010918, 37.1859827], [127.1010838, 37.1859895], [127.101074, 37.1859978], [127.1010696, 37.1860028], [127.1010682, 37.1860019], [127.1010675, 37.186], [127.1010679, 37.1859995], [127.1010679, 37.1859995], [127.1010665, 37.1859975], [127.1010659, 37.1859995], [127.1010662, 37.1860002], [127.1010658, 37.1860011], [127.101066, 37.1860016], [127.101064, 37.1860012], [127.1010642, 37.1860009], [127.101062, 37.1860017], [127.1010617, 37.1860026], [127.1010619, 37.1860024], [127.1010619, 37.1860024], [127.1010619, 37.1860024], [127.1010635, 37.1860043], [127.1010635, 37.1860043], [127.1010635, 37.1860043], [127.1010635, 37.1860043], [127.1010635, 37.1860043], [127.1010601, 37.186005], [127.1010594, 37.1860049], [127.1010597, 37.1860045], [127.1010597, 37.1860045], [127.1010597, 37.1860045], [127.1010597, 37.1860045], [127.1010597, 37.1860045], [127.1010597, 37.1860045], [127.1010597, 37.1860045], [127.1010597, 37.1860045], [127.1010597, 37.1860045], [127.1010597, 37.1860045], [127.1010597, 37.1860045], [127.1010597, 37.1860045], [127.1010624, 37.1860014], [127.1010617, 37.1860019], [127.101062, 37.1860014], [127.1010623, 37.1860011], [127.1010623, 37.1860011], [127.1010623, 37.1860011], [127.1010623, 37.1860011], [127.1010623, 37.1860011], [127.1010623, 37.1860011], [127.1010616, 37.1860015], [127.1010614, 37.1860033], [127.1010614, 37.1860033], [127.1010614, 37.1860033], [127.1010557, 37.1860061], [127.101051, 37.1860058], [127.1010457, 37.1860085], [127.1010414, 37.1860148], [127.1010342, 37.1860245], [127.1010242, 37.1860383], [127.1010119, 37.1860565], [127.1010009, 37.1860745], [127.1009897, 37.1860904], [127.1009728, 37.1861031], [127.1009598, 37.1861152], [127.1009498, 37.1861343], [127.1009388, 37.1861543], [127.1009258, 37.1861721], [127.1009134, 37.1861892], [127.1008988, 37.1862046], [127.1008893, 37.1862211], [127.1008793, 37.1862366], [127.1008702, 37.1862521], [127.1008621, 37.1862652], [127.1008562, 37.1862764], [127.1008527, 37.1862902], [127.1008483, 37.1862951], [127.1008407, 37.1863014], [127.100836, 37.1863049], [127.100833, 37.1863046], [127.1008339, 37.1863033], [127.1008308, 37.1863012], [127.1008305, 37.1863012], [127.1008305, 37.1863021], [127.1008308, 37.1863022], [127.1008308, 37.1863022], [127.1008304, 37.1863032], [127.1008331, 37.1863038], [127.1008346, 37.1863037], [127.1008346, 37.1863037], [127.1008339, 37.1863024], [127.1008344, 37.1863025], [127.1008344, 37.1863025], [127.1008344, 37.1863025], [127.1008394, 37.1863003], [127.1008394, 37.1863003], [127.1008386, 37.1863008], [127.1008391, 37.1863004], [127.1008389, 37.1862991], [127.1008394, 37.1862987], [127.1008384, 37.186297], [127.1008401, 37.1862984], [127.1008406, 37.1862983], [127.100836, 37.1862992], [127.1008364, 37.1862988], [127.1008312, 37.1862972], [127.1008327, 37.1862972], [127.1008341, 37.1862981], [127.1008337, 37.1862995], [127.1008336, 37.1863004], [127.1008321, 37.1863017], [127.1008321, 37.1863017], [127.1008332, 37.1863027], [127.1008339, 37.1863024], [127.1008339, 37.1863024], [127.1008318, 37.1863015], [127.1008305, 37.1863015], [127.1008305, 37.1863015], [127.1008305, 37.1863015], [127.1008305, 37.1863015], [127.1008301, 37.1863018], [127.1008307, 37.186302], [127.1008307, 37.186302], [127.1008318, 37.1863014], [127.1008306, 37.186301], [127.1008309, 37.1863007], [127.1008309, 37.1863007], [127.1008309, 37.1863007], [127.1008309, 37.1863007], [127.1008309, 37.1863007], [127.1008345, 37.1862989], [127.1008351, 37.1862986], [127.1008351, 37.1862986], [127.1008356, 37.1862981], [127.100835, 37.1862991], [127.1008355, 37.1862987], [127.1008355, 37.1862987], [127.100831, 37.1862997], [127.1008315, 37.1862995], [127.1008319, 37.1862992], [127.1008344, 37.1863004], [127.1008331, 37.1863013], [127.1008336, 37.1863006], [127.1008347, 37.1863025], [127.1008347, 37.1863025], [127.1008348, 37.1863042], [127.1008348, 37.1863042], [127.100833, 37.1863069], [127.1008349, 37.1863067], [127.1008357, 37.1863057], [127.1008369, 37.1863059], [127.1008366, 37.1863061], [127.1008371, 37.1863057], [127.1008367, 37.1863063], [127.100837, 37.186306], [127.100837, 37.186306], [127.100837, 37.186306], [127.100837, 37.186306], [127.100837, 37.186306], [127.100832, 37.1863078], [127.1008343, 37.1863073], [127.1008345, 37.1863071], [127.100834, 37.1863075], [127.1008328, 37.1863091], [127.100822, 37.1863127], [127.100819, 37.1863117], [127.1008138, 37.186313], [127.1008094, 37.1863113], [127.1008046, 37.1863102], [127.1007931, 37.1863113], [127.1007746, 37.1863108], [127.1007502, 37.1863126], [127.1007231, 37.1863148], [127.100695, 37.1863177], [127.1006703, 37.1863206], [127.1006457, 37.1863219], [127.100623, 37.186325], [127.1005925, 37.1863288], [127.1005625, 37.1863327], [127.1005279, 37.1863345], [127.100501, 37.1863377], [127.1004719, 37.1863381], [127.1004429, 37.1863384], [127.1004144, 37.1863403], [127.1003894, 37.1863407], [127.1003582, 37.1863433], [127.1003293, 37.1863446], [127.1003026, 37.1863453], [127.1002739, 37.1863483], [127.1002509, 37.1863519], [127.1002323, 37.1863602], [127.1002078, 37.1863696], [127.1001888, 37.1863813], [127.1001681, 37.1863929], [127.1001512, 37.1864062], [127.1001351, 37.1864245], [127.100119, 37.1864471], [127.1001099, 37.1864711], [127.1001004, 37.186495], [127.1001004, 37.1865112], [127.1001079, 37.186527], [127.1001089, 37.1865453], [127.100096, 37.1865614], [127.1000855, 37.1865851], [127.1000779, 37.1866056], [127.100067, 37.1866269], [127.1000595, 37.1866442], [127.1000495, 37.1866654], [127.1000363, 37.1866877], [127.1000249, 37.1867136], [127.1000131, 37.1867341], [127.1000006, 37.1867556], [127.0999889, 37.1867844], [127.0999778, 37.1868078], [127.0999658, 37.1868283], [127.0999538, 37.1868554], [127.099943, 37.1868818], [127.0999298, 37.1869054], [127.0999158, 37.1869285], [127.0999029, 37.1869539], [127.0998907, 37.1869771], [127.0998795, 37.1869976], [127.0998653, 37.187023], [127.0998579, 37.1870468], [127.0998465, 37.1870721], [127.0998338, 37.187099], [127.099821, 37.1871181], [127.0998083, 37.1871458], [127.099796, 37.1871694], [127.0997848, 37.1871988], [127.0997716, 37.1872193], [127.0997605, 37.1872443], [127.0997484, 37.1872688], [127.0997365, 37.1872927], [127.0997231, 37.1873165], [127.0997105, 37.1873356], [127.0997011, 37.1873601], [127.0996893, 37.1873819], [127.0996797, 37.1874056], [127.0996661, 37.1874274], [127.0996575, 37.1874535], [127.0996493, 37.1874768], [127.099641, 37.1874973], [127.0996377, 37.1875257], [127.0996329, 37.1875476], [127.0996272, 37.1875728], [127.0996214, 37.1875997], [127.0996179, 37.1876211], [127.0996104, 37.1876447], [127.0996036, 37.1876675], [127.0995985, 37.1876909], [127.0995923, 37.1877122], [127.0995826, 37.1877286], [127.0995748, 37.1877481], [127.0995635, 37.1877698], [127.0995509, 37.1877853], [127.0995419, 37.1878073], [127.0995286, 37.1878299], [127.0995208, 37.1878515], [127.0995075, 37.1878735], [127.0995044, 37.187899], [127.0994907, 37.1879165], [127.0994822, 37.1879377], [127.0994769, 37.1879563], [127.0994686, 37.1879757], [127.099462, 37.1879939], [127.0994546, 37.1880112], [127.0994458, 37.1880252], [127.0994369, 37.1880396], [127.0994265, 37.1880605], [127.0994138, 37.1880851], [127.0994039, 37.188112], [127.0993918, 37.188135], [127.0993849, 37.1881562], [127.0993759, 37.1881779], [127.0993624, 37.1882023], [127.099349, 37.1882225], [127.0993385, 37.1882381], [127.0993242, 37.188261], [127.0993126, 37.1882871], [127.0993066, 37.1883035], [127.0993019, 37.1883215], [127.0992978, 37.1883364], [127.0992866, 37.1883557], [127.0992788, 37.1883738], [127.0992694, 37.188394], [127.0992619, 37.1884162], [127.0992533, 37.1884349], [127.0992479, 37.1884535], [127.0992402, 37.188466], [127.0992302, 37.1884882], [127.0992195, 37.1885089], [127.0992109, 37.1885242], [127.0992064, 37.1885432], [127.0991953, 37.188565], [127.0991889, 37.1885807], [127.0991811, 37.1886053], [127.0991792, 37.1886189], [127.0991687, 37.1886392], [127.0991592, 37.1886647], [127.0991512, 37.1886765], [127.0991418, 37.1886959], [127.099139, 37.1887136], [127.0991366, 37.1887396], [127.0991235, 37.1887583], [127.0991038, 37.1887813], [127.0990936, 37.1888044], [127.0990774, 37.1888258], [127.0990693, 37.1888511], [127.099061, 37.1888705], [127.0990422, 37.1888888], [127.0990356, 37.1889033], [127.0990284, 37.1889259], [127.0990166, 37.1889445], [127.0990069, 37.188965], [127.0989948, 37.1889827], [127.0989834, 37.1889996], [127.0989713, 37.1890229], [127.0989617, 37.1890419], [127.0989545, 37.1890739], [127.098943, 37.1890908], [127.0989324, 37.1891136], [127.0989249, 37.1891359], [127.0989106, 37.1891587], [127.0989008, 37.1891813], [127.0988935, 37.1892044], [127.098884, 37.1892266], [127.098873, 37.1892464], [127.0988639, 37.189264], [127.0988563, 37.1892845], [127.098846, 37.1893017], [127.098838, 37.1893189], [127.0988322, 37.1893371], [127.0988253, 37.1893612], [127.0988187, 37.1893748], [127.0988128, 37.189395], [127.0988038, 37.1894055], [127.0988022, 37.189421], [127.0987966, 37.1894352], [127.098789, 37.1894465], [127.0987831, 37.189459], [127.09878, 37.1894666], [127.098778, 37.1894775], [127.0987784, 37.189489], [127.098778, 37.1895033], [127.0987734, 37.1895122], [127.0987703, 37.1895179], [127.0987727, 37.1895193], [127.0987733, 37.1895187], [127.0987733, 37.1895187], [127.098772, 37.1895223], [127.0987722, 37.1895217], [127.0987747, 37.1895225], [127.0987716, 37.1895236], [127.0987698, 37.1895247], [127.0987693, 37.1895243], [127.0987693, 37.1895243], [127.0987693, 37.1895243], [127.0987693, 37.1895243], [127.0987654, 37.1895324], [127.0987631, 37.1895344], [127.0987606, 37.1895343], [127.0987593, 37.1895367], [127.0987593, 37.1895364], [127.0987597, 37.1895361], [127.0987559, 37.1895365], [127.0987559, 37.1895362], [127.0987558, 37.1895388], [127.0987559, 37.1895385], [127.0987559, 37.1895385], [127.0987559, 37.1895385], [127.0987559, 37.1895385], [127.0987559, 37.1895385], [127.0987559, 37.1895385], [127.0987559, 37.1895385], [127.0987559, 37.1895385], [127.0987559, 37.1895385], [127.0987559, 37.1895385], [127.0987559, 37.1895385], [127.0987559, 37.1895385], [127.0987559, 37.1895385], [127.0987559, 37.1895385], [127.0987559, 37.1895385], [127.0987559, 37.1895385], [127.0987559, 37.1895385], [127.0987559, 37.1895385], [127.0987559, 37.1895385], [127.0987559, 37.1895385], [127.0987559, 37.1895385], [127.0987559, 37.1895385], [127.0987559, 37.1895385], [127.0987559, 37.1895385], [127.0987559, 37.1895385], [127.0987559, 37.1895385], [127.0987559, 37.1895385], [127.0987559, 37.1895385], [127.0987559, 37.1895385], [127.0987559, 37.1895385], [127.0987559, 37.1895385], [127.0987559, 37.1895385], [127.0987559, 37.1895385], [127.0987559, 37.1895385], [127.0987559, 37.1895385], [127.0987559, 37.1895385], [127.0987559, 37.1895385], [127.0987559, 37.1895385], [127.0987559, 37.1895385], [127.0987566, 37.1895558], [127.0987566, 37.1895558], [127.0987566, 37.1895558], [127.0987586, 37.1895581], [127.0987582, 37.1895595], [127.0987579, 37.1895587], [127.0987579, 37.1895587], [127.0987568, 37.1895597], [127.098755, 37.1895578], [127.0987571, 37.1895589], [127.0987563, 37.1895579], [127.098757, 37.1895555], [127.0987574, 37.189556], [127.0987574, 37.189556], [127.0987574, 37.189556], [127.0987584, 37.1895546], [127.0987578, 37.1895558], [127.0987556, 37.1895569], [127.098752, 37.1895605], [127.098748, 37.1895647], [127.0987409, 37.1895748], [127.0987333, 37.1895889], [127.0987224, 37.1896104], [127.098713, 37.1896282], [127.098708, 37.1896446], [127.098701, 37.1896612], [127.0986918, 37.1896763], [127.0986849, 37.1896896], [127.0986789, 37.1897084], [127.0986688, 37.1897269], [127.0986598, 37.1897438], [127.0986518, 37.189761], [127.0986363, 37.1897806], [127.0986297, 37.1898031], [127.0986329, 37.1898145], [127.0986357, 37.18983], [127.0986395, 37.1898476], [127.0986483, 37.1898511], [127.0986462, 37.1898603], [127.0986483, 37.1898718], [127.0986477, 37.1898898], [127.0986437, 37.1899067], [127.0986455, 37.1899202], [127.098643, 37.1899325], [127.0986431, 37.1899456], [127.0986392, 37.1899569], [127.0986407, 37.1899647], [127.0986403, 37.189974], [127.0986395, 37.189982], [127.0986429, 37.189989], [127.0986374, 37.1900036], [127.0986333, 37.1900191], [127.0986341, 37.1900345], [127.0986345, 37.1900508], [127.0986365, 37.1900696], [127.0986402, 37.1900868], [127.098647, 37.1901011], [127.098632, 37.1901131], [127.098634, 37.1901304], [127.0986334, 37.1901505], [127.0986342, 37.1901642], [127.0986155, 37.1901787], [127.0986144, 37.1901901], [127.0985986, 37.1902063], [127.0985831, 37.1902181], [127.0985738, 37.1902378], [127.0985654, 37.1902628], [127.0985622, 37.1902866], [127.0985576, 37.1903068], [127.0985493, 37.1903267], [127.0985379, 37.1903456], [127.0985385, 37.1903604], [127.098539, 37.1903772], [127.0985412, 37.1903922], [127.0985391, 37.1904103], [127.0985422, 37.1904259], [127.098537, 37.1904449], [127.0985294, 37.1904614], [127.098528, 37.1904844], [127.0985288, 37.1904975], [127.0985228, 37.1905243], [127.0985091, 37.1905456], [127.0985034, 37.1905678], [127.098504, 37.1905872], [127.0984964, 37.1906076], [127.0984882, 37.1906353], [127.0984818, 37.1906595], [127.0984814, 37.1906834], [127.0984731, 37.1907079], [127.098469, 37.1907278], [127.0984691, 37.1907486], [127.0984666, 37.1907754], [127.0984633, 37.1907998], [127.0984651, 37.1908224], [127.0984588, 37.1908458], [127.0984599, 37.1908626], [127.0984558, 37.1908792], [127.0984518, 37.1909036], [127.0984542, 37.1909197], [127.0984458, 37.190938], [127.0984509, 37.1909591], [127.0984462, 37.1909773], [127.0984462, 37.1909932], [127.0984572, 37.1910141], [127.0984579, 37.1910347], [127.0984649, 37.1910553], [127.0984695, 37.1910756], [127.0984748, 37.191101], [127.0984808, 37.1911229], [127.0984889, 37.1911477], [127.0984876, 37.1911704], [127.098489, 37.1911944], [127.0984955, 37.1912209], [127.0984915, 37.1912466], [127.0984902, 37.1912681], [127.0984935, 37.191295], [127.098488, 37.1913179], [127.0984983, 37.1913327], [127.0984952, 37.191359], [127.0984825, 37.1913886], [127.0984821, 37.1914116], [127.0984863, 37.1914329], [127.0984924, 37.1914516], [127.0984836, 37.1914737], [127.0984824, 37.1914958], [127.0984823, 37.1915183], [127.0984859, 37.1915399], [127.0984887, 37.1915617], [127.0984944, 37.1915834], [127.0984944, 37.1916063], [127.0984959, 37.1916279], [127.0984885, 37.1916434], [127.0984881, 37.1916647], [127.0984792, 37.1916914], [127.0984789, 37.1917197], [127.0984798, 37.1917454], [127.0984718, 37.1917688], [127.0984653, 37.1917914], [127.0984637, 37.1918194], [127.0984612, 37.1918457], [127.0984561, 37.1918691], [127.0984555, 37.1918952], [127.0984528, 37.1919237], [127.0984553, 37.1919447], [127.0984524, 37.191974], [127.0984556, 37.1920003], [127.0984493, 37.1920275], [127.0984539, 37.1920553], [127.0984473, 37.1920776], [127.0984532, 37.1921028], [127.0984495, 37.1921294], [127.0984409, 37.1921514], [127.0984316, 37.1921726], [127.0984232, 37.1921917], [127.098422, 37.1922239], [127.0984249, 37.1922523], [127.0984145, 37.1922807], [127.0984275, 37.1923049], [127.0984281, 37.192333], [127.0984325, 37.1923599], [127.0984302, 37.1923787], [127.0984329, 37.192404], [127.0984334, 37.192422], [127.0984407, 37.1924501], [127.0984418, 37.1924892], [127.0984415, 37.1925198], [127.0984347, 37.1925468], [127.098435, 37.1925755], [127.0984126, 37.1926067], [127.0984153, 37.1926314], [127.0984312, 37.1926558], [127.0984551, 37.1926821], [127.0984546, 37.1927114], [127.0984546, 37.1927261], [127.0984625, 37.1927522], [127.0984798, 37.192775], [127.0984843, 37.1928034], [127.0984861, 37.1928299], [127.0984914, 37.1928578], [127.0984997, 37.1928895], [127.0985086, 37.1929152], [127.0985116, 37.1929474], [127.098514, 37.192978], [127.0985185, 37.1930089], [127.0985183, 37.193036], [127.0985167, 37.1930645], [127.0985173, 37.1930922], [127.0985217, 37.1931167], [127.0985209, 37.1931436], [127.0985221, 37.1931722], [127.098527, 37.1931997], [127.0985269, 37.1932285], [127.0985243, 37.1932511], [127.0985246, 37.193278], [127.098521, 37.1933055], [127.0985219, 37.1933336], [127.0985189, 37.1933604], [127.0985192, 37.1933863], [127.0985194, 37.1934118], [127.0985223, 37.1934367], [127.0985236, 37.1934656], [127.0985211, 37.1934848], [127.0985264, 37.1935062], [127.0985222, 37.1935366], [127.0985213, 37.1935644], [127.0985211, 37.1935904], [127.0985216, 37.1936116], [127.0985263, 37.1936372], [127.0985239, 37.1936603], [127.0985169, 37.1936759], [127.0985151, 37.1937059], [127.0985129, 37.1937256], [127.0985124, 37.1937497], [127.0985058, 37.1937758], [127.0985063, 37.1938001], [127.0985083, 37.193829], [127.0985084, 37.1938524], [127.098513, 37.1938841], [127.0985129, 37.193913], [127.0985128, 37.1939425], [127.0985165, 37.1939692], [127.0985119, 37.1939964], [127.0985033, 37.1940229], [127.0984972, 37.1940463], [127.0984922, 37.1940736], [127.0984861, 37.1940967], [127.0984809, 37.1941138], [127.098483, 37.1941341], [127.0984857, 37.1941544], [127.0984896, 37.1941793], [127.0984946, 37.1942083], [127.0984972, 37.1942374], [127.0984965, 37.1942673], [127.0984988, 37.1942972], [127.0984986, 37.1943288], [127.0984981, 37.1943575], [127.0985003, 37.194385], [127.0984976, 37.1944145], [127.0985011, 37.1944438], [127.0985008, 37.1944716], [127.0985035, 37.1944981], [127.0985073, 37.1945222], [127.0985082, 37.194551], [127.0985095, 37.1945725], [127.0985126, 37.1945968], [127.098516, 37.1946185], [127.0985217, 37.1946466], [127.0985322, 37.1946664], [127.0985301, 37.1946945], [127.0985245, 37.1947067], [127.0985281, 37.1947386], [127.0985219, 37.194779], [127.0985276, 37.1947987], [127.0985308, 37.1948222], [127.0985307, 37.1948374], [127.0985303, 37.1948612], [127.098508, 37.194896], [127.0985025, 37.1949252], [127.0985122, 37.1949534], [127.0985233, 37.1949717], [127.0985261, 37.1949968], [127.0985296, 37.195025], [127.0985283, 37.1950439], [127.0985384, 37.1950678], [127.0985391, 37.1950901], [127.0985387, 37.1951124], [127.0985387, 37.1951369], [127.0985422, 37.1951575], [127.0985438, 37.1951797], [127.0985403, 37.1952005], [127.0985392, 37.1952273], [127.0985377, 37.1952537], [127.0985423, 37.1952691], [127.0985285, 37.1952845], [127.0985222, 37.1953048], [127.0985192, 37.1953157], [127.0985181, 37.1953363], [127.0985166, 37.195349], [127.098506, 37.1953689], [127.0984934, 37.1953912], [127.0984891, 37.1954123], [127.0984954, 37.1954407], [127.0985062, 37.195466], [127.0985093, 37.1954869], [127.0985006, 37.1955044], [127.0984978, 37.1955254], [127.0984954, 37.1955446], [127.0984898, 37.1955618], [127.0984908, 37.195586], [127.0984975, 37.195611], [127.0985049, 37.1956309], [127.0985067, 37.1956458], [127.0985138, 37.1956597], [127.0985111, 37.1956769], [127.0985089, 37.1956972], [127.0985064, 37.1957198], [127.0985103, 37.1957519], [127.0985046, 37.1957686], [127.0985044, 37.1957907], [127.0984977, 37.1958154], [127.0984929, 37.1958475], [127.0984857, 37.195867], [127.0984806, 37.1958935], [127.0984865, 37.1959152], [127.0984823, 37.195938], [127.0984773, 37.1959624], [127.0984715, 37.1959839], [127.0984718, 37.1960123], [127.0984619, 37.1960401], [127.0984577, 37.1960559], [127.0984496, 37.1960761], [127.0984506, 37.1961022], [127.0984535, 37.1961222], [127.0984503, 37.1961505], [127.0984464, 37.1961774], [127.0984407, 37.1962011], [127.0984459, 37.1962255], [127.0984437, 37.19625], [127.0984459, 37.1962707], [127.0984355, 37.1962968], [127.0984444, 37.1963103], [127.0984267, 37.1963327], [127.0984224, 37.1963557], [127.0984235, 37.1963792], [127.0984206, 37.1964065], [127.0984319, 37.1964291], [127.0984304, 37.1964517], [127.0984354, 37.1964816], [127.0984365, 37.1965032], [127.0984324, 37.1965251], [127.0984329, 37.1965439], [127.0984285, 37.1965676], [127.0984276, 37.1965855], [127.0984293, 37.1966077], [127.0984298, 37.1966286], [127.0984243, 37.1966464], [127.0984233, 37.1966615], [127.0984251, 37.1966854], [127.0984241, 37.1967007], [127.0984235, 37.1967118], [127.0984287, 37.1967324], [127.0984291, 37.1967451], [127.0984293, 37.1967602], [127.0984295, 37.1967685], [127.0984341, 37.1967803], [127.0984337, 37.1967909], [127.0984405, 37.1967977], [127.0984431, 37.1967993], [127.098447, 37.1968015], [127.0984512, 37.1967996], [127.0984548, 37.1968027], [127.0984569, 37.1968108], [127.0984606, 37.1968138], [127.0984617, 37.1968138], [127.0984623, 37.1968157], [127.0984681, 37.1968163], [127.0984701, 37.1968158], [127.09847, 37.1968156], [127.0984701, 37.1968154], [127.09847, 37.1968153], [127.09847, 37.1968153], [127.09847, 37.1968153], [127.09847, 37.1968153], [127.09847, 37.1968153], [127.09847, 37.1968153], [127.09847, 37.1968153], [127.09847, 37.1968153], [127.09847, 37.1968153], [127.09847, 37.1968153], [127.09847, 37.1968153], [127.0984654, 37.1968243], [127.0984655, 37.1968241], [127.0984694, 37.1968256], [127.0984699, 37.1968239], [127.0984702, 37.1968239], [127.0984702, 37.1968239], [127.0984702, 37.1968239], [127.0984749, 37.196825], [127.098479, 37.1968254], [127.098479, 37.1968254], [127.0984786, 37.196824], [127.0984786, 37.196824], [127.0984811, 37.1968185], [127.0984811, 37.196818], [127.0984842, 37.1968201], [127.0984846, 37.1968195], [127.0984846, 37.1968195], [127.0984846, 37.1968195], [127.0984846, 37.1968195], [127.0984858, 37.1968293], [127.0984858, 37.1968292], [127.0984858, 37.1968292], [127.0984858, 37.1968292], [127.0984839, 37.196822], [127.0984839, 37.196822], [127.0984839, 37.196822], [127.0984839, 37.196822], [127.0984839, 37.196822], [127.0984839, 37.196822], [127.0984839, 37.196822], [127.0984839, 37.196822], [127.0984839, 37.196822], [127.0984839, 37.196822], [127.0984815, 37.1968265], [127.0984791, 37.196824], [127.0984791, 37.196824], [127.0984791, 37.196824], [127.0984791, 37.196824], [127.0984791, 37.196824], [127.0984791, 37.196824], [127.0984791, 37.196824], [127.0984791, 37.196824], [127.0984793, 37.196826], [127.0984792, 37.1968258], [127.0984814, 37.196829], [127.0984805, 37.1968279], [127.0984804, 37.196829], [127.0984788, 37.1968305], [127.0984775, 37.1968305], [127.0984792, 37.1968318], [127.0984811, 37.196841], [127.0984786, 37.1968469], [127.0984812, 37.1968602], [127.0984828, 37.1968698], [127.0984886, 37.1968816], [127.0984992, 37.1969009], [127.098503, 37.1969143], [127.0985076, 37.1969292], [127.0985124, 37.1969432], [127.0985021, 37.1969661], [127.0985095, 37.1969857], [127.0985289, 37.1969959], [127.0985318, 37.1970093], [127.0985358, 37.1970208], [127.0985408, 37.1970345], [127.0985466, 37.1970409], [127.0985556, 37.1970623], [127.0985573, 37.1970734], [127.0985714, 37.1970865], [127.0985762, 37.1970954], [127.0985609, 37.1971075], [127.0985545, 37.1971255], [127.0985609, 37.1971424], [127.0985514, 37.1971597], [127.0985575, 37.197172], [127.098557, 37.1971869], [127.0985506, 37.1972106], [127.0985356, 37.1972365], [127.098534, 37.1972541], [127.0985325, 37.1972808], [127.09852, 37.1973072], [127.0985194, 37.1973324], [127.098533, 37.1973494], [127.0985222, 37.1973767], [127.0985165, 37.1974001], [127.0985067, 37.197429], [127.0985061, 37.1974548], [127.0985114, 37.1974718], [127.0985022, 37.1975001], [127.0984954, 37.1975216], [127.0984833, 37.1975467], [127.0984875, 37.1975682], [127.0984833, 37.1975921], [127.0984918, 37.1976182], [127.0984935, 37.1976382], [127.0984996, 37.1976586], [127.0985275, 37.1976766], [127.0985435, 37.1976944], [127.0985452, 37.1977089], [127.09853, 37.1977394], [127.0985181, 37.1977673], [127.0985183, 37.1977881], [127.0985243, 37.1978068], [127.0985195, 37.197825], [127.0985165, 37.1978465], [127.0985068, 37.1978644], [127.0985077, 37.1978912], [127.0985061, 37.1979062], [127.0985027, 37.197935], [127.0985078, 37.1979595], [127.0984969, 37.1979879], [127.0984991, 37.1980125], [127.0985186, 37.1980292], [127.0985014, 37.198063], [127.0984959, 37.1980901], [127.0984939, 37.1981105], [127.0984905, 37.1981296], [127.0984912, 37.1981549], [127.0984853, 37.1981737], [127.0984815, 37.198187], [127.0984768, 37.1982036], [127.0984774, 37.1982156], [127.0984711, 37.1982248], [127.0984687, 37.1982295], [127.0984651, 37.1982309], [127.0984626, 37.1982358], [127.0984644, 37.1982371], [127.0984674, 37.1982455], [127.0984622, 37.1982431], [127.0984638, 37.198245], [127.0984626, 37.1982456], [127.0984624, 37.1982437], [127.0984656, 37.1982433], [127.0984669, 37.1982439], [127.0984643, 37.1982471], [127.0984643, 37.1982471], [127.0984643, 37.1982471], [127.0984673, 37.1982438], [127.0984672, 37.1982448], [127.0984672, 37.1982445], [127.0984672, 37.1982445], [127.0984723, 37.1982445], [127.0984723, 37.1982445], [127.0984723, 37.1982445], [127.0984723, 37.1982445], [127.0984723, 37.1982445], [127.0984723, 37.1982445], [127.0984723, 37.1982445], [127.0984847, 37.1982393], [127.0984895, 37.1982383], [127.0984934, 37.198236], [127.0984935, 37.1982359], [127.0984935, 37.1982359], [127.0984935, 37.1982359], [127.0984825, 37.1982361], [127.0984812, 37.1982396], [127.0984789, 37.1982422], [127.0984771, 37.1982396], [127.0984769, 37.1982391], [127.0984763, 37.1982408], [127.0984744, 37.1982406], [127.0984736, 37.1982376], [127.098472, 37.198237], [127.0984723, 37.1982369], [127.0984677, 37.1982365], [127.0984677, 37.1982365], [127.0984677, 37.1982365], [127.0984662, 37.1982384], [127.098467, 37.1982388], [127.098467, 37.1982388], [127.098467, 37.1982388], [127.098467, 37.1982388], [127.098467, 37.1982388], [127.098467, 37.1982388], [127.098467, 37.1982388], [127.098467, 37.1982388], [127.098483, 37.1982344], [127.0984846, 37.1982323], [127.0984848, 37.1982321], [127.0984848, 37.1982321], [127.0984848, 37.1982321], [127.0984848, 37.1982321], [127.0984848, 37.1982321], [127.0984848, 37.1982321], [127.0984848, 37.1982321], [127.0984848, 37.1982321], [127.0984848, 37.1982321], [127.0984848, 37.1982321], [127.0984849, 37.1982381], [127.098485, 37.1982378], [127.098485, 37.1982378], [127.098485, 37.1982378], [127.098485, 37.1982378], [127.098485, 37.1982378], [127.098485, 37.1982378], [127.098485, 37.1982378], [127.098485, 37.1982378], [127.098485, 37.1982378], [127.098481, 37.1982448], [127.098481, 37.1982448], [127.098481, 37.1982448], [127.098481, 37.1982448], [127.098481, 37.1982448], [127.0984858, 37.1982439], [127.0984847, 37.1982438], [127.0984847, 37.1982438], [127.0984847, 37.1982438], [127.0984844, 37.1982448], [127.098482, 37.1982454], [127.0984817, 37.1982445], [127.0984804, 37.1982434], [127.0984804, 37.1982434], [127.0984824, 37.1982417], [127.0984804, 37.198241], [127.0984811, 37.1982404], [127.0984783, 37.1982398], [127.0984783, 37.1982398], [127.0984783, 37.1982398], [127.0984783, 37.1982398], [127.0984783, 37.1982398], [127.0984783, 37.1982398], [127.0984783, 37.1982398], [127.0984783, 37.1982398], [127.0984783, 37.1982398], [127.0984649, 37.1982462], [127.0984649, 37.1982462], [127.0984649, 37.1982462], [127.0984649, 37.1982423], [127.0984649, 37.1982423], [127.0984649, 37.1982423], [127.0984649, 37.1982423], [127.0984649, 37.1982423], [127.0984649, 37.1982423], [127.0984649, 37.1982423], [127.0984649, 37.1982423], [127.0984649, 37.1982423], [127.0984649, 37.1982423], [127.0984649, 37.1982423], [127.0984649, 37.1982423], [127.0984649, 37.1982423], [127.0984649, 37.1982423], [127.0984649, 37.1982423], [127.0984649, 37.1982423], [127.0984649, 37.1982423], [127.0984649, 37.1982423], [127.0984649, 37.1982423], [127.0984649, 37.1982423], [127.0984596, 37.1982534], [127.098459, 37.1982582], [127.0984573, 37.1982622], [127.0984586, 37.1982639], [127.0984576, 37.1982685], [127.0984532, 37.198278], [127.0984541, 37.1982854], [127.0984553, 37.1982948], [127.0984693, 37.1983116], [127.0984702, 37.1983343], [127.0984704, 37.1983524], [127.0984664, 37.1983726], [127.0984756, 37.1983901], [127.0984858, 37.198407], [127.0984864, 37.1984318], [127.0984913, 37.1984538], [127.0984865, 37.1984758], [127.0984904, 37.1984937], [127.0984931, 37.1985186], [127.0984929, 37.1985403], [127.0984946, 37.198562], [127.0984913, 37.1985843], [127.0984842, 37.1986067], [127.0984839, 37.1986176], [127.0984807, 37.1986443], [127.0984862, 37.1986647], [127.0984853, 37.1986845], [127.0984879, 37.1987073], [127.0984834, 37.1987325], [127.0984832, 37.1987584], [127.098485, 37.1987858], [127.0984796, 37.1988093], [127.098472, 37.198837], [127.0984689, 37.1988641], [127.0984757, 37.198887], [127.0984699, 37.1989133], [127.0984636, 37.1989435], [127.0984593, 37.1989677], [127.0984612, 37.1989895], [127.0984496, 37.1990173], [127.0984531, 37.1990352], [127.0984625, 37.1990573], [127.098451, 37.1990947], [127.0984497, 37.1991214], [127.0984487, 37.199146], [127.098451, 37.1991727], [127.0984582, 37.1991979], [127.0984664, 37.1992208], [127.0984613, 37.1992443], [127.0984563, 37.1992726], [127.0984759, 37.1992916], [127.0984529, 37.1993234], [127.0984638, 37.1993503], [127.0984744, 37.1993731], [127.0984748, 37.1994053], [127.0984609, 37.1994365], [127.0984613, 37.1994621], [127.0984762, 37.1994842], [127.0984784, 37.1995094], [127.0984733, 37.1995464], [127.0984538, 37.1995779], [127.0984549, 37.1996047], [127.0984586, 37.1996326], [127.0984599, 37.1996626], [127.0984455, 37.1996979], [127.0984278, 37.1997319], [127.0984281, 37.1997578], [127.098419, 37.1997833], [127.0984259, 37.199808], [127.0984166, 37.1998332], [127.0984183, 37.199861], [127.0984215, 37.1998926], [127.098422, 37.1999218], [127.0984243, 37.1999497], [127.098431, 37.1999803], [127.0984321, 37.2000112], [127.0984322, 37.2000355], [127.0984371, 37.2000656], [127.0984306, 37.2000921], [127.0984345, 37.2001173], [127.0984337, 37.2001334], [127.098434, 37.2001583], [127.0984452, 37.2001796], [127.0984352, 37.2002074], [127.0984363, 37.2002365], [127.0984247, 37.2002616], [127.0984251, 37.2002887], [127.0984206, 37.2003194], [127.0984212, 37.2003502], [127.0984238, 37.2003688], [127.0984155, 37.2003984], [127.0984133, 37.2004241], [127.0984123, 37.2004521], [127.0984211, 37.2004741], [127.0984201, 37.2005035], [127.0984153, 37.2005266], [127.098413, 37.2005538], [127.0984078, 37.200574], [127.0984134, 37.2005956], [127.0984081, 37.2006193], [127.0983981, 37.2006474], [127.0984048, 37.2006721], [127.0984098, 37.2006832], [127.0984012, 37.2007016], [127.0983989, 37.2007279], [127.0983955, 37.2007408], [127.0984035, 37.2007493], [127.0983943, 37.2007675], [127.0983906, 37.2007754], [127.0983872, 37.2007821], [127.0983909, 37.2007977], [127.0983862, 37.2008066], [127.0983881, 37.200805], [127.0983869, 37.2008042], [127.0983779, 37.2008089], [127.0983709, 37.2008176], [127.0983721, 37.2008173], [127.098377, 37.2008343], [127.0983655, 37.2008408], [127.0983664, 37.200847], [127.0983635, 37.2008595], [127.0983681, 37.2008667], [127.0983657, 37.2008852], [127.0983607, 37.2009011], [127.0983539, 37.2009153], [127.0983617, 37.2009179], [127.0983598, 37.2009395], [127.098359, 37.2009658], [127.0983526, 37.2009709], [127.0983454, 37.2009847], [127.0983408, 37.2010054], [127.0983387, 37.2010255], [127.0983364, 37.201038], [127.0983278, 37.2010527], [127.0983132, 37.2010703], [127.0983038, 37.201088], [127.098291, 37.2011033], [127.0982814, 37.2011189], [127.0982735, 37.2011297], [127.0982672, 37.2011418], [127.098253, 37.2011423], [127.0982441, 37.2011391], [127.0982232, 37.2011319], [127.0982092, 37.2011406], [127.098205, 37.2011484], [127.0981868, 37.2011522], [127.0981733, 37.2011609], [127.0981624, 37.2011656], [127.0981475, 37.2011649], [127.0981356, 37.2011644], [127.0981165, 37.2011661], [127.0981092, 37.2011678], [127.0980937, 37.2011711], [127.0980786, 37.2011731], [127.0980576, 37.2011679], [127.0980438, 37.2011701], [127.0980266, 37.2011724], [127.0980091, 37.2011694], [127.097986, 37.2011664], [127.0979668, 37.2011628], [127.0979503, 37.201151], [127.0979325, 37.2011477], [127.0979167, 37.2011521], [127.0979028, 37.2011518], [127.0978828, 37.201146], [127.0978665, 37.201141], [127.0978549, 37.2011412], [127.0978428, 37.2011446], [127.0978284, 37.2011481], [127.0978069, 37.2011487], [127.097792, 37.2011524], [127.0977744, 37.201147], [127.0977537, 37.201144], [127.0977378, 37.2011411], [127.0977204, 37.2011424], [127.0976952, 37.2011414], [127.0976811, 37.2011396], [127.0976601, 37.2011397], [127.0976396, 37.2011352], [127.0976086, 37.2011277], [127.0975885, 37.2011347], [127.0975717, 37.2011293], [127.0975596, 37.201125], [127.0975387, 37.2011294], [127.0975252, 37.2011364], [127.0975057, 37.2011274], [127.0974966, 37.2011289], [127.0974883, 37.2011221], [127.0974718, 37.2011191], [127.0974557, 37.2011113], [127.097437, 37.201116], [127.097419, 37.2011124], [127.0974032, 37.2011093], [127.0973832, 37.201102], [127.097364, 37.2011016], [127.0973457, 37.2011023], [127.0973219, 37.20111], [127.097302, 37.2011169], [127.097287, 37.201115], [127.0972599, 37.2011197], [127.0972402, 37.2011194], [127.0972162, 37.2011293], [127.0971912, 37.2011316], [127.0971684, 37.2011384], [127.0971447, 37.201132], [127.0971231, 37.2011409], [127.0971079, 37.2011585], [127.0970919, 37.2011608], [127.0970718, 37.2011583], [127.0970524, 37.2011626], [127.0970366, 37.2011643], [127.0970185, 37.2011611], [127.0969961, 37.2011621], [127.0969739, 37.2011644], [127.0969555, 37.2011686], [127.0969383, 37.201169], [127.096915, 37.2011558], [127.0968925, 37.2011456], [127.0968693, 37.2011364], [127.0968503, 37.2011339], [127.0968253, 37.2011351], [127.0967999, 37.2011374], [127.0967745, 37.2011373], [127.0967465, 37.2011337], [127.0967158, 37.2011304], [127.0966913, 37.2011241], [127.0966636, 37.2011246], [127.0966381, 37.201121], [127.0966195, 37.2011237], [127.096599, 37.2011288], [127.0965768, 37.2011341], [127.0965623, 37.2011366], [127.0965509, 37.2011405], [127.0965392, 37.2011411], [127.0965263, 37.2011309], [127.0965246, 37.2011202], [127.0965266, 37.2011099], [127.0965254, 37.2010974], [127.0965302, 37.2010916], [127.0965316, 37.2010739], [127.0965313, 37.2010615], [127.0965369, 37.2010477], [127.0965356, 37.201032], [127.0965428, 37.2010012], [127.0965454, 37.2009828], [127.096534, 37.2009729], [127.0965337, 37.200953], [127.0965306, 37.2009353], [127.0965413, 37.2009214], [127.0965505, 37.2009071], [127.0965551, 37.200888], [127.0965551, 37.2008658], [127.0965662, 37.2008517], [127.0965794, 37.2008344], [127.0965766, 37.2008198], [127.0965737, 37.2007989], [127.0965672, 37.2007807], [127.096566, 37.2007609], [127.0965578, 37.2007628], [127.0965479, 37.2007446], [127.0965535, 37.2007326], [127.0965531, 37.2007232], [127.0965542, 37.2007066], [127.0965477, 37.2006906], [127.0965335, 37.2006778], [127.0965315, 37.200662], [127.0965321, 37.2006427], [127.0965377, 37.2006319], [127.0965384, 37.2006167], [127.0965448, 37.2006082], [127.0965456, 37.2006011], [127.0965439, 37.2005964], [127.0965423, 37.2005872], [127.0965451, 37.2005815], [127.0965465, 37.2005832], [127.0965486, 37.20058], [127.0965457, 37.2005805]]}}]}